Category,City,Company,Zipcode,Phone,State,Street,Address,SearchTerm,Website
Construction Company, New York,Plaza Construction,10018,(212) 849-4800,NY,1065 Ave of the Americas #7,"1065 Ave of the Americas #7, New York, NY 10018","construction, New York, New York",http://www.plazaconstruction.com/
Construction Company, New York,"Gotham Construction Company, LLC",10018,(212) 599-0520,NY,1010 Avenue of the Americas #4,"1010 Avenue of the Americas #4, New York, NY 10018","construction, New York, New York",http://www.gothamconstruction.com/
Construction Company, New York,IBEX Construction,10004,(646) 366-6200,NY,1 Whitehall St,"1 Whitehall St, New York, NY 10004","construction, New York, New York",http://www.ibexconstruction.com/
General Contractor, New York,ACC Construction Corporation,10016,(212) 686-9331,NY,6 E 32nd St #7,"6 E 32nd St #7, New York, NY 10016","construction, New York, New York",http://www.acc-construction.com/
General Contractor, New York,Holt Construction Corporation,10001,(212) 391-0424,NY,875 Ave of the Americas # 1001,"875 Ave of the Americas # 1001, New York, NY 10001","construction, New York, New York",http://holtcc.com/
General Contractor, New York,Duce Construction Corporation,10027,(212) 316-2400,NY,412 W 127th St,"412 W 127th St, New York, NY 10027","construction, New York, New York",http://www.ducecc.com/
General Contractor, New York,Titanium Construction Corporation,10001,(212) 986-4753,NY,247 W 30th St # 6W,"247 W 30th St # 6W, New York, NY 10001","construction, New York, New York",http://www.titaniumcs.com/
General Contractor, New York,Excel Interior Construction,10018,(212) 627-6319,NY,307 W 38th St #1501,"307 W 38th St #1501, New York, NY 10018","construction, New York, New York",http://www.excelinteriorny.com/
General Contractor, New York,JRM Construction,10018,(212) 545-0500,NY,242 W 36th St,"242 W 36th St, New York, NY 10018","construction, New York, New York",http://www.jrmcm.com/
Corporate Campus, New York,Gilbane Building Company,10005,(212) 312-1600,NY,88 Pine St,"88 Pine St, New York, NY 10005","construction, New York, New York",http://gilbaneco.com/
Construction Company, New York,Henegan Construction Co Inc,10001,(212) 947-6441,NY,250 W 30th St,"250 W 30th St, New York, NY 10001","construction, New York, New York",http://www.henegan.com/
Construction Company, New York,"Bellet Construction Company, Inc.",10065,(212) 982-3000,NY,425 E 61st St,"425 E 61st St, New York, NY 10065","construction, New York, New York",http://www.belletconstruction.com/
Construction Company, Bronx,Saga Construction Corporation,10472,(347) 974-3999,NY,1149 White Plains Rd,"1149 White Plains Rd, Bronx, NY 10472","construction, New York, New York",http://www.sagaconstructionnyc.com/
Construction Company, New York,Cava Construction & Development,10001,(914) 663-8633,NY,213 W 35th St,"213 W 35th St, New York, NY 10001","construction, New York, New York",http://www.cavaconstruction.com/
Construction Company, New York,Talisen Construction,10001,(212) 244-4581,NY,213 W 35th St #806,"213 W 35th St #806, New York, NY 10001","construction, New York, New York",http://talisenconstructioncorp.com/
General Contractor, Bronx,Eljin Construction,10451,(718) 585-3256,NY,366 Canal Pl,"366 Canal Pl, Bronx, NY 10451","construction, New York, New York",http://www.eljinconstruction.com/
Construction Company, New York,Certified of NY Inc,10019,(212) 397-1945,NY,623 W 51st St,"623 W 51st St, New York, NY 10019","construction, New York, New York",http://www.certifiedconstruction.com/
Construction Company, New York,Shawmut Design and Construction,10022,(212) 920-8900,NY,3 E 54th St,"3 E 54th St, New York, NY 10022","construction, New York, New York",http://www.shawmut.com/
General Contractor, New York,"ICS Builders, Inc.",10018,(212) 633-1300,NY,8 W 36th St,"8 W 36th St, New York, NY 10018","construction, New York, New York",http://www.icsbuilders.com/
,,,,,,,,"construction, New York, New York",
Construction Company, 120 Broadway #1120,Americon Construction Inc.,York,(212) 274-0190,New,Equitable Life Building,"Equitable Life Building, 120 Broadway #1120, New York, NY 10271","construction, New York, New York",http://www.americoninc.com/
Construction Company, Bronx,Danella Construction Corporation-Ny,10474,(914) 273-7979,NY,1180 Longwood Ave,"1180 Longwood Ave, Bronx, NY 10474","construction, New York, New York",http://www.danella.com/
General Contractor, New York,Lower Eastside Construction,10002,(212) 420-0014,NY,475 FDR Drive,"475 FDR Drive, New York, NY 10002","construction, New York, New York",http://www.lesc.nyc/
Construction Company, Queens,New York City School Construction,11101,(718) 472-8000,NY,3030 Thomson Ave,"3030 Thomson Ave, Queens, NY 11101","construction, New York, New York",http://www.nycsca.org/
Construction Company, New York,Mamais Contracting Corporation.,10027,(212) 865-1666,NY,256 W 124th St,"256 W 124th St, New York, NY 10027","construction, New York, New York",http://www.mamais.com/
General Contractor, New York,Alpha General Construction-Ny,10024,(212) 875-2110,NY,209 W 87th St,"209 W 87th St, New York, NY 10024","construction, New York, New York",
General Contractor, New York,Diamond Construction NYC,10017,(718) 748-2088,NY,132 E 43rd St,"132 E 43rd St, New York, NY 10017","construction, New York, New York",http://www.diamondconstructionnyc.com/
General Contractor, New York,R D Rice Construction,10010,(212) 268-1414,NY,56 W 22nd St,"56 W 22nd St, New York, NY 10010","construction, New York, New York",
Construction Company, Queens,Atlas Construction of Ny,11378,(718) 552-9800,NY,5921 56th St,"5921 56th St, Queens, NY 11378","construction, New York, New York",http://www.atlasconstructionny.com/
General Contractor, Queens,J.K. Construction NY Inc.,11428,(718) 479-4444,NY,221-33 Davenport Ave,"221-33 Davenport Ave, Queens, NY 11428","construction, New York, New York",
General Contractor, New York,94th Street Construction,10018,(212) 427-2713,NY,330 W 38th St,"330 W 38th St, New York, NY 10018","construction, New York, New York",http://www.94thstreetconstruction.com/
Construction Company, New York,Steadfast Development & Construction,10014,(212) 564-6610,NY,410 W 13th St,"410 W 13th St, New York, NY 10014","construction, New York, New York",http://www.steadfastbuild.com/
Construction Company, New York,Clune Construction Co,10174,(212) 682-1789,NY,405 Lexington Ave # 27,"405 Lexington Ave # 27, New York, NY 10174","construction, New York, New York",http://www.clunegc.com/
Construction Company, New York,Vanguard Construction & Development,10018,(212) 279-2532,NY,307 W 38th St #7,"307 W 38th St #7, New York, NY 10018","construction, New York, New York",http://www.vanguardcon.com/
Construction Company, 355 Lexington Ave,Times Square Construction,York,(212) 687-1400,New,17,"17, 355 Lexington Ave, New York, NY 10017","construction, New York, New York",http://timesquareconstruction.com/
Construction Company, New York,King Rose Construction,10001,(212) 239-8525,NY,115 W 31st St,"115 W 31st St, New York, NY 10001","construction, New York, New York",http://www.kingroseny.com/
General Contractor, New York,Morgan Construction Ny Inc,10002,(212) 219-2625,NY,57 Allen St,"57 Allen St, New York, NY 10002","construction, New York, New York",
Dry Wall Contractor, New York,Eurotech Construction,10020,(212) 594-7474,NY,135 W 50th St,"135 W 50th St, New York, NY 10020","construction, New York, New York",http://eurotechny.com/
General Contractor, New York,Clark Construction Corporation,10003,(212) 219-1510,NY,99 University Pl # 5,"99 University Pl # 5, New York, NY 10003","construction, New York, New York",http://clarknyc.com/
,,,,,,,,"construction, New York, New York",
Construction Company, New York,Sweet Construction,10004,(212) 337-0833,NY,5 Hanover St # 501,"5 Hanover St # 501, New York, NY 10004","construction, New York, New York",http://sweetconstruction.com/
Construction Company, New York,Tishman Construction,10017,(212) 708-6800,NY,100 Park Ave,"100 Park Ave, New York, NY 10017","construction, New York, New York",http://www.aecom.com/
Construction Company, New York,Bond Construction,10001,(212) 203-8877,NY,249 W 34th St #507,"249 W 34th St #507, New York, NY 10001","construction, New York, New York",http://www.bondconstructionnyc.com/
Construction Company, New York,Wayne Bellet Construction Co Inc,10009,(212) 982-3000,NY,238 E 4th St,"238 E 4th St, New York, NY 10009","construction, New York, New York",http://www.belletconstruction.com/
Construction Company, New York,Shaira Construction,10012,(212) 260-6622,NY,632 Broadway 7th Floor,"632 Broadway 7th Floor, New York, NY 10012","construction, New York, New York",
General Contractor, New York,Schiavone Construction,10021,(212) 452-1381,NY,1430 2nd Ave,"1430 2nd Ave, New York, NY 10021","construction, New York, New York",http://www.schiavoneconstruction.com/
General Contractor, New York,Soho Construction Group,10018,(212) 685-3140,NY,40 W 37th St #1102,"40 W 37th St #1102, New York, NY 10018","construction, New York, New York",http://www.sohoconstruction.com/
General Contractor, New York,New England Construction Co Inc,10019,(212) 245-1950,NY,75 Rockefeller Plaza,"75 Rockefeller Plaza, New York, NY 10019","construction, New York, New York",
General Contractor, New York,Regal USA Construction Inc,10038,(212) 994-9319,NY,160 Broadway,"160 Broadway, New York, NY 10038","construction, New York, New York",http://www.tristatepeo.com/subs_loc.html
General Contractor, New York,Artimus Construction,10001,(212) 898-6736,NY,401 W 25th St,"401 W 25th St, New York, NY 10001","construction, New York, New York",http://www.artimusnyc.com/
Real Estate Agency, New York,New Construction Manhattan,10036,(212) 918-1977,NY,28 W 44th St,"28 W 44th St, New York, NY 10036","construction, New York, New York",http://newconstructionmanhattan.com/
Corporate Office, 55 Water Street,Hunter Roberts Construction Group,York,(212) 321-6800,New,51,"51, 55 Water Street, New York, NY 10041","construction, New York, New York",http://www.hrcg.com/
General Contractor, New York,Gryphon Construction Ltd,10011,(212) 633-9586,NY,20 W 20th St #407,"20 W 20th St #407, New York, NY 10011","construction, New York, New York",
Construction Company, New York,"L&K Partners, Inc",10010,(212) 682-8448,NY,104 E 25th St,"104 E 25th St, New York, NY 10010","construction, New York, New York",http://www.lkpartnersinc.com/contact-us
General Contractor, New York,Adelhardt Construction,10119,(212) 279-3700,NY,1 Pennsylvania Plaza,"1 Pennsylvania Plaza, New York, NY 10119","construction, New York, New York",http://www.adelhardt.com/
Construction Company, New York,"Construction 1st Class, Inc.",10173,(646) 314-2453,NY,244 Madison Ave,"244 Madison Ave, New York, NY 10173","construction, New York, New York",http://www.construction1stclass.com/
General Contractor, New York,D P Consulting & Construction,10016,(212) 481-1880,NY,303 5th Ave #603,"303 5th Ave #603, New York, NY 10016","construction, New York, New York",
General Contractor, Yonkers,Apolon Construction Corp.,10704,(212) 537-6801,NY,941 McLean Ave #380,"941 McLean Ave #380, Yonkers, NY 10704","construction, New York, New York",http://www.apoloncorp.com/
General Contractor, Brooklyn,Monadnock Construction Inc,11231,(718) 875-8160,NY,155 3rd St,"155 3rd St, Brooklyn, NY 11231","construction, New York, New York",http://www.moncon.com/
,,,,,,,,"construction, New York, New York",
General Contractor, Brooklyn,Horizon Construction,11238,(718) 302-6080,NY,932 Atlantic Ave,"932 Atlantic Ave, Brooklyn, NY 11238","construction, New York, New York",http://www.horizonconstructionny.com/
General Contractor, Queens,Construction Services Inc,11357,(718) 767-6111,NY,15030 12th Rd,"15030 12th Rd, Queens, NY 11357","construction, New York, New York",
General Contractor, Brooklyn,Falco Construction Corporation,11234,(718) 241-2100,NY,2300 E 69th St #1,"2300 E 69th St #1, Brooklyn, NY 11234","construction, New York, New York",http://www.falcoconstruction.com/
General Contractor, New York,Townhouse Construction,10025,(212) 662-5376,NY,380 Riverside Dr,"380 Riverside Dr, New York, NY 10025","construction, New York, New York",http://www.townhouseconstructioncompany.com/
General Contractor, New York,A Aleem Construction Corporation,10029,(212) 534-5500,NY,1629 Park Ave # 1D,"1629 Park Ave # 1D, New York, NY 10029","construction, New York, New York",http://ddcftp.nyc.gov/biddoc/list.aspx?bid_id=710&vend_id=2462
General Contractor, New York,E S Renovation & Construction,10016,(212) 243-7281,NY,166 E 34th St # 21K,"166 E 34th St # 21K, New York, NY 10016","construction, New York, New York",http://esrenovation.com/
Construction Company, Brooklyn,Tishman Construction Corporation,11211,(212) 748-1199,NY,170 Broadway,"170 Broadway, Brooklyn, NY 11211","construction, New York, New York",
Construction Company, New York,Sweeney & Conroy Inc,10012,(212) 995-5099,NY,31 Great Jones St,"31 Great Jones St, New York, NY 10012","construction, New York, New York",http://sweeneyandconroy.com/
Construction Company, 770 Broadway,"Pavarini McGovern, LLC",York,(212) 907-0900,New,10th Floor,"10th Floor, 770 Broadway, New York, NY 10003","construction, New York, New York",http://www.pavarinimcgovern.com/
Construction Company, New York,3-D Construction Inc,10038,(212) 791-7070,NY,268 Water St,"268 Water St, New York, NY 10038","construction, New York, New York",http://www.3-dlaboratory.com/
Interior Designer, New York,ARC Interior Construction,10016,(212) 481-8966,NY,303 5th Ave #205,"303 5th Ave #205, New York, NY 10016","construction, New York, New York",http://arcinteriorconstruction.com/
Construction Company, New York,Galcon Construction,10001,(917) 503-9086,NY,145 W 28th St #1002,"145 W 28th St #1002, New York, NY 10001","construction, New York, New York",http://www.galconconstruction.com/
Construction Company, New York,Deborah Bradley Construction,10027,(212) 222-2494,NY,481 Manhattan Ave,"481 Manhattan Ave, New York, NY 10027","construction, New York, New York",http://www.dbcnewyork.com/
General Contractor, New York,Westerman Construction Co Inc,10011,(212) 337-0995,NY,80 8th Ave #1001,"80 8th Ave #1001, New York, NY 10011","construction, New York, New York",http://westermancm.com/
General Contractor, New York,Expedite Construction,10024,(212) 787-5989,NY,345 W 86th St #303,"345 W 86th St #303, New York, NY 10024","construction, New York, New York",http://www.expediteconstruction.com/
General Contractor, New York,"Renotal Construction, Inc.",10016,(212) 268-8488,NY,37 E 28th St #508,"37 E 28th St #508, New York, NY 10016","construction, New York, New York",
Association or Organization, New York,New York Building Congress,10001,(646) 502-4174,NY,44 W 28th St,"44 W 28th St, New York, NY 10001","construction, New York, New York",http://www.buildingcongress.com/
Construction Company, New York,E W Howell Co Inc,10036,(212) 930-1050,NY,592 5th Ave #7R,"592 5th Ave #7R, New York, NY 10036","construction, New York, New York",http://www.ewhowell.com/
General Contractor, Yonkers,Brickens Construction Inc,10704,(914) 237-2709,NY,801 McLean Ave,"801 McLean Ave, Yonkers, NY 10704","construction, New York, New York",http://www.brickens.com/
,,,,,,,,"construction, New York, New York",
General Contractor, Los Angeles,"Julian Construction, Inc.",90018,(323) 733-3377,CA,2900 W Jefferson Blvd,"2900 W Jefferson Blvd, Los Angeles, CA 90018","construction, Los Angeles, California",http://www.julianconstruction.com/
Construction Company, Los Angeles,Clune Construction Co,90071,(213) 473-1500,CA,350 S Grand Ave #1600,"350 S Grand Ave #1600, Los Angeles, CA 90071","construction, Los Angeles, California",http://www.clunegc.com/
General Contractor, CA 90019,Martins Construction Corp,90071,(818) 518-6002,CA,Los Angeles,"Los Angeles, CA 90019","construction, Los Angeles, California",http://www.martinsconstructioncorp.com/
Construction Company, Los Angeles,Ramland Construction,90016,(310) 275-1580,CA,5009 Exposition Blvd,"5009 Exposition Blvd, Los Angeles, CA 90016","construction, Los Angeles, California",http://ramlandconstruction.com/
General Contractor, CA 90049,Joel & Co. Construction - General Contractors,90016,(310) 728-6181,CA,Los Angeles,"Los Angeles, CA 90049","construction, Los Angeles, California",http://www.losangelesgeneralcontractor.com/
,,,,,,,,"construction, Los Angeles, California",
,,,,,,,,"construction, Los Angeles, California",
,,,,,,,,"construction, Los Angeles, California",
,,,,,,,,"construction, Los Angeles, California",
,,,,,,,,"construction, Los Angeles, California",
,,,,,,,,"construction, Los Angeles, California",
,,,,,,,,"construction, Los Angeles, California",
,,,,,,,,"construction, Los Angeles, California",
,,,,,,,,"construction, Los Angeles, California",
,,,,,,,,"construction, Los Angeles, California",
,,,,,,,,"construction, Los Angeles, California",
,,,,,,,,"construction, Los Angeles, California",
,,,,,,,,"construction, Los Angeles, California",
,,,,,,,,"construction, Los Angeles, California",
,,,,,,,,"construction, Los Angeles, California",
,,,,,,,,"construction, Los Angeles, California",
,,,,,,,,"construction, Los Angeles, California",
,,,,,,,,"construction, Los Angeles, California",
,,,,,,,,"construction, Los Angeles, California",
,,,,,,,,"construction, Los Angeles, California",
,,,,,,,,"construction, Los Angeles, California",
,,,,,,,,"construction, Los Angeles, California",
,,,,,,,,"construction, Los Angeles, California",
,,,,,,,,"construction, Los Angeles, California",
,,,,,,,,"construction, Los Angeles, California",
,,,,,,,,"construction, Los Angeles, California",
Construction Company, CA 90064,KRB Construction,90016,(310) 766-5555,CA,Los Angeles,"Los Angeles, CA 90064","construction, Los Angeles, California",http://krbconstruction.net/
Construction Company, Los Angeles,Butel Construction Inc,90036,(323) 938-6360,CA,257 S Citrus Ave,"257 S Citrus Ave, Los Angeles, CA 90036","construction, Los Angeles, California",http://www.butelconstruction.com/
Construction Company, Los Angeles,FICO Construction,90015,(310) 725-9999,CA,1250 S Los Angeles St # 205,"1250 S Los Angeles St # 205, Los Angeles, CA 90015","construction, Los Angeles, California",
Construction Company, Los Angeles,Torres Construction Corporation,90041,(323) 257-7460,CA,7330 N Figueroa St,"7330 N Figueroa St, Los Angeles, CA 90041","construction, Los Angeles, California",http://www.torresconstruction.com/
Construction Company, Los Angeles,Albino Construction Inc,90066,(310) 454-9908,CA,12568 W Washington Blvd # 200,"12568 W Washington Blvd # 200, Los Angeles, CA 90066","construction, Los Angeles, California",http://albinoconstruction.com/
Construction Company, Los Angeles,Calasia Construction,90065,(323) 256-2943,CA,3050 Fletcher Dr,"3050 Fletcher Dr, Los Angeles, CA 90065","construction, Los Angeles, California",http://calasiaconstruction.com/
Concrete Contractor, Los Angeles,J. F. Prieto Engineering Construction Inc.,90039,(800) 606-3880,CA,2026 Glendale Blvd,"2026 Glendale Blvd, Los Angeles, CA 90039","construction, Los Angeles, California",http://prietoengineering.com/
General Contractor, Los Angeles,A.V.I. Construction,90035,(310) 287-1141,CA,1838 S Robertson Blvd,"1838 S Robertson Blvd, Los Angeles, CA 90035","construction, Los Angeles, California",
,,,,,,,,"construction, Los Angeles, California",
Concrete Contractor, Los Angeles,J. F. Prieto Engineering Construction Inc.,90039,(800) 606-3880,CA,2026 Glendale Blvd,"2026 Glendale Blvd, Los Angeles, CA 90039","construction, Los Angeles, California",http://prietoengineering.com/
General Contractor, Los Angeles,A.V.I. Construction,90035,(310) 287-1141,CA,1838 S Robertson Blvd,"1838 S Robertson Blvd, Los Angeles, CA 90035","construction, Los Angeles, California",
Construction Company, Los Angeles,Fort Hill Construction,90069,(323) 656-7425,CA,8118 Hollywood Blvd,"8118 Hollywood Blvd, Los Angeles, CA 90069","construction, Los Angeles, California",http://www.forthill.com/
Consultant, Los Angeles,"Vanir Construction Management, Inc. | Los Angeles",90017,(213) 627-7371,CA,600 Wilshire Blvd #870,"600 Wilshire Blvd #870, Los Angeles, CA 90017","construction, Los Angeles, California",http://www.vanir.com/
Electrician, Los Angeles,Electro Construction Corporation,90039,(323) 660-4141,CA,3021 Rowena Ave,"3021 Rowena Ave, Los Angeles, CA 90039","construction, Los Angeles, California",http://electroconstruction.com/
Construction Company, Los Angeles,Tobo Construction Inc,90020,(213) 382-0213,CA,500 Shatto Pl # 320,"500 Shatto Pl # 320, Los Angeles, CA 90020","construction, Los Angeles, California",
Construction Company, Los Angeles,Dreyfuss Construction,90045,(310) 645-9565,CA,8616 La Tijera Blvd #212,"8616 La Tijera Blvd #212, Los Angeles, CA 90045","construction, Los Angeles, California",http://www.dreyfussconstruction.com/
Construction Company, Suite 200,Shawmut Design and Construction,W,(323) 602-1000,11390,W. Olympic Blvd.,"W. Olympic Blvd., Suite 200, 11390 W Olympic Blvd, Los Angeles, CA 90064","construction, Los Angeles, California",http://www.shawmut.com/
Modular Home Builder, Los Angeles,Los Angeles Green Construction,90012,(213) 536-4892,CA,123 Astronaut E S Onizuka St,"123 Astronaut E S Onizuka St, Los Angeles, CA 90012","construction, Los Angeles, California",http://losangeles-greenconstruction.com/
Construction Company, 13450 Maxella Ave #225,"Fulcrum Construction, Inc - Los Angeles",Del,(310) 301-1953,Marina,Villa Marina Marketplace Mall,"Villa Marina Marketplace Mall, 13450 Maxella Ave #225, Marina Del Rey, CA 90292","construction, Los Angeles, California",http://www.fulcrumconstruction.com/
Construction Company, 800 W 6th St #1600,Lend Lease,Angeles,(213) 430-4660,Los,Pacific Financial Center,"Pacific Financial Center, 800 W 6th St #1600, Los Angeles, CA 90017","construction, Los Angeles, California",http://www.lendlease.com/
,,,,,,,,"construction, Los Angeles, California",
,,,,,,,,"construction, Los Angeles, California",
,,,,,,,,"construction, Los Angeles, California",
,,,,,,,,"construction, Los Angeles, California",
,,,,,,,,"construction, Los Angeles, California",
,,,,,,,,"construction, Los Angeles, California",
,,,,,,,,"construction, Los Angeles, California",
Construction Company, Los Angeles,Robert Pagan Construction,90045,(310) 649-6187,CA,8039 Loyola Blvd,"8039 Loyola Blvd, Los Angeles, CA 90045","construction, Los Angeles, California",http://www.robertpaganbuilders.com/
,,,,,,,,"construction, Los Angeles, California",
Construction Company, 550 S Hope St #510,Suffolk Construction,Angeles,(213) 861-6100,Los,Irvine Towers,"Irvine Towers, 550 S Hope St #510, Los Angeles, CA 90071","construction, Los Angeles, California",http://www.suffolk.com/
Construction Company, Los Angeles,Skanska USA Building,90025,(310) 500-3777,CA,12100 Wilshire Blvd #1420,"12100 Wilshire Blvd #1420, Los Angeles, CA 90025","construction, Los Angeles, California",http://www.skanska.com/
Residential Area, Los Angeles,Larry Brown Construction,90045,(310) 572-7500,CA,6500 W 87th St,"6500 W 87th St, Los Angeles, CA 90045","construction, Los Angeles, California",http://www.larrybrownconstruction.com/
Residential Area, Los Angeles,Larry Brown Construction,90045,(310) 572-7500,CA,6500 W 87th St,"6500 W 87th St, Los Angeles, CA 90045","construction, Los Angeles, California",http://www.larrybrownconstruction.com/
Residential Area, Los Angeles,Larry Brown Construction,90045,(310) 572-7500,CA,6500 W 87th St,"6500 W 87th St, Los Angeles, CA 90045","construction, Los Angeles, California",http://www.larrybrownconstruction.com/
Residential Area, Los Angeles,Larry Brown Construction,90045,(310) 572-7500,CA,6500 W 87th St,"6500 W 87th St, Los Angeles, CA 90045","construction, Los Angeles, California",http://www.larrybrownconstruction.com/
,,,,,,,,"construction, Los Angeles, California",
Construction Company, Los Angeles,Real Tech Construction,90067,(310) 553-4906,CA,2080 Century Park E,"2080 Century Park E, Los Angeles, CA 90067","construction, Los Angeles, California",
,,,,,,,,"construction, Los Angeles, California",
,,,,,,,,"construction, Los Angeles, California",
General Contractor, Los Angeles,California Averland Construction,90004,(323) 667-0071,CA,339 N Virgil Ave,"339 N Virgil Ave, Los Angeles, CA 90004","construction, Los Angeles, California",http://www.calaverland.com/
Construction Company, Los Angeles,Big3 Construction,91356,(877) 669-1510,CA,19528 Ventura Blvd #163,"19528 Ventura Blvd #163, Los Angeles, CA 91356","construction, Los Angeles, California",http://big3construction.com/
Construction Company, Los Angeles,C H Construction,90025,(310) 207-8100,CA,12304 Santa Monica Blvd,"12304 Santa Monica Blvd, Los Angeles, CA 90025","construction, Los Angeles, California",http://www.chconstructionco.com/
Construction Company, CA 90049,Aim Higher Construction,90025,(310) 476-0999,CA,Los Angeles,"Los Angeles, CA 90049","construction, Los Angeles, California",http://aimhigherconstruction.com/
General Contractor, Los Angeles,BGL Construction,90038,(323) 962-7500,CA,809 N McCadden Pl,"809 N McCadden Pl, Los Angeles, CA 90038","construction, Los Angeles, California",http://brianlittledesign.com/
Construction Company, Los Angeles,Lattanzi Construction Inc,90001,(310) 476-4346,CA,570 N Bundy Dr,"570 N Bundy Dr, Los Angeles, CA 90001","construction, Los Angeles, California",http://lattanziconstruction.com/
General Contractor, Los Angeles,Essey Construction Co,90064,(310) 474-3953,CA,10801 National Blvd # 300,"10801 National Blvd # 300, Los Angeles, CA 90064","construction, Los Angeles, California",http://esseyconstruction.com/
Construction Company, Los Angeles,Cube Construction Inc,90033,(323) 265-1333,CA,1522 E 1st St,"1522 E 1st St, Los Angeles, CA 90033","construction, Los Angeles, California",
Construction Company, Los Angeles,Cube Construction Inc,90033,(323) 265-1333,CA,1522 E 1st St,"1522 E 1st St, Los Angeles, CA 90033","construction, Los Angeles, California",
Construction Company, Los Angeles,Cube Construction Inc,90033,(323) 265-1333,CA,1522 E 1st St,"1522 E 1st St, Los Angeles, CA 90033","construction, Los Angeles, California",
Category,City,Company,Zipcode,Phone,State,Street,Address,SearchTerm,Website
Construction Company, Chicago,James McHugh Construction Co,60616,(312) 986-8000,IL,1737 S Michigan Ave,"1737 S Michigan Ave, Chicago, IL 60616","construction, Chicago, Illinois",http://www.mchughconstruction.com/
Construction Company, Chicago,Turner Construction Co,60637,(773) 324-6621,IL,6943 S Drexel Ave,"6943 S Drexel Ave, Chicago, IL 60637","construction, Chicago, Illinois",http://www.turnerconstruction.com/office-network/chicago
General Contractor, Chicago,Berglund Construction,60617,(773) 374-1000,IL,8410 S South Chicago Ave,"8410 S South Chicago Ave, Chicago, IL 60617","construction, Chicago, Illinois",
,,,,,,,,"construction, Chicago, Illinois",
,,,,,,,,"construction, Chicago, Illinois",
,,,,,,,,"construction, Chicago, Illinois",
,,,,,,,,"construction, Chicago, Illinois",
,,,,,,,,"construction, Chicago, Illinois",
,,,,,,,,"construction, Chicago, Illinois",
,,,,,,,,"construction, Chicago, Illinois",
,,,,,,,,"construction, Chicago, Illinois",
,,,,,,,,"construction, Chicago, Illinois",
,,,,,,,,"construction, Chicago, Illinois",
,,,,,,,,"construction, Chicago, Illinois",
,,,,,,,,"construction, Chicago, Illinois",
,,,,,,,,"construction, Chicago, Illinois",
,,,,,,,,"construction, Chicago, Illinois",
,,,,,,,,"construction, Chicago, Illinois",
,,,,,,,,"construction, Chicago, Illinois",
,,,,,,,,"construction, Chicago, Illinois",
Construction Company, Chicago,James McHugh Construction Co,60616,(312) 986-8000,IL,1737 S Michigan Ave,"1737 S Michigan Ave, Chicago, IL 60616","construction, Chicago, Illinois",http://www.mchughconstruction.com/
Construction Company, Chicago,Turner Construction Co,60637,(773) 324-6621,IL,6943 S Drexel Ave,"6943 S Drexel Ave, Chicago, IL 60637","construction, Chicago, Illinois",http://www.turnerconstruction.com/office-network/chicago
Construction Company, Chicago,Turner Construction Co,60637,(773) 324-6621,IL,6943 S Drexel Ave,"6943 S Drexel Ave, Chicago, IL 60637","construction, Chicago, Illinois",http://www.turnerconstruction.com/office-network/chicago
Construction Company, Chicago,Turner Construction Co,60637,(773) 324-6621,IL,6943 S Drexel Ave,"6943 S Drexel Ave, Chicago, IL 60637","construction, Chicago, Illinois",http://www.turnerconstruction.com/office-network/chicago
Construction Company, Chicago,Turner Construction Co,60637,(773) 324-6621,IL,6943 S Drexel Ave,"6943 S Drexel Ave, Chicago, IL 60637","construction, Chicago, Illinois",http://www.turnerconstruction.com/office-network/chicago
Construction Company, Chicago,Turner Construction Co,60637,(773) 324-6621,IL,6943 S Drexel Ave,"6943 S Drexel Ave, Chicago, IL 60637","construction, Chicago, Illinois",http://www.turnerconstruction.com/office-network/chicago
Construction Company, Chicago,Turner Construction Co,60637,(773) 324-6621,IL,6943 S Drexel Ave,"6943 S Drexel Ave, Chicago, IL 60637","construction, Chicago, Illinois",http://www.turnerconstruction.com/office-network/chicago
Construction Company, Chicago,Turner Construction Co,60637,(773) 324-6621,IL,6943 S Drexel Ave,"6943 S Drexel Ave, Chicago, IL 60637","construction, Chicago, Illinois",http://www.turnerconstruction.com/office-network/chicago
Construction Company, Chicago,Turner Construction Co,60637,(773) 324-6621,IL,6943 S Drexel Ave,"6943 S Drexel Ave, Chicago, IL 60637","construction, Chicago, Illinois",http://www.turnerconstruction.com/office-network/chicago
Construction Company, Chicago,Turner Construction Co,60637,(773) 324-6621,IL,6943 S Drexel Ave,"6943 S Drexel Ave, Chicago, IL 60637","construction, Chicago, Illinois",http://www.turnerconstruction.com/office-network/chicago
Construction Company, Chicago,Turner Construction Co,60637,(773) 324-6621,IL,6943 S Drexel Ave,"6943 S Drexel Ave, Chicago, IL 60637","construction, Chicago, Illinois",http://www.turnerconstruction.com/office-network/chicago
Construction Company, Chicago,Turner Construction Co,60637,(773) 324-6621,IL,6943 S Drexel Ave,"6943 S Drexel Ave, Chicago, IL 60637","construction, Chicago, Illinois",http://www.turnerconstruction.com/office-network/chicago
Construction Company, Chicago,Madison Construction,60651,(708) 535-7716,IL,5317 W Chicago Ave,"5317 W Chicago Ave, Chicago, IL 60651","construction, Chicago, Illinois",http://madisonconstruction.net/
,,,,,,,,"construction, Chicago, Illinois",
,,,,,,,,"construction, Chicago, Illinois",
Construction Company, Chicago,"Synergy Construction Group, LLC",60612,(312) 243-3700,IL,2037 W Carroll Ave,"2037 W Carroll Ave, Chicago, IL 60612","construction, Chicago, Illinois",http://www.syn-grp.com/
Masonry Contractor, Chicago,Old Veteran Construction,60628,(773) 821-9900,IL,10942 S Halsted St,"10942 S Halsted St, Chicago, IL 60628","construction, Chicago, Illinois",http://www.ovcchicago.com/
General Contractor, Chicago,Leopardo Construction Inc,60606,(312) 332-7570,IL,333 W Wacker Dr #250,"333 W Wacker Dr #250, Chicago, IL 60606","construction, Chicago, Illinois",http://www.leopardo.com/
Construction Company, Chicago,Clune Construction Company,60606,(312) 726-6103,IL,10 S Riverside Plaza #2200,"10 S Riverside Plaza #2200, Chicago, IL 60606","construction, Chicago, Illinois",http://www.clunegc.com/
General Contractor, Chicago,Novak Construction,60618,(773) 278-1100,IL,3423 N Drake Ave,"3423 N Drake Ave, Chicago, IL 60618","construction, Chicago, Illinois",http://www.novakconstruction.com/
Construction Company, Chicago,Executive Construction Inc,60606,(708) 236-3301,IL,300 W Adams St # 320,"300 W Adams St # 320, Chicago, IL 60606","construction, Chicago, Illinois",http://ecibuild.com/
,,,,,,,,"construction, Chicago, Illinois",
,,,,,,,,"construction, Chicago, Illinois",
,,,,,,,,"construction, Chicago, Illinois",
,,,,,,,,"construction, Chicago, Illinois",
,,,,,,,,"construction, Chicago, Illinois",
,,,,,,,,"construction, Chicago, Illinois",
,,,,,,,,"construction, Chicago, Illinois",
,,,,,,,,"construction, Chicago, Illinois",
,,,,,,,,"construction, Chicago, Illinois",
,,,,,,,,"construction, Chicago, Illinois",
,,,,,,,,"construction, Chicago, Illinois",
,,,,,,,,"construction, Chicago, Illinois",
,,,,,,,,"construction, Chicago, Illinois",
,,,,,,,,"construction, Chicago, Illinois",
,,,,,,,,"construction, Chicago, Illinois",
,,,,,,,,"construction, Chicago, Illinois",
,,,,,,,,"construction, Chicago, Illinois",
,,,,,,,,"construction, Chicago, Illinois",
,,,,,,,,"construction, Chicago, Illinois",
,,,,,,,,"construction, Chicago, Illinois",
,,,,,,,,"construction, Chicago, Illinois",
,,,,,,,,"construction, Chicago, Illinois",
,,,,,,,,"construction, Chicago, Illinois",
,,,,,,,,"construction, Chicago, Illinois",
,,,,,,,,"construction, Chicago, Illinois",
,,,,,,,,"construction, Chicago, Illinois",
,,,,,,,,"construction, Chicago, Illinois",
,,,,,,,,"construction, Chicago, Illinois",
,,,,,,,,"construction, Chicago, Illinois",
,,,,,,,,"construction, Chicago, Illinois",
,,,,,,,,"construction, Chicago, Illinois",
,,,,,,,,"construction, Chicago, Illinois",
,,,,,,,,"construction, Chicago, Illinois",
,,,,,,,,"construction, Chicago, Illinois",
,,,,,,,,"construction, Chicago, Illinois",
,,,,,,,,"construction, Chicago, Illinois",
,,,,,,,,"construction, Chicago, Illinois",
,,,,,,,,"construction, Chicago, Illinois",
,,,,,,,,"construction, Chicago, Illinois",
Category,City,Company,Zipcode,Phone,State,Street,Address,SearchTerm,Website
Construction Company, Suite 220,"Clark Construction Group, LLC Houston Office",P,(713) 636-3705,William,5353 West Alabama,"5353 West Alabama, Suite 220, William P Hobby Airport, Houston, TX 77056","construction, Houston, Texas",http://www.clarkconstruction.com/locations/houston
Construction Company, Houston,Turner Construction,77092,(713) 840-8441,TX,4263 Dacoma St,"4263 Dacoma St, Houston, TX 77092","construction, Houston, Texas",http://www.turnerconstruction.com/
Construction Company, Houston,DPR Construction,77027,(713) 386-1300,TX,3200 Southwest Fwy #1550,"3200 Southwest Fwy #1550, Houston, TX 77027","construction, Houston, Texas",http://www.dpr.com/
Construction Company, Houston,Teal Construction Company,77043,(713) 465-8306,TX,1335 Brittmoore Rd,"1335 Brittmoore Rd, Houston, TX 77043","construction, Houston, Texas",http://tealcon.com/
Construction Company, Houston,Reytec Construction,77080,(713) 957-4003,TX,1901 Hollister St,"1901 Hollister St, Houston, TX 77080","construction, Houston, Texas",http://www.reytec.net/
General Contractor, Houston,Williams Brothers Construction Co Inc,77006,(713) 522-9821,TX,3800 Milam St,"3800 Milam St, Houston, TX 77006","construction, Houston, Texas",http://www.wbctx.com/
Construction Company, Houston,Forney Construction,77055,(713) 224-1900,TX,8945 Long Point Rd,"8945 Long Point Rd, Houston, TX 77055","construction, Houston, Texas",http://www.forneycc.com/
General Contractor, Houston,Metzger Construction Co,77055,(713) 956-0098,TX,2055 Silber Rd # 100,"2055 Silber Rd # 100, Houston, TX 77055","construction, Houston, Texas",http://www.metzgerconstruction.com/
,,,,,,,,"construction, Houston, Texas",
,,,,,,,,"construction, Houston, Texas",
,,,,,,,,"construction, Houston, Texas",
,,,,,,,,"construction, Houston, Texas",
,,,,,,,,"construction, Houston, Texas",
,,,,,,,,"construction, Houston, Texas",
,,,,,,,,"construction, Houston, Texas",
,,,,,,,,"construction, Houston, Texas",
,,,,,,,,"construction, Houston, Texas",
,,,,,,,,"construction, Houston, Texas",
,,,,,,,,"construction, Houston, Texas",
,,,,,,,,"construction, Houston, Texas",
Construction Company, Suite 220,"Clark Construction Group, LLC Houston Office",P,(713) 636-3705,William,5353 West Alabama,"5353 West Alabama, Suite 220, William P Hobby Airport, Houston, TX 77056","construction, Houston, Texas",http://www.clarkconstruction.com/locations/houston
Construction Company, Houston,Turner Construction,77092,(713) 840-8441,TX,4263 Dacoma St,"4263 Dacoma St, Houston, TX 77092","construction, Houston, Texas",http://www.turnerconstruction.com/
Construction Company, Houston,DPR Construction,77027,(713) 386-1300,TX,3200 Southwest Fwy #1550,"3200 Southwest Fwy #1550, Houston, TX 77027","construction, Houston, Texas",http://www.dpr.com/
Construction Company, Houston,Teal Construction Company,77043,(713) 465-8306,TX,1335 Brittmoore Rd,"1335 Brittmoore Rd, Houston, TX 77043","construction, Houston, Texas",http://tealcon.com/
Construction Company, Houston,Reytec Construction,77080,(713) 957-4003,TX,1901 Hollister St,"1901 Hollister St, Houston, TX 77080","construction, Houston, Texas",http://www.reytec.net/
General Contractor, Houston,Williams Brothers Construction Co Inc,77006,(713) 522-9821,TX,3800 Milam St,"3800 Milam St, Houston, TX 77006","construction, Houston, Texas",http://www.wbctx.com/
Construction Company, Houston,Forney Construction,77055,(713) 224-1900,TX,8945 Long Point Rd,"8945 Long Point Rd, Houston, TX 77055","construction, Houston, Texas",http://www.forneycc.com/
General Contractor, Houston,Metzger Construction Co,77055,(713) 956-0098,TX,2055 Silber Rd # 100,"2055 Silber Rd # 100, Houston, TX 77055","construction, Houston, Texas",http://www.metzgerconstruction.com/
Construction Company, Houston,"McCarthy Building Companies, Inc.",77046,(713) 963-9790,TX,8 Greenway Plaza Suite 1010,"8 Greenway Plaza Suite 1010, Houston, TX 77046","construction, Houston, Texas",http://www.mccarthy.com/locations/houston/
Construction Company, Houston,"Linbeck Group, LLC",77027,(713) 621-2350,TX,3900 Essex Ln #1200,"3900 Essex Ln #1200, Houston, TX 77027","construction, Houston, Texas",http://www.linbeck.com/
General Contractor, Houston,FSI Construction,77041,(713) 690-5330,TX,5728 Teague Rd,"5728 Teague Rd, Houston, TX 77041","construction, Houston, Texas",http://www.fsiconstruction.com/
Construction Company, Houston,W.S. Bellows Construction Corporation,77055,(713) 680-2132,TX,1906 Afton St,"1906 Afton St, Houston, TX 77055","construction, Houston, Texas",http://www.wsbellows.com/
General Contractor, Houston,O'Donnell Snider Construction Inc,77027,(713) 782-7660,TX,1900 West Loop S # 350,"1900 West Loop S # 350, Houston, TX 77027","construction, Houston, Texas",http://www.odonnellsnider.com/
Construction Company, Houston,Satterfield & Pontikes Construction,77041,(713) 996-1300,TX,11000 Equity Dr # 100,"11000 Equity Dr # 100, Houston, TX 77041","construction, Houston, Texas",http://www.satpon.com/
Home Builder, Houston,Williams Development & Construction,77008,(713) 683-8444,TX,8990 Hempstead Rd # 200,"8990 Hempstead Rd # 200, Houston, TX 77008","construction, Houston, Texas",http://www.wdc-construction.com/
Construction Company, Houston,Vaughn Construction,77042,(713) 243-8300,TX,10355 Westpark Dr,"10355 Westpark Dr, Houston, TX 77042","construction, Houston, Texas",http://www.vaughnconstruction.com/
Construction Company, Houston,Angler Construction,77056,(713) 629-5860,TX,5005 Woodway Dr,"5005 Woodway Dr, Houston, TX 77056","construction, Houston, Texas",http://anglerco.com/
Construction Company, Houston,Gilbane Building Company,77010,(713) 209-1873,TX,1331 Lamar St #1170,"1331 Lamar St #1170, Houston, TX 77010","construction, Houston, Texas",http://www.gilbaneco.com/
Construction Company, Houston,Brookstone construction managers,77092,(713) 683-8800,TX,3715 Dacoma St,"3715 Dacoma St, Houston, TX 77092","construction, Houston, Texas",http://www.brookstone-tx.com/
Construction Company, Houston,Fretz Construction Co,77002,(713) 641-6777,TX,500 Fannin St #300,"500 Fannin St #300, Houston, TX 77002","construction, Houston, Texas",http://www.fretzconstruction.com/
General Contractor, Houston,Saber Construction,77070,(281) 955-7727,TX,12777 Jones Rd # 340,"12777 Jones Rd # 340, Houston, TX 77070","construction, Houston, Texas",http://sabercon.com/
General Contractor, Houston,Greymark Construction Co.,77098,(713) 722-7226,TX,2211 Norfolk St,"2211 Norfolk St, Houston, TX 77098","construction, Houston, Texas",http://www.greymarkconstruction.com/
Concrete Contractor, Houston,Concrete Construction of Houston,77091,(713) 988-6506,TX,5708 N Shepherd Dr,"5708 N Shepherd Dr, Houston, TX 77091","construction, Houston, Texas",http://www.ccofh.com/
Construction Company, Houston,M.W. Rogers Construction,77041,(713) 937-7200,TX,7536 Harms Rd,"7536 Harms Rd, Houston, TX 77041","construction, Houston, Texas",http://www.mwrogers.com/
Construction Company, Houston,Lone Star Construction,77053,(713) 799-1001,TX,8120 McHard Rd,"8120 McHard Rd, Houston, TX 77053","construction, Houston, Texas",http://www.lonestarconstructiontx.com/
Construction Company, Houston,DivisionOne Construction LLC,77092,(713) 688-7330,TX,11500 Northwest Fwy #150,"11500 Northwest Fwy #150, Houston, TX 77092","construction, Houston, Texas",http://www.d1construction.com/
Construction Company, Houston,Gemstar Construction & Dev,77073,(281) 821-1195,TX,21707 Inverness Forest Blvd,"21707 Inverness Forest Blvd, Houston, TX 77073","construction, Houston, Texas",http://gemstarconstruction.com/
General Contractor, Houston,Humphries Construction Corporation,77063,(713) 978-6610,TX,8323 Westglen Dr,"8323 Westglen Dr, Houston, TX 77063","construction, Houston, Texas",http://www.humphries-const.com/
Construction Company, Houston,Troy Construction Co,77053,(281) 437-8214,TX,8521 McHard Rd,"8521 McHard Rd, Houston, TX 77053","construction, Houston, Texas",http://www.troyconstruction.com/
General Contractor, TX 77017,Sandtech Construction,77053,(713) 645-4824,TX,Houston,"Houston, TX 77017","construction, Houston, Texas",http://www.sandtech-stconstruction.com/
Construction Company, Houston,Arch Con Corporation,77019,(713) 533-1900,TX,1335 W Gray St,"1335 W Gray St, Houston, TX 77019","construction, Houston, Texas",http://www.arch-con.com/
General Contractor, Houston,Manhattan Construction Co,77006,(713) 529-0000,TX,2120 Montrose Blvd,"2120 Montrose Blvd, Houston, TX 77006","construction, Houston, Texas",http://www.manhattanconstruction.com/
Construction Equipment Supplier, Houston,Corey Construction,77041,(832) 300-3700,TX,12400 Taylor Rd,"12400 Taylor Rd, Houston, TX 77041","construction, Houston, Texas",http://coreyconstruction.com/
Construction Company, Houston,G R Birdwell Construction,77064,(281) 890-4981,TX,9721 Derrington Rd,"9721 Derrington Rd, Houston, TX 77064","construction, Houston, Texas",http://www.grbirdwell.com/
General Contractor, Houston,Us Construction Svc LLC,77034,(281) 464-3030,TX,15255 Gulf Fwy,"15255 Gulf Fwy, Houston, TX 77034","construction, Houston, Texas",
General Contractor, Houston,All Star Construction Inc,77038,(281) 847-0294,TX,13110 T C Jester Blvd,"13110 T C Jester Blvd, Houston, TX 77038","construction, Houston, Texas",http://www.allstarconstruction.com/
Construction Company, Houston,PCL Industrial Construction,77094,(281) 249-8001,TX,15915 Katy Fwy #300,"15915 Katy Fwy #300, Houston, TX 77094","construction, Houston, Texas",http://www.pclindustrial.com/
Construction Company, Houston,CF Jordan Construction,77042,(832) 615-1270,TX,9801 Westheimer Rd #320,"9801 Westheimer Rd #320, Houston, TX 77042","construction, Houston, Texas",
Construction Company, Houston,South Coast Construction Services Inc,77054,(713) 222-2308,TX,8935 Knight Rd,"8935 Knight Rd, Houston, TX 77054","construction, Houston, Texas",http://sccsi.net/
Construction Company, Houston,Tellepsen,77060,(281) 447-8100,TX,777 Benmar Dr # 400,"777 Benmar Dr # 400, Houston, TX 77060","construction, Houston, Texas",http://www.tellepsen.com/
General Contractor, Houston,LBJ Construction LP,77040,(713) 781-0169,TX,5436 Guhn Rd,"5436 Guhn Rd, Houston, TX 77040","construction, Houston, Texas",http://www.lbjconstruction.com/
Construction Company, Houston,BNC Construction,77040,(713) 744-7490,TX,15120 Northwest Fwy #200,"15120 Northwest Fwy #200, Houston, TX 77040","construction, Houston, Texas",http://www.bncbuilt.com/
Construction Company, Houston,WFS Construction,77094,(281) 675-1450,TX,15415 Katy Fwy #810,"15415 Katy Fwy #810, Houston, TX 77094","construction, Houston, Texas",http://www.wfsconstruction.com/
General Contractor, Houston,T X Morrow Construction,77027,(713) 840-0910,TX,4635 Southwest Fwy # 420,"4635 Southwest Fwy # 420, Houston, TX 77027","construction, Houston, Texas",
Construction Company, Houston,Gamma Construction Co,77027,(713) 963-0086,TX,2808 Joanel St,"2808 Joanel St, Houston, TX 77027","construction, Houston, Texas",http://www.gammaconst.com/
Concrete Contractor, Houston,Baker Concrete Construction,77008,(713) 864-0657,TX,8300 Hempstead Rd,"8300 Hempstead Rd, Houston, TX 77008","construction, Houston, Texas",http://www.bakerconcrete.com/
General Contractor, Houston,Anslow Bryant Construction Ltd,77024,(713) 626-1216,TX,945 Bunker Hill Rd Suite 900,"945 Bunker Hill Rd Suite 900, Houston, TX 77024","construction, Houston, Texas",http://www.anslowbryant.com/
Construction Company, Houston,Webber South Texas Office,77039,(832) 850-2745,TX,14333 Chrisman Rd,"14333 Chrisman Rd, Houston, TX 77039","construction, Houston, Texas",http://wwebber.com/
Construction Company, Houston,Jedunn,77030,,TX,7326 Staffordshire,"7326 Staffordshire, Houston, TX 77030","construction, Houston, Texas",http://www.jedunn.com/
,,,,,,,,"construction, Houston, Texas",
,,,,,,,,"construction, Houston, Texas",
,,,,,,,,"construction, Houston, Texas",
,,,,,,,,"construction, Houston, Texas",
,,,,,,,,"construction, Houston, Texas",
,,,,,,,,"construction, Houston, Texas",
,,,,,,,,"construction, Houston, Texas",
,,,,,,,,"construction, Houston, Texas",
,,,,,,,,"construction, Houston, Texas",
,,,,,,,,"construction, Houston, Texas",
,,,,,,,,"construction, Houston, Texas",
Category,City,Company,Zipcode,Phone,State,Street,Address,SearchTerm,Website
,,,,,,,,"construction, Philadelphia, Pennsylvania",
,,,,,,,,"construction, Philadelphia, Pennsylvania",
,,,,,,,,"construction, Philadelphia, Pennsylvania",
,,,,,,,,"construction, Philadelphia, Pennsylvania",
,,,,,,,,"construction, Philadelphia, Pennsylvania",
,,,,,,,,"construction, Philadelphia, Pennsylvania",
,,,,,,,,"construction, Philadelphia, Pennsylvania",
,,,,,,,,"construction, Philadelphia, Pennsylvania",
,,,,,,,,"construction, Philadelphia, Pennsylvania",
,,,,,,,,"construction, Philadelphia, Pennsylvania",
,,,,,,,,"construction, Philadelphia, Pennsylvania",
,,,,,,,,"construction, Philadelphia, Pennsylvania",
,,,,,,,,"construction, Philadelphia, Pennsylvania",
,,,,,,,,"construction, Philadelphia, Pennsylvania",
,,,,,,,,"construction, Philadelphia, Pennsylvania",
,,,,,,,,"construction, Philadelphia, Pennsylvania",
,,,,,,,,"construction, Philadelphia, Pennsylvania",
,,,,,,,,"construction, Philadelphia, Pennsylvania",
,,,,,,,,"construction, Philadelphia, Pennsylvania",
,,,,,,,,"construction, Philadelphia, Pennsylvania",
,,,,,,,,"construction, Philadelphia, Pennsylvania",
,,,,,,,,"construction, Philadelphia, Pennsylvania",
,,,,,,,,"construction, Philadelphia, Pennsylvania",
,,,,,,,,"construction, Philadelphia, Pennsylvania",
,,,,,,,,"construction, Philadelphia, Pennsylvania",
,,,,,,,,"construction, Philadelphia, Pennsylvania",
,,,,,,,,"construction, Philadelphia, Pennsylvania",
,,,,,,,,"construction, Philadelphia, Pennsylvania",
,,,,,,,,"construction, Philadelphia, Pennsylvania",
,,,,,,,,"construction, Philadelphia, Pennsylvania",
,,,,,,,,"construction, Philadelphia, Pennsylvania",
,,,,,,,,"construction, Philadelphia, Pennsylvania",
,,,,,,,,"construction, Philadelphia, Pennsylvania",
,,,,,,,,"construction, Philadelphia, Pennsylvania",
,,,,,,,,"construction, Philadelphia, Pennsylvania",
,,,,,,,,"construction, Philadelphia, Pennsylvania",
,,,,,,,,"construction, Philadelphia, Pennsylvania",
,,,,,,,,"construction, Philadelphia, Pennsylvania",
,,,,,,,,"construction, Philadelphia, Pennsylvania",
,,,,,,,,"construction, Philadelphia, Pennsylvania",
,,,,,,,,"construction, Philadelphia, Pennsylvania",
,,,,,,,,"construction, Philadelphia, Pennsylvania",
,,,,,,,,"construction, Philadelphia, Pennsylvania",
,,,,,,,,"construction, Philadelphia, Pennsylvania",
,,,,,,,,"construction, Philadelphia, Pennsylvania",
,,,,,,,,"construction, Philadelphia, Pennsylvania",
,,,,,,,,"construction, Philadelphia, Pennsylvania",
,,,,,,,,"construction, Philadelphia, Pennsylvania",
,,,,,,,,"construction, Philadelphia, Pennsylvania",
,,,,,,,,"construction, Philadelphia, Pennsylvania",
Construction Company, Philadelphia,Domus Inc,19144,(215) 849-4444,PA,346 E Walnut Ln,"346 E Walnut Ln, Philadelphia, PA 19144","construction, Philadelphia, Pennsylvania",http://www.domusinc.net/
,,,,,,,,"construction, Philadelphia, Pennsylvania",
,,,,,,,,"construction, Philadelphia, Pennsylvania",
,,,,,,,,"construction, Philadelphia, Pennsylvania",
,,,,,,,,"construction, Philadelphia, Pennsylvania",
,,,,,,,,"construction, Philadelphia, Pennsylvania",
,,,,,,,,"construction, Philadelphia, Pennsylvania",
,,,,,,,,"construction, Philadelphia, Pennsylvania",
,,,,,,,,"construction, Philadelphia, Pennsylvania",
,,,,,,,,"construction, Philadelphia, Pennsylvania",
,,,,,,,,"construction, Philadelphia, Pennsylvania",
,,,,,,,,"construction, Philadelphia, Pennsylvania",
,,,,,,,,"construction, Philadelphia, Pennsylvania",
,,,,,,,,"construction, Philadelphia, Pennsylvania",
,,,,,,,,"construction, Philadelphia, Pennsylvania",
,,,,,,,,"construction, Philadelphia, Pennsylvania",
,,,,,,,,"construction, Philadelphia, Pennsylvania",
,,,,,,,,"construction, Philadelphia, Pennsylvania",
,,,,,,,,"construction, Philadelphia, Pennsylvania",
,,,,,,,,"construction, Philadelphia, Pennsylvania",
,,,,,,,,"construction, Philadelphia, Pennsylvania",
,,,,,,,,"construction, Philadelphia, Pennsylvania",
,,,,,,,,"construction, Philadelphia, Pennsylvania",
,,,,,,,,"construction, Philadelphia, Pennsylvania",
,,,,,,,,"construction, Philadelphia, Pennsylvania",
,,,,,,,,"construction, Philadelphia, Pennsylvania",
,,,,,,,,"construction, Philadelphia, Pennsylvania",
,,,,,,,,"construction, Philadelphia, Pennsylvania",
,,,,,,,,"construction, Philadelphia, Pennsylvania",
,,,,,,,,"construction, Philadelphia, Pennsylvania",
Category,City,Company,Zipcode,Phone,State,Street,Address,SearchTerm,Website
General Contractor, Phoenix,DPR Construction,85008,(602) 808-0500,AZ,222 N 44th St,"222 N 44th St, Phoenix, AZ 85008","construction, Phoenix, Arizona",http://www.dpr.com/
Construction Company, Phoenix,"McCarthy Building Companies, Inc.",85016,(480) 449-4700,AZ,6225 N 24th St #200,"6225 N 24th St #200, Phoenix, AZ 85016","construction, Phoenix, Arizona",http://www.mccarthy.com/locations/phoenix/
Construction Company, Phoenix,The Weitz Company | Arizona,85016,(602) 225-0225,AZ,2111 E Highland Ave Suite 400,"2111 E Highland Ave Suite 400, Phoenix, AZ 85016","construction, Phoenix, Arizona",http://www.weitz.com/
Concrete Contractor, Phoenix,Royden Construction Co,85043,(602) 484-0028,AZ,3423 S 51st Ave,"3423 S 51st Ave, Phoenix, AZ 85043","construction, Phoenix, Arizona",http://www.royden.org/
Construction Company, Phoenix,Jokake Construction Co,85034,(602) 224-4500,AZ,5013 E Washington St #100,"5013 E Washington St #100, Phoenix, AZ 85034","construction, Phoenix, Arizona",http://www.jokake.com/
General Contractor, Phoenix,Sletten Construction Inc,85034,(602) 273-1474,AZ,2501 E University Dr,"2501 E University Dr, Phoenix, AZ 85034","construction, Phoenix, Arizona",http://www.slettencompanies.com/
General Contractor, Phoenix,Sletten Construction Inc,85034,(602) 273-1474,AZ,2501 E University Dr,"2501 E University Dr, Phoenix, AZ 85034","construction, Phoenix, Arizona",http://www.slettencompanies.com/
General Contractor, Phoenix,Sletten Construction Inc,85034,(602) 273-1474,AZ,2501 E University Dr,"2501 E University Dr, Phoenix, AZ 85034","construction, Phoenix, Arizona",http://www.slettencompanies.com/
General Contractor, Phoenix,Sletten Construction Inc,85034,(602) 273-1474,AZ,2501 E University Dr,"2501 E University Dr, Phoenix, AZ 85034","construction, Phoenix, Arizona",http://www.slettencompanies.com/
General Contractor, Phoenix,Sletten Construction Inc,85034,(602) 273-1474,AZ,2501 E University Dr,"2501 E University Dr, Phoenix, AZ 85034","construction, Phoenix, Arizona",http://www.slettencompanies.com/
General Contractor, Phoenix,Sletten Construction Inc,85034,(602) 273-1474,AZ,2501 E University Dr,"2501 E University Dr, Phoenix, AZ 85034","construction, Phoenix, Arizona",http://www.slettencompanies.com/
General Contractor, Phoenix,Sletten Construction Inc,85034,(602) 273-1474,AZ,2501 E University Dr,"2501 E University Dr, Phoenix, AZ 85034","construction, Phoenix, Arizona",http://www.slettencompanies.com/
General Contractor, Phoenix,Sletten Construction Inc,85034,(602) 273-1474,AZ,2501 E University Dr,"2501 E University Dr, Phoenix, AZ 85034","construction, Phoenix, Arizona",http://www.slettencompanies.com/
General Contractor, Phoenix,Sletten Construction Inc,85034,(602) 273-1474,AZ,2501 E University Dr,"2501 E University Dr, Phoenix, AZ 85034","construction, Phoenix, Arizona",http://www.slettencompanies.com/
General Contractor, Phoenix,Sletten Construction Inc,85034,(602) 273-1474,AZ,2501 E University Dr,"2501 E University Dr, Phoenix, AZ 85034","construction, Phoenix, Arizona",http://www.slettencompanies.com/
General Contractor, Phoenix,Sletten Construction Inc,85034,(602) 273-1474,AZ,2501 E University Dr,"2501 E University Dr, Phoenix, AZ 85034","construction, Phoenix, Arizona",http://www.slettencompanies.com/
General Contractor, Phoenix,Sletten Construction Inc,85034,(602) 273-1474,AZ,2501 E University Dr,"2501 E University Dr, Phoenix, AZ 85034","construction, Phoenix, Arizona",http://www.slettencompanies.com/
General Contractor, Phoenix,Sletten Construction Inc,85034,(602) 273-1474,AZ,2501 E University Dr,"2501 E University Dr, Phoenix, AZ 85034","construction, Phoenix, Arizona",http://www.slettencompanies.com/
General Contractor, Phoenix,Sletten Construction Inc,85034,(602) 273-1474,AZ,2501 E University Dr,"2501 E University Dr, Phoenix, AZ 85034","construction, Phoenix, Arizona",http://www.slettencompanies.com/
General Contractor, Phoenix,Sletten Construction Inc,85034,(602) 273-1474,AZ,2501 E University Dr,"2501 E University Dr, Phoenix, AZ 85034","construction, Phoenix, Arizona",http://www.slettencompanies.com/
General Contractor, Jacksonville,Superior Construction,32256,(904) 292-4240,FL,7072 Business Park Blvd N,"7072 Business Park Blvd N, Jacksonville, FL 32256","construction, Jacksonville, Florida",http://www.superiorse.com/
Construction Company, Jacksonville,"F & G Construction General Contractors, Inc.",32254,(904) 388-5707,FL,2734 Edison Ave,"2734 Edison Ave, Jacksonville, FL 32254","construction, Jacksonville, Florida",http://www.fandgconstruction.com/
Construction Company, Jacksonville,Barton Malow Company FloridaJacksonville,32202,(904) 886-5377,FL,301 W Bay St #1407,"301 W Bay St #1407, Jacksonville, FL 32202","construction, Jacksonville, Florida",http://www.bartonmalow.com/
Construction Company, Jacksonville,Haskell,32202,(904) 791-4500,FL,111 Riverside Ave,"111 Riverside Ave, Jacksonville, FL 32202","construction, Jacksonville, Florida",http://www.haskell.com/
General Contractor, Jacksonville,A J Johns Inc,32246,(904) 641-2055,FL,3225 Anniston Rd,"3225 Anniston Rd, Jacksonville, FL 32246","construction, Jacksonville, Florida",http://www.ajjohns.com/
General Contractor, Jacksonville,Auld & White Constructors,32216,(904) 296-2555,FL,4168 Southpoint Pkwy #101,"4168 Southpoint Pkwy #101, Jacksonville, FL 32216","construction, Jacksonville, Florida",http://www.auld-white.com/
,,,,,,,,,
,,,,,,,,,
,,,,,,,,,
,,,,,,,,,
,,,,,,,,,
,,,,,,,,,
,,,,,,,,,
,,,,,,,,,
,,,,,,,,,
,,,,,,,,,
,,,,,,,,,
,,,,,,,,,
,,,,,,,,,
,,,,,,,,,
,,,,,,,,,
,,,,,,,,,
,,,,,,,,,
,,,,,,,,,
,,,,,,,,,
,,,,,,,,,
,,,,,,,,,
,,,,,,,,,
,,,,,,,,,
,,,,,,,,,
,,,,,,,,,
,,,,,,,,,
,,,,,,,,,
,,,,,,,,,
,,,,,,,,,
,,,,,,,,,
,,,,,,,,,
,,,,,,,,,
,,,,,,,,,
,,,,,,,,,
,,,,,,,,,
,,,,,,,,,
,,,,,,,,,
,,,,,,,,,
,,,,,,,,,
,,,,,,,,,
,,,,,,,,,
,,,,,,,,,
,,,,,,,,,
,,,,,,,,,
,,,,,,,,,
,,,,,,,,,
,,,,,,,,,
,,,,,,,,,
,,,,,,,,,
,,,,,,,,,
Roofing Contractor, Jacksonville,"Turnkey Construction and Maintenance, Inc.",32217,(904) 250-0718,FL,5991 Chester Ave #105,"5991 Chester Ave #105, Jacksonville, FL 32217","construction, Jacksonville, Florida",http://roofcleaningjacksonvillefl.com/
Construction Company, Jacksonville,Dana B Kenyon Real Estate Services,32210,(904) 777-0833,FL,5772 Timuquana Rd,"5772 Timuquana Rd, Jacksonville, FL 32210","construction, Jacksonville, Florida",http://www.dbkenyon.com/
Construction Company, FL 32233,King Construction Co of Jax,32210,(904) 685-1898,FL,Jacksonville,"Jacksonville, FL 32233","construction, Jacksonville, Florida",http://www.kingconstructioncompany.com/
General Contractor, Jacksonville,Innovative Construction Group,32205,(904) 388-3560,FL,1327 Hollywood Ave,"1327 Hollywood Ave, Jacksonville, FL 32205","construction, Jacksonville, Florida",
Building Materials Supplier, Jacksonville,Coastal Construction Products,32207,(904) 398-7171,FL,3401 Philips Hwy,"3401 Philips Hwy, Jacksonville, FL 32207","construction, Jacksonville, Florida",http://coastalone.com/
Mechanical Contractor, Jacksonville,Sauer Incorporated,32256,(904) 262-6444,FL,11223 Phillips Pkwy Dr E,"11223 Phillips Pkwy Dr E, Jacksonville, FL 32256","construction, Jacksonville, Florida",http://www.sauer-inc.com/
Mechanical Contractor, Jacksonville,Sauer Incorporated,32256,(904) 262-6444,FL,11223 Phillips Pkwy Dr E,"11223 Phillips Pkwy Dr E, Jacksonville, FL 32256","construction, Jacksonville, Florida",http://www.sauer-inc.com/
Mechanical Contractor, Jacksonville,Sauer Incorporated,32256,(904) 262-6444,FL,11223 Phillips Pkwy Dr E,"11223 Phillips Pkwy Dr E, Jacksonville, FL 32256","construction, Jacksonville, Florida",http://www.sauer-inc.com/
Mechanical Contractor, Jacksonville,Sauer Incorporated,32256,(904) 262-6444,FL,11223 Phillips Pkwy Dr E,"11223 Phillips Pkwy Dr E, Jacksonville, FL 32256","construction, Jacksonville, Florida",http://www.sauer-inc.com/
Mechanical Contractor, Jacksonville,Sauer Incorporated,32256,(904) 262-6444,FL,11223 Phillips Pkwy Dr E,"11223 Phillips Pkwy Dr E, Jacksonville, FL 32256","construction, Jacksonville, Florida",http://www.sauer-inc.com/
Mechanical Contractor, Jacksonville,Sauer Incorporated,32256,(904) 262-6444,FL,11223 Phillips Pkwy Dr E,"11223 Phillips Pkwy Dr E, Jacksonville, FL 32256","construction, Jacksonville, Florida",http://www.sauer-inc.com/
Mechanical Contractor, Jacksonville,Sauer Incorporated,32256,(904) 262-6444,FL,11223 Phillips Pkwy Dr E,"11223 Phillips Pkwy Dr E, Jacksonville, FL 32256","construction, Jacksonville, Florida",http://www.sauer-inc.com/
Mechanical Contractor, Jacksonville,Sauer Incorporated,32256,(904) 262-6444,FL,11223 Phillips Pkwy Dr E,"11223 Phillips Pkwy Dr E, Jacksonville, FL 32256","construction, Jacksonville, Florida",http://www.sauer-inc.com/
Mechanical Contractor, Jacksonville,Sauer Incorporated,32256,(904) 262-6444,FL,11223 Phillips Pkwy Dr E,"11223 Phillips Pkwy Dr E, Jacksonville, FL 32256","construction, Jacksonville, Florida",http://www.sauer-inc.com/
Mechanical Contractor, Jacksonville,Sauer Incorporated,32256,(904) 262-6444,FL,11223 Phillips Pkwy Dr E,"11223 Phillips Pkwy Dr E, Jacksonville, FL 32256","construction, Jacksonville, Florida",http://www.sauer-inc.com/
Mechanical Contractor, Jacksonville,Sauer Incorporated,32256,(904) 262-6444,FL,11223 Phillips Pkwy Dr E,"11223 Phillips Pkwy Dr E, Jacksonville, FL 32256","construction, Jacksonville, Florida",http://www.sauer-inc.com/
Mechanical Contractor, Jacksonville,Sauer Incorporated,32256,(904) 262-6444,FL,11223 Phillips Pkwy Dr E,"11223 Phillips Pkwy Dr E, Jacksonville, FL 32256","construction, Jacksonville, Florida",http://www.sauer-inc.com/
Mechanical Contractor, Jacksonville,Sauer Incorporated,32256,(904) 262-6444,FL,11223 Phillips Pkwy Dr E,"11223 Phillips Pkwy Dr E, Jacksonville, FL 32256","construction, Jacksonville, Florida",http://www.sauer-inc.com/
Mechanical Contractor, Jacksonville,Sauer Incorporated,32256,(904) 262-6444,FL,11223 Phillips Pkwy Dr E,"11223 Phillips Pkwy Dr E, Jacksonville, FL 32256","construction, Jacksonville, Florida",http://www.sauer-inc.com/
Mechanical Contractor, Jacksonville,Sauer Incorporated,32256,(904) 262-6444,FL,11223 Phillips Pkwy Dr E,"11223 Phillips Pkwy Dr E, Jacksonville, FL 32256","construction, Jacksonville, Florida",http://www.sauer-inc.com/
Mechanical Contractor, Jacksonville,Sauer Incorporated,32256,(904) 262-6444,FL,11223 Phillips Pkwy Dr E,"11223 Phillips Pkwy Dr E, Jacksonville, FL 32256","construction, Jacksonville, Florida",http://www.sauer-inc.com/
Mechanical Contractor, Jacksonville,Sauer Incorporated,32256,(904) 262-6444,FL,11223 Phillips Pkwy Dr E,"11223 Phillips Pkwy Dr E, Jacksonville, FL 32256","construction, Jacksonville, Florida",http://www.sauer-inc.com/
Mechanical Contractor, Jacksonville,Sauer Incorporated,32256,(904) 262-6444,FL,11223 Phillips Pkwy Dr E,"11223 Phillips Pkwy Dr E, Jacksonville, FL 32256","construction, Jacksonville, Florida",http://www.sauer-inc.com/
Mechanical Contractor, Jacksonville,Sauer Incorporated,32256,(904) 262-6444,FL,11223 Phillips Pkwy Dr E,"11223 Phillips Pkwy Dr E, Jacksonville, FL 32256","construction, Jacksonville, Florida",http://www.sauer-inc.com/
Construction Company, El Paso,ZTEX Construction Inc.,79936,(915) 591-6900,TX,1326 Henry Brennan Dr,"1326 Henry Brennan Dr, El Paso, TX 79936","construction, El Paso, Texas",http://www.ztexconst.com/
General Contractor, El Paso,Veliz Construction,79905,(915) 219-4000,TX,2910 Gateway Blvd E,"2910 Gateway Blvd E, El Paso, TX 79905","construction, El Paso, Texas",http://www.velizconstruction.com/
Construction Company, El Paso,Jordan Foster Construction,79912,(915) 877-3333,TX,7700 C F Jordan Dr,"7700 C F Jordan Dr, El Paso, TX 79912","construction, El Paso, Texas",http://www.jordanfosterconstruction.com/
Construction Company, El Paso,Jordan Foster Construction,79912,(915) 877-3333,TX,7700 C F Jordan Dr,"7700 C F Jordan Dr, El Paso, TX 79912","construction, El Paso, Texas",http://www.jordanfosterconstruction.com/
Construction Company, El Paso,Jordan Foster Construction,79912,(915) 877-3333,TX,7700 C F Jordan Dr,"7700 C F Jordan Dr, El Paso, TX 79912","construction, El Paso, Texas",http://www.jordanfosterconstruction.com/
Construction Company, El Paso,Jordan Foster Construction,79912,(915) 877-3333,TX,7700 C F Jordan Dr,"7700 C F Jordan Dr, El Paso, TX 79912","construction, El Paso, Texas",http://www.jordanfosterconstruction.com/
Construction Company, El Paso,Jordan Foster Construction,79912,(915) 877-3333,TX,7700 C F Jordan Dr,"7700 C F Jordan Dr, El Paso, TX 79912","construction, El Paso, Texas",http://www.jordanfosterconstruction.com/
Construction Company, El Paso,Jordan Foster Construction,79912,(915) 877-3333,TX,7700 C F Jordan Dr,"7700 C F Jordan Dr, El Paso, TX 79912","construction, El Paso, Texas",http://www.jordanfosterconstruction.com/
Construction Company, El Paso,Jordan Foster Construction,79912,(915) 877-3333,TX,7700 C F Jordan Dr,"7700 C F Jordan Dr, El Paso, TX 79912","construction, El Paso, Texas",http://www.jordanfosterconstruction.com/
Construction Company, El Paso,Jordan Foster Construction,79912,(915) 877-3333,TX,7700 C F Jordan Dr,"7700 C F Jordan Dr, El Paso, TX 79912","construction, El Paso, Texas",http://www.jordanfosterconstruction.com/
Construction Company, El Paso,Jordan Foster Construction,79912,(915) 877-3333,TX,7700 C F Jordan Dr,"7700 C F Jordan Dr, El Paso, TX 79912","construction, El Paso, Texas",http://www.jordanfosterconstruction.com/
Construction Company, El Paso,Jordan Foster Construction,79912,(915) 877-3333,TX,7700 C F Jordan Dr,"7700 C F Jordan Dr, El Paso, TX 79912","construction, El Paso, Texas",http://www.jordanfosterconstruction.com/
Construction Company, El Paso,Jordan Foster Construction,79912,(915) 877-3333,TX,7700 C F Jordan Dr,"7700 C F Jordan Dr, El Paso, TX 79912","construction, El Paso, Texas",http://www.jordanfosterconstruction.com/
Construction Company, El Paso,Jordan Foster Construction,79912,(915) 877-3333,TX,7700 C F Jordan Dr,"7700 C F Jordan Dr, El Paso, TX 79912","construction, El Paso, Texas",http://www.jordanfosterconstruction.com/
Construction Company, El Paso,Jordan Foster Construction,79912,(915) 877-3333,TX,7700 C F Jordan Dr,"7700 C F Jordan Dr, El Paso, TX 79912","construction, El Paso, Texas",http://www.jordanfosterconstruction.com/
Construction Company, El Paso,Jordan Foster Construction,79912,(915) 877-3333,TX,7700 C F Jordan Dr,"7700 C F Jordan Dr, El Paso, TX 79912","construction, El Paso, Texas",http://www.jordanfosterconstruction.com/
Construction Company, El Paso,Jordan Foster Construction,79912,(915) 877-3333,TX,7700 C F Jordan Dr,"7700 C F Jordan Dr, El Paso, TX 79912","construction, El Paso, Texas",http://www.jordanfosterconstruction.com/
Construction Company, El Paso,Jordan Foster Construction,79912,(915) 877-3333,TX,7700 C F Jordan Dr,"7700 C F Jordan Dr, El Paso, TX 79912","construction, El Paso, Texas",http://www.jordanfosterconstruction.com/
Construction Company, El Paso,Jordan Foster Construction,79912,(915) 877-3333,TX,7700 C F Jordan Dr,"7700 C F Jordan Dr, El Paso, TX 79912","construction, El Paso, Texas",http://www.jordanfosterconstruction.com/
Construction Company, El Paso,Jordan Foster Construction,79912,(915) 877-3333,TX,7700 C F Jordan Dr,"7700 C F Jordan Dr, El Paso, TX 79912","construction, El Paso, Texas",http://www.jordanfosterconstruction.com/
Construction Company, Memphis,"Zellner Construction Services, LLC",38115,(901) 794-1100,TN,2926 Ridgeway Rd,"2926 Ridgeway Rd, Memphis, TN 38115","construction, Memphis, Tennessee",http://www.zellnerconstruction.com/
General Contractor, Memphis,Capital Construction,38104,(901) 870-3506,TN,89 N Cooper St,"89 N Cooper St, Memphis, TN 38104","construction, Memphis, Tennessee",http://capitalconstructionmemphis.com/
General Contractor, Memphis,Montgomery Martin Contractors,38125,(901) 374-9400,TN,8245 Tournament Dr # 300,"8245 Tournament Dr # 300, Memphis, TN 38125","construction, Memphis, Tennessee",http://www.montgomerymartin.com/
Gutter Cleaning Service, Memphis,A To Z Construction Services LLC,38112,(901) 452-2667,TN,581 Vandalia St,"581 Vandalia St, Memphis, TN 38112","construction, Memphis, Tennessee",http://www.atozconstructionservices.com/
General Contractor, Memphis,Wagner General Contractors Inc,38122,(901) 386-0060,TN,3590 Forrest Ave,"3590 Forrest Ave, Memphis, TN 38122","construction, Memphis, Tennessee",http://www.wagnergeneral.com/
Construction Company, Memphis,Grinder Haizlip Construction,38134,(901) 377-1000,TN,1746 Thomas Rd,"1746 Thomas Rd, Memphis, TN 38134","construction, Memphis, Tennessee",http://www.grinderhaizlip.com/
Fire Damage Restoration Service, Memphis,"Landmark Construction General Contractor, Inc.",38134,(901) 452-0390,TN,1897 Thomas Rd,"1897 Thomas Rd, Memphis, TN 38134","construction, Memphis, Tennessee",http://www.landmarkco.org/
Fire Damage Restoration Service, Memphis,"Landmark Construction General Contractor, Inc.",38134,(901) 452-0390,TN,1897 Thomas Rd,"1897 Thomas Rd, Memphis, TN 38134","construction, Memphis, Tennessee",http://www.landmarkco.org/
Fire Damage Restoration Service, Memphis,"Landmark Construction General Contractor, Inc.",38134,(901) 452-0390,TN,1897 Thomas Rd,"1897 Thomas Rd, Memphis, TN 38134","construction, Memphis, Tennessee",http://www.landmarkco.org/
Fire Damage Restoration Service, Memphis,"Landmark Construction General Contractor, Inc.",38134,(901) 452-0390,TN,1897 Thomas Rd,"1897 Thomas Rd, Memphis, TN 38134","construction, Memphis, Tennessee",http://www.landmarkco.org/
Fire Damage Restoration Service, Memphis,"Landmark Construction General Contractor, Inc.",38134,(901) 452-0390,TN,1897 Thomas Rd,"1897 Thomas Rd, Memphis, TN 38134","construction, Memphis, Tennessee",http://www.landmarkco.org/
Fire Damage Restoration Service, Memphis,"Landmark Construction General Contractor, Inc.",38134,(901) 452-0390,TN,1897 Thomas Rd,"1897 Thomas Rd, Memphis, TN 38134","construction, Memphis, Tennessee",http://www.landmarkco.org/
Fire Damage Restoration Service, Memphis,"Landmark Construction General Contractor, Inc.",38134,(901) 452-0390,TN,1897 Thomas Rd,"1897 Thomas Rd, Memphis, TN 38134","construction, Memphis, Tennessee",http://www.landmarkco.org/
Fire Damage Restoration Service, Memphis,"Landmark Construction General Contractor, Inc.",38134,(901) 452-0390,TN,1897 Thomas Rd,"1897 Thomas Rd, Memphis, TN 38134","construction, Memphis, Tennessee",http://www.landmarkco.org/
Fire Damage Restoration Service, Memphis,"Landmark Construction General Contractor, Inc.",38134,(901) 452-0390,TN,1897 Thomas Rd,"1897 Thomas Rd, Memphis, TN 38134","construction, Memphis, Tennessee",http://www.landmarkco.org/
Fire Damage Restoration Service, Memphis,"Landmark Construction General Contractor, Inc.",38134,(901) 452-0390,TN,1897 Thomas Rd,"1897 Thomas Rd, Memphis, TN 38134","construction, Memphis, Tennessee",http://www.landmarkco.org/
Fire Damage Restoration Service, Memphis,"Landmark Construction General Contractor, Inc.",38134,(901) 452-0390,TN,1897 Thomas Rd,"1897 Thomas Rd, Memphis, TN 38134","construction, Memphis, Tennessee",http://www.landmarkco.org/
Fire Damage Restoration Service, Memphis,"Landmark Construction General Contractor, Inc.",38134,(901) 452-0390,TN,1897 Thomas Rd,"1897 Thomas Rd, Memphis, TN 38134","construction, Memphis, Tennessee",http://www.landmarkco.org/
Fire Damage Restoration Service, Memphis,"Landmark Construction General Contractor, Inc.",38134,(901) 452-0390,TN,1897 Thomas Rd,"1897 Thomas Rd, Memphis, TN 38134","construction, Memphis, Tennessee",http://www.landmarkco.org/
Fire Damage Restoration Service, Memphis,"Landmark Construction General Contractor, Inc.",38134,(901) 452-0390,TN,1897 Thomas Rd,"1897 Thomas Rd, Memphis, TN 38134","construction, Memphis, Tennessee",http://www.landmarkco.org/
Construction Company, Henderson,TWC Construction Inc,89011,(702) 597-3444,NV,430 Parkson Rd,"430 Parkson Rd, Henderson, NV 89011","construction, Henderson, Nevada",http://www.twcconstruction.com/
Bathroom Remodeler, Henderson,Silverado Construction llc,89014,(702) 427-5611,NV,901 American Pacific Dr #100,"901 American Pacific Dr #100, Henderson, NV 89014","construction, Henderson, Nevada",http://silveradoconstructionlv.com/
Construction Company, Henderson,Burnett Haase Construction,89074,(702) 547-9000,NV,121 Corporate Park Dr,"121 Corporate Park Dr, Henderson, NV 89074","construction, Henderson, Nevada",http://burnetthaase.com/company.php
General Contractor, Henderson,Capriati Construction Corporation,89074,(702) 547-1182,NV,1020 Wigwam Pkwy,"1020 Wigwam Pkwy, Henderson, NV 89074","construction, Henderson, Nevada",http://www.capriaticonstruction.com/
Construction Company, Henderson,"McCarthy Building Companies, Inc.",89074,(702) 990-6707,NV,2340 Corporate Cir,"2340 Corporate Cir, Henderson, NV 89074","construction, Henderson, Nevada",http://www.mccarthy.com/locations/las-vegas/
Construction Company, Henderson,B & H Construction,89015,(702) 564-8484,NV,240 E Horizon Dr # A,"240 E Horizon Dr # A, Henderson, NV 89015","construction, Henderson, Nevada",
General Contractor, Henderson,Target Construction,89074,(702) 642-9205,NV,2470 St Rose Pkwy # 308,"2470 St Rose Pkwy # 308, Henderson, NV 89074","construction, Henderson, Nevada",
General Contractor, Henderson,Southwestern Custom Construction,89074,(702) 998-8939,NV,1210 Wigwam Pkwy,"1210 Wigwam Pkwy, Henderson, NV 89074","construction, Henderson, Nevada",http://southwesterncustomconstructionllc.com/
Concrete Contractor, Henderson,All Trades Concrete Construction Inc.,89074,(702) 269-0537,NV,110 Corporate Park Dr,"110 Corporate Park Dr, Henderson, NV 89074","construction, Henderson, Nevada",
Bathroom Remodeler, Henderson,Las Vegas Remodel & Construction,89074,(702) 425-7272,NV,205 N Stephanie St,"205 N Stephanie St, Henderson, NV 89074","construction, Henderson, Nevada",http://www.lvremodel.com/
Bathroom Remodeler, Henderson,Las Vegas Remodel & Construction,89074,(702) 425-7272,NV,205 N Stephanie St,"205 N Stephanie St, Henderson, NV 89074","construction, Henderson, Nevada",http://www.lvremodel.com/
Bathroom Remodeler, Henderson,Las Vegas Remodel & Construction,89074,(702) 425-7272,NV,205 N Stephanie St,"205 N Stephanie St, Henderson, NV 89074","construction, Henderson, Nevada",http://www.lvremodel.com/
Bathroom Remodeler, Henderson,Las Vegas Remodel & Construction,89074,(702) 425-7272,NV,205 N Stephanie St,"205 N Stephanie St, Henderson, NV 89074","construction, Henderson, Nevada",http://www.lvremodel.com/
General Contractor, Henderson,O'Connor Construction Management,89052,(702) 896-6926,NV,2821 W Horizon Ridge Pkwy #211,"2821 W Horizon Ridge Pkwy #211, Henderson, NV 89052","construction, Henderson, Nevada",http://www.ocmi.com/
General Contractor, Henderson,"Design Builders, Ltd.",89014,(702) 567-1500,NV,179 N Gibson Rd,"179 N Gibson Rd, Henderson, NV 89014","construction, Henderson, Nevada",http://www.designlv.com/
Construction Company, Henderson,Rice Construction,89011,(702) 565-5551,NV,1440 Athol Ave,"1440 Athol Ave, Henderson, NV 89011","construction, Henderson, Nevada",
Construction Company, Henderson,Triple R Construction,89011,(702) 566-0845,NV,737 Susanna Way,"737 Susanna Way, Henderson, NV 89011","construction, Henderson, Nevada",
General Contractor, Henderson,Mountain Valley Construction,89014,(702) 558-7973,NV,175 Cassia Way,"175 Cassia Way, Henderson, NV 89014","construction, Henderson, Nevada",
General Contractor, Henderson,Brylor Construction,89052,(702) 364-1919,NV,2480 Bench Reef Pl,"2480 Bench Reef Pl, Henderson, NV 89052","construction, Henderson, Nevada",
General Contractor, Henderson,Bravo Underground,89074,(702) 314-4100,NV,1183 Center Point Dr,"1183 Center Point Dr, Henderson, NV 89074","construction, Henderson, Nevada",http://creativewebdevelop.com/bravo1/html/
Labor Union, Henderson,Southern Nv Building & Construction Union Las Vegas,89014,(702) 452-8799,NV,1701 Whitney Mesa Dr,"1701 Whitney Mesa Dr, Henderson, NV 89014","construction, Henderson, Nevada",http://www.snbctc.org/
Construction Company, Henderson,Har-Bro Inc Las Vegas,89014,(702) 891-8900,NV,114 Cassia Way,"114 Cassia Way, Henderson, NV 89014","construction, Henderson, Nevada",http://www.harbro.com/
Construction Company, Henderson,Abbate Building Construction Inc.,89011,(702) 564-7200,NV,1647 N Boulder Hwy,"1647 N Boulder Hwy, Henderson, NV 89011","construction, Henderson, Nevada",http://www.abbatebuildingconstruction.com/
,,,,,,,,,
,,,,,,,,,
,,,,,,,,,
,,,,,,,,,
,,,,,,,,,
,,,,,,,,,
,,,,,,,,,
Demolition Contractor, Henderson,Roldan Construction Inc.,89011,(702) 739-3366,NV,2055 Pabco Rd,"2055 Pabco Rd, Henderson, NV 89011","construction, Henderson, Nevada",http://www.roldaninc.com/
Construction Company, Henderson,24/7 Construction and Restoration,89074,,NV,1168 Wigwam Pkwy,"1168 Wigwam Pkwy, Henderson, NV 89074","construction, Henderson, Nevada",
,,,,,,,,,
,,,,,,,,,
,,,,,,,,,
General Contractor, Henderson,All-Inclusive Construction,89011,(702) 547-2242,NV,1239 N Boulder Hwy # 500,"1239 N Boulder Hwy # 500, Henderson, NV 89011","construction, Henderson, Nevada",http://www.aic-nv.com/
Drilling Contractor, Henderson,Crux Subsurface Inc,89011,(702) 567-3007,NV,2065 Pabco Rd,"2065 Pabco Rd, Henderson, NV 89011","construction, Henderson, Nevada",http://www.cruxsub.com/
Home Builder, Henderson,Treviso Estates - KB Home,89012,(888) 524-6637,NV,2242 Via Cadoma,"2242 Via Cadoma, Henderson, NV 89012","construction, Henderson, Nevada",http://www.kbhome.com/new-homes-las-vegas
Landscaper, Henderson,Sunworld,89011,(702) 476-5353,NV,989 Empire Mesa Way,"989 Empire Mesa Way, Henderson, NV 89011","construction, Henderson, Nevada",http://www.sunworldllc.com/
Construction Company, Henderson,Argus Construction Inc,89012,(702) 878-2286,NV,254 Antelope Village Cir,"254 Antelope Village Cir, Henderson, NV 89012","construction, Henderson, Nevada",
Home Builder, Henderson,D.R. Horton,89014,(702) 635-3600,NV,1081 Whitney Ranch Dr #141,"1081 Whitney Ranch Dr #141, Henderson, NV 89014","construction, Henderson, Nevada",http://www.drhorton.com/Nevada/Las-Vegas.aspx
,,,,,,,,,
,,,,,,,,,
,,,,,,,,,
,,,,,,,,,
,,,,,,,,,
,,,,,,,,,
Construction Company, Las Vegas,Kiewit Infrastructure West Co,89123,(702) 560-2275,NV,8965 S Eastern Ave # 370,"8965 S Eastern Ave # 370, Las Vegas, NV 89123","construction, Henderson, Nevada",http://www.kiewit.com/locations/
,,,,,,,,,
,,,,,,,,,
,,,,,,,,,
,,,,,,,,,
,,,,,,,,,
,,,,,,,,,
,,,,,,,,,
,,,,,,,,,
,,,,,,,,,
,,,,,,,,,
,,,,,,,,,
,,,,,,,,,
,,,,,,,,,
,,,,,,,,,
,,,,,,,,,
,,,,,,,,,
,,,,,,,,,
,,,,,,,,,
,,,,,,,,,
Construction Company, Las Vegas,Kiewit Infrastructure West Co,89123,(702) 560-2275,NV,8965 S Eastern Ave # 370,"8965 S Eastern Ave # 370, Las Vegas, NV 89123","construction, Henderson, Nevada",http://www.kiewit.com/locations/
General Contractor, Henderson,Perini Building Co,89014,(702) 434-1454,NV,2955 N Green Valley Pkwy,"2955 N Green Valley Pkwy, Henderson, NV 89014","construction, Henderson, Nevada",
General Contractor, Las Vegas,R&O Construction,89119,(702) 895-9322,NV,6787 Spencer St,"6787 Spencer St, Las Vegas, NV 89119","construction, Henderson, Nevada",
Building Materials Store, Henderson,CalPortland,89011,(702) 893-6557,NV,450 Eastgate Rd,"450 Eastgate Rd, Henderson, NV 89011","construction, Henderson, Nevada",http://www.calportland.com/
Equipment Rental Agency, Henderson,Sunstate Equipment,89011,(702) 900-1955,NV,250 Elliott Rd,"250 Elliott Rd, Henderson, NV 89011","construction, Henderson, Nevada",http://hendersonequipmentrental.com/
Home Builder, Henderson,Lennar Homes,89011,(702) 856-0333,NV,752 Golden Sedum Dr,"752 Golden Sedum Dr, Henderson, NV 89011","construction, Henderson, Nevada",http://www.lennar.com/
Construction Company, Las Vegas,Rafael Construction Inc,89122,(702) 451-5511,NV,5870 Construction Ave,"5870 Construction Ave, Las Vegas, NV 89122","construction, Henderson, Nevada",http://rafael.bz/
Building Materials Supplier, Henderson,Atlas Construction Supply Inc,89015,(702) 227-6800,NV,680 W Lake Mead Pkwy,"680 W Lake Mead Pkwy, Henderson, NV 89015","construction, Henderson, Nevada",http://www.atlasform.com/
Building Materials Supplier, Henderson,Atlas Construction Supply Inc,89015,(702) 227-6800,NV,680 W Lake Mead Pkwy,"680 W Lake Mead Pkwy, Henderson, NV 89015","construction, Henderson, Nevada",http://www.atlasform.com/
Building Materials Supplier, Henderson,Atlas Construction Supply Inc,89015,(702) 227-6800,NV,680 W Lake Mead Pkwy,"680 W Lake Mead Pkwy, Henderson, NV 89015","construction, Henderson, Nevada",http://www.atlasform.com/
Building Materials Supplier, Henderson,Atlas Construction Supply Inc,89015,(702) 227-6800,NV,680 W Lake Mead Pkwy,"680 W Lake Mead Pkwy, Henderson, NV 89015","construction, Henderson, Nevada",http://www.atlasform.com/
Building Materials Supplier, Henderson,Atlas Construction Supply Inc,89015,(702) 227-6800,NV,680 W Lake Mead Pkwy,"680 W Lake Mead Pkwy, Henderson, NV 89015","construction, Henderson, Nevada",http://www.atlasform.com/
Building Materials Supplier, Henderson,Atlas Construction Supply Inc,89015,(702) 227-6800,NV,680 W Lake Mead Pkwy,"680 W Lake Mead Pkwy, Henderson, NV 89015","construction, Henderson, Nevada",http://www.atlasform.com/
Landscape Designer, Chula Vista,Epic Landscape Construction,91911,(619) 342-6320,CA,1381 Martin Pl,"1381 Martin Pl, Chula Vista, CA 91911","construction, Chula Vista, California",
Construction Company, Chula Vista,MRN Construction Inc.,91911,(619) 628-0029,CA,1747 Broadway,"1747 Broadway, Chula Vista, CA 91911","construction, Chula Vista, California",http://www.mrnconstruction-inc.com/
Concrete Contractor, CA 91911,Velazquez Construction Inc.,91911,(619) 274-2547,CA,Chula Vista,"Chula Vista, CA 91911","construction, Chula Vista, California",http://www.velazquezpatioconstruction.com/
Construction Company, Chula Vista,Vorce Construction,91910,(619) 316-4141,CA,591 Telegraph Canyon Rd,"591 Telegraph Canyon Rd, Chula Vista, CA 91910","construction, Chula Vista, California",http://www.vorceconstruction.com/
General Contractor, Chula Vista,C&L Construction,91910,(619) 954-3858,CA,975 Loma View,"975 Loma View, Chula Vista, CA 91910","construction, Chula Vista, California",http://www.candlconstruction.com/
General Contractor, Chula Vista,C&L Construction,91910,(619) 954-3858,CA,975 Loma View,"975 Loma View, Chula Vista, CA 91910","construction, Chula Vista, California",http://www.candlconstruction.com/
General Contractor, Chula Vista,C&L Construction,91910,(619) 954-3858,CA,975 Loma View,"975 Loma View, Chula Vista, CA 91910","construction, Chula Vista, California",http://www.candlconstruction.com/
General Contractor, Chula Vista,ZAVALZA'S CONSTRUCTION,91910,(951) 210-0778,CA,535 Mc Intosh St,"535 Mc Intosh St, Chula Vista, CA 91910","construction, Chula Vista, California",
Lawn Care Service, Chula Vista,Proscape Construction,91913,(619) 851-4042,CA,1754 Bouquet Canyon Rd,"1754 Bouquet Canyon Rd, Chula Vista, CA 91913","construction, Chula Vista, California",
Concrete Contractor, Chula Vista,Wilfredo Concrete Construction,91910,(619) 946-5039,CA,240 Woodlawn Ave #2,"240 Woodlawn Ave #2, Chula Vista, CA 91910","construction, Chula Vista, California",
Construction Company, Chula Vista,Centerpoint Construction Services Inc.,91910,(619) 869-8000,CA,320 Trousdale Dr,"320 Trousdale Dr, Chula Vista, CA 91910","construction, Chula Vista, California",http://www.cp-csi.com/quotes.html
Category,City,Company,Zipcode,Phone,State,Street,Address,SearchTerm,Website
Construction Company, Buffalo,Turner Construction Co,14202,(716) 853-1900,NY,50 Lakefront Blvd # 200,"50 Lakefront Blvd # 200, Buffalo, NY 14202","construction, Buffalo, New York",http://www.turnerconstruction.com/
General Contractor, Buffalo,BRD Construction,14202,(716) 847-0042,NY,82 Pearl St,"82 Pearl St, Buffalo, NY 14202","construction, Buffalo, New York",http://www.brdconstruction.com/
Construction Company, Buffalo,D A Vacanti Const,14207,(716) 875-2881,NY,200 Military Rd,"200 Military Rd, Buffalo, NY 14207","construction, Buffalo, New York",http://www.vacanticonstruction.com/
General Contractor, Buffalo,SLR Contracting & Services Co,14203,(716) 896-8148,NY,260 Michigan Ave # 1,"260 Michigan Ave # 1, Buffalo, NY 14203","construction, Buffalo, New York",http://www.slrcontracting.com/
General Contractor, Buffalo,Pinto Construction Services,14210,(716) 825-6666,NY,1 Babcock St,"1 Babcock St, Buffalo, NY 14210","construction, Buffalo, New York",http://pintocs.com/
Construction Company, Buffalo,Ciminelli Construction,14202,(716) 855-1200,NY,369 Franklin St,"369 Franklin St, Buffalo, NY 14202","construction, Buffalo, New York",http://lpciminelli.com/
Concrete Contractor, Buffalo,CVF Inc Concrete Construction,14216,(716) 836-1673,NY,258 Tacoma Ave,"258 Tacoma Ave, Buffalo, NY 14216","construction, Buffalo, New York",
,,,,,,,,,
Construction Company, Buffalo,H&R Construction Parts and Equipment,14212,(800) 333-0650,NY,20 Milburn St,"20 Milburn St, Buffalo, NY 14212","construction, Buffalo, New York",http://www.hrparts.com/
Roofing Contractor, Buffalo,Green Earth Construction,14207,(716) 578-3825,NY,1998 Niagara St,"1998 Niagara St, Buffalo, NY 14207","construction, Buffalo, New York",http://www.greenearthconstructionwny.com/
Construction Company, Buffalo,LPCiminelli Inc,14214,(716) 855-1200,NY,2421 Main St,"2421 Main St, Buffalo, NY 14214","construction, Buffalo, New York",http://www.lpciminelli.com/
General Contractor, Buffalo,Hadala Construction,14207,(716) 874-0300,NY,331 Grote St,"331 Grote St, Buffalo, NY 14207","construction, Buffalo, New York",
Construction Company, Buffalo,Northern Dreams Construction Inc,14212,(716) 913-9649,NY,42 Lackawanna Ave,"42 Lackawanna Ave, Buffalo, NY 14212","construction, Buffalo, New York",
Concrete Contractor, NY 14216,Zumbino Construction,14212,(716) 876-5298,NY,Buffalo,"Buffalo, NY 14216","construction, Buffalo, New York",http://www.zumbinoconstructionny.com/
General Contractor, NY 14215,Dream Team Construction,14212,(716) 464-8541,NY,Buffalo,"Buffalo, NY 14215","construction, Buffalo, New York",
Construction Company, Buffalo,Cozy Homes Construction,14206,(716) 603-8086,NY,63 Central Ave,"63 Central Ave, Buffalo, NY 14206","construction, Buffalo, New York",http://www.cozyhomesconstruction.com/
General Contractor, Buffalo,C J Construction Services Inc,14212,(716) 895-3443,NY,2129 Broadway,"2129 Broadway, Buffalo, NY 14212","construction, Buffalo, New York",
Electrician, Buffalo,Ferguson Electric Construction Co,14203,(716) 852-2010,NY,Just Pizza Express,"Just Pizza Express, Buffalo, NY 14203","construction, Buffalo, New York",
General Contractor, NY 14201,TJI Construction,14203,(716) 715-6834,NY,Buffalo,"Buffalo, NY 14201","construction, Buffalo, New York",
Roofing Contractor, Buffalo,ABS Construction,14213,(716) 832-7663,NY,111 School St,"111 School St, Buffalo, NY 14213","construction, Buffalo, New York",
Construction Company, Buffalo,Arbour Construction Management Inc.,14202,(716) 856-4572,NY,110 Pearl St,"110 Pearl St, Buffalo, NY 14202","construction, Buffalo, New York",http://arbourcm.com/
Concrete Contractor, Buffalo,Mike Hammer Concrete Construction,14204,(716) 854-1215,NY,57 Mulberry St,"57 Mulberry St, Buffalo, NY 14204","construction, Buffalo, New York",http://www.mikehammerconstruction.com/
General Contractor, Buffalo,Jericho Inc,14204,(716) 855-1001,NY,550 Genesee St,"550 Genesee St, Buffalo, NY 14204","construction, Buffalo, New York",
Construction Equipment Supplier, Buffalo,OSC Manufacturing & Equipment Services Inc.,14215,(716) 856-3333,NY,1001 E Delavan Ave,"1001 E Delavan Ave, Buffalo, NY 14215","construction, Buffalo, New York",http://www.oscequipment.com/
Construction Company, NY 14209,Reddin Construction Inc,14215,,NY,Buffalo,"Buffalo, NY 14209","construction, Buffalo, New York",
Electrician, Buffalo,Driscoll Electric,14204,(716) 427-6925,NY,32 Cypress St,"32 Cypress St, Buffalo, NY 14204","construction, Buffalo, New York",http://www.driscollelectric.com/
Category,City,Company,Zipcode,Phone,State,Street,Address,SearchTerm,Website
Construction Company, Buffalo,Turner Construction Co,14202,(716) 853-1900,NY,50 Lakefront Blvd # 200,"50 Lakefront Blvd # 200, Buffalo, NY 14202","construction, Buffalo, New York",http://www.turnerconstruction.com/
,,,,,,,,,
,,,,,,,,,
,,,,,,,,,
,,,,,,,,,
,,,,,,,,,
,,,,,,,,,
,,,,,,,,,
,,,,,,,,,
,,,,,,,,,
,,,,,,,,,
,,,,,,,,,
,,,,,,,,,
,,,,,,,,,
,,,,,,,,,
,,,,,,,,,
,,,,,,,,,
,,,,,,,,,
,,,,,,,,,
Roofing Contractor, Buffalo,ABS Construction,14213,(716) 832-7663,NY,111 School St,"111 School St, Buffalo, NY 14213","construction, Buffalo, New York",
Construction Company, Buffalo,Arbour Construction Management Inc.,14202,(716) 856-4572,NY,110 Pearl St,"110 Pearl St, Buffalo, NY 14202","construction, Buffalo, New York",http://arbourcm.com/
Concrete Contractor, Buffalo,Mike Hammer Concrete Construction,14204,(716) 854-1215,NY,57 Mulberry St,"57 Mulberry St, Buffalo, NY 14204","construction, Buffalo, New York",http://www.mikehammerconstruction.com/
Concrete Contractor, Buffalo,Mike Hammer Concrete Construction,14204,(716) 854-1215,NY,57 Mulberry St,"57 Mulberry St, Buffalo, NY 14204","construction, Buffalo, New York",http://www.mikehammerconstruction.com/
Concrete Contractor, Buffalo,Mike Hammer Concrete Construction,14204,(716) 854-1215,NY,57 Mulberry St,"57 Mulberry St, Buffalo, NY 14204","construction, Buffalo, New York",http://www.mikehammerconstruction.com/
Concrete Contractor, Buffalo,Mike Hammer Concrete Construction,14204,(716) 854-1215,NY,57 Mulberry St,"57 Mulberry St, Buffalo, NY 14204","construction, Buffalo, New York",http://www.mikehammerconstruction.com/
Concrete Contractor, Buffalo,Mike Hammer Concrete Construction,14204,(716) 854-1215,NY,57 Mulberry St,"57 Mulberry St, Buffalo, NY 14204","construction, Buffalo, New York",http://www.mikehammerconstruction.com/
Concrete Contractor, Buffalo,Mike Hammer Concrete Construction,14204,(716) 854-1215,NY,57 Mulberry St,"57 Mulberry St, Buffalo, NY 14204","construction, Buffalo, New York",http://www.mikehammerconstruction.com/
Concrete Contractor, Buffalo,Mike Hammer Concrete Construction,14204,(716) 854-1215,NY,57 Mulberry St,"57 Mulberry St, Buffalo, NY 14204","construction, Buffalo, New York",http://www.mikehammerconstruction.com/
Concrete Contractor, Buffalo,Mike Hammer Concrete Construction,14204,(716) 854-1215,NY,57 Mulberry St,"57 Mulberry St, Buffalo, NY 14204","construction, Buffalo, New York",http://www.mikehammerconstruction.com/
Concrete Contractor, Buffalo,Mike Hammer Concrete Construction,14204,(716) 854-1215,NY,57 Mulberry St,"57 Mulberry St, Buffalo, NY 14204","construction, Buffalo, New York",http://www.mikehammerconstruction.com/
Concrete Contractor, Buffalo,Mike Hammer Concrete Construction,14204,(716) 854-1215,NY,57 Mulberry St,"57 Mulberry St, Buffalo, NY 14204","construction, Buffalo, New York",http://www.mikehammerconstruction.com/
Concrete Contractor, Buffalo,Mike Hammer Concrete Construction,14204,(716) 854-1215,NY,57 Mulberry St,"57 Mulberry St, Buffalo, NY 14204","construction, Buffalo, New York",http://www.mikehammerconstruction.com/
Concrete Contractor, Buffalo,Mike Hammer Concrete Construction,14204,(716) 854-1215,NY,57 Mulberry St,"57 Mulberry St, Buffalo, NY 14204","construction, Buffalo, New York",http://www.mikehammerconstruction.com/
Concrete Contractor, Buffalo,Mike Hammer Concrete Construction,14204,(716) 854-1215,NY,57 Mulberry St,"57 Mulberry St, Buffalo, NY 14204","construction, Buffalo, New York",http://www.mikehammerconstruction.com/
Concrete Contractor, Buffalo,Mike Hammer Concrete Construction,14204,(716) 854-1215,NY,57 Mulberry St,"57 Mulberry St, Buffalo, NY 14204","construction, Buffalo, New York",http://www.mikehammerconstruction.com/
Concrete Contractor, Buffalo,Mike Hammer Concrete Construction,14204,(716) 854-1215,NY,57 Mulberry St,"57 Mulberry St, Buffalo, NY 14204","construction, Buffalo, New York",http://www.mikehammerconstruction.com/
Concrete Contractor, Buffalo,Mike Hammer Concrete Construction,14204,(716) 854-1215,NY,57 Mulberry St,"57 Mulberry St, Buffalo, NY 14204","construction, Buffalo, New York",http://www.mikehammerconstruction.com/
Concrete Contractor, Buffalo,Mike Hammer Concrete Construction,14204,(716) 854-1215,NY,57 Mulberry St,"57 Mulberry St, Buffalo, NY 14204","construction, Buffalo, New York",http://www.mikehammerconstruction.com/
Concrete Contractor, Buffalo,Mike Hammer Concrete Construction,14204,(716) 854-1215,NY,57 Mulberry St,"57 Mulberry St, Buffalo, NY 14204","construction, Buffalo, New York",http://www.mikehammerconstruction.com/
Concrete Contractor, Buffalo,Mike Hammer Concrete Construction,14204,(716) 854-1215,NY,57 Mulberry St,"57 Mulberry St, Buffalo, NY 14204","construction, Buffalo, New York",http://www.mikehammerconstruction.com/
Construction, NC 27701,Acanthus Construction,14204,(919) 688-4505,NY,Durham,"Durham, NC 27701","construction, Durham, North Carolina",http://www.acanthusconstruction.net/
Construction Company, Durham,CT Wilson Construction Co,27705,(919) 383-2535,NC,150 Golden Dr #200,"150 Golden Dr #200, Durham, NC 27705","construction, Durham, North Carolina",http://www.ctwilson.com/
General Contractor, Durham,"Bordeaux Construction Company, Inc",27704,(919) 220-1141,NC,100 E Britania Ave,"100 E Britania Ave, Durham, NC 27704","construction, Durham, North Carolina",http://www.bordeauxconstruction.com/
General Contractor, NC 27701,"BridgePoint Construction Services, Inc.",27704,(919) 530-8000,NC,Durham,"Durham, NC 27701","construction, Durham, North Carolina",http://www.bridgepointcs.com/
General Contractor, Durham,Williams Construction Company,27705,(919) 471-1308,NC,2600 Carver St # C,"2600 Carver St # C, Durham, NC 27705","construction, Durham, North Carolina",http://williams-construction.com/
General Contractor, Durham,Incline Construction Inc,27703,(919) 598-8006,NC,2503 E Pettigrew St,"2503 E Pettigrew St, Durham, NC 27703","construction, Durham, North Carolina",http://www.inclineconstruction.com/
Construction Company, Durham,Lend Lease,27701,(919) 680-5100,NC,324 Blackwell St #130,"324 Blackwell St #130, Durham, NC 27701","construction, Durham, North Carolina",http://www.lendlease.com/
Construction Company, Durham,"Romeo Guest Associates, Inc.",27704,(919) 683-1701,NC,1715 Camden Ave,"1715 Camden Ave, Durham, NC 27704","construction, Durham, North Carolina",http://www.romeoguest.com/
Dry Wall Contractor, Durham,AmTech Construction LLC,27703,(919) 789-4800,NC,2210 Page Rd #104,"2210 Page Rd #104, Durham, NC 27703","construction, Durham, North Carolina",http://www.amtechconstruction.com/
Home Builder, Durham,B. Wallace Design & Construction,27705,(919) 973-0862,NC,3200 Sandy Creek Dr,"3200 Sandy Creek Dr, Durham, NC 27705","construction, Durham, North Carolina",http://www.bwallacebuilt.com/
Construction Company, Durham,Lee Street Construction Co,27704,(919) 688-4433,NC,1601 E Geer St,"1601 E Geer St, Durham, NC 27704","construction, Durham, North Carolina",http://www.leestreetconstruction.com/
Construction Company, Durham,"LeChase Construction Services, LLC.",27701,(919) 688-5300,NC,324 Blackwell St # 1200,"324 Blackwell St # 1200, Durham, NC 27701","construction, Durham, North Carolina",http://www.lechase.com/
Construction Company, NC 27707,RWA Construction,27701,(919) 699-4871,NC,Durham,"Durham, NC 27707","construction, Durham, North Carolina",http://www.rwaconstructionnc.com/
General Contractor, Durham,DW Ward Construction Co,27704,(919) 477-0471,NC,1006 Communications Dr,"1006 Communications Dr, Durham, NC 27704","construction, Durham, North Carolina",http://www.dwward.com/
General Contractor, Durham,Joe F Berini Construction Co,27705,(919) 383-4793,NC,2338 Operations Dr,"2338 Operations Dr, Durham, NC 27705","construction, Durham, North Carolina",http://www.berinibuilt.com/
General Contractor, Durham,Rifenburg Construction Inc,27703,(919) 598-6921,NC,303 US-70,"303 US-70, Durham, NC 27703","construction, Durham, North Carolina",http://www.rifenburg.com/rifenburg-construction-north-carolina
Construction Company, Durham,Hutchins Construction Inc,27705,(919) 477-2900,NC,2811 Guess Rd,"2811 Guess Rd, Durham, NC 27705","construction, Durham, North Carolina",http://www.hutchinsdesignbuild.com/
Construction Company, Durham,Callis Contractors Inc,27705,(919) 416-6191,NC,1306 Broad St,"1306 Broad St, Durham, NC 27705","construction, Durham, North Carolina",http://www.calliscontractorsinc.com/
Construction Company, Durham,Gilbane Building Co,27701,(919) 425-0218,NC,302 E Pettigrew St #300,"302 E Pettigrew St #300, Durham, NC 27701","construction, Durham, North Carolina",http://www.gilbaneco.com/
Construction Company, Durham,Active Construction LLC,27713,(919) 489-5010,NC,631 United Dr # 100,"631 United Dr # 100, Durham, NC 27713","construction, Durham, North Carolina",
Roofing Contractor, Durham,Cole Roofing & Construction,27707,(919) 698-3207,NC,3901 University Dr,"3901 University Dr, Durham, NC 27707","construction, Durham, North Carolina",http://www.coleroofingconstruction.com/
Painting, Durham,Albright Painting & Construction,27707,(919) 886-0066,NC,1815 Collier Dr,"1815 Collier Dr, Durham, NC 27707","construction, Durham, North Carolina",
Construction Company, Durham,"Triangle Construction Management Co., Inc.",27707,(919) 616-2646,NC,2617 Winton Rd,"2617 Winton Rd, Durham, NC 27707","construction, Durham, North Carolina","http://www.triangleconstruction.net/,http://www.viewmenu.com/triangle-construction-management-co-inc/menu?ref=google,http://www.viewmenu.com/triangle-construction-management-co-inc/menu?ref=google"
General Contractor, Durham,Petry Construction,27712,(919) 452-0269,NC,1044 Lakeside Dr,"1044 Lakeside Dr, Durham, NC 27712","construction, Durham, North Carolina",http://petryconstnc.com/
Handyman, NC 27703,Carella Construction,27712,(919) 408-2645,NC,Durham,"Durham, NC 27703","construction, Durham, North Carolina",http://www.durhamconstructioncompany.com/
Construction Company, Durham,D L Williams Construction Co Inc,27703,(866) 417-8984,NC,2822 Ellis Rd,"2822 Ellis Rd, Durham, NC 27703","construction, Durham, North Carolina",http://www.dlwmsconst.com/
Home Builder, Durham,TRC Construction Inc,27705,(919) 937-9470,NC,218 Butler Ave,"218 Butler Ave, Durham, NC 27705","construction, Durham, North Carolina",
General Contractor, NC 27701,"Thoughtful Construction, Inc.",27705,(919) 485-9887,NC,Durham,"Durham, NC 27701","construction, Durham, North Carolina",
Construction Company, Durham,Skanska USA Building,27703,(919) 941-7900,NC,4309 Emperor Blvd #200,"4309 Emperor Blvd #200, Durham, NC 27703","construction, Durham, North Carolina",http://www.skanska.com/
Construction Company, Durham,K & M Construction,27712,(919) 477-0840,NC,6220 Kelvin Dr,"6220 Kelvin Dr, Durham, NC 27712","construction, Durham, North Carolina",
,,,,,,,,,
,,,,,,,,,
,,,,,,,,,
,,,,,,,,,
,,,,,,,,,
,,,,,,,,,
,,,,,,,,,
,,,,,,,,,
,,,,,,,,,
,,,,,,,,,
,,,,,,,,,
,,,,,,,,,
,,,,,,,,,
,,,,,,,,,
,,,,,,,,,
,,,,,,,,,
,,,,,,,,,
,,,,,,,,,
,,,,,,,,,
,,,,,,,,,
,,,,,,,,,
,,,,,,,,,
,,,,,,,,,
,,,,,,,,,
,,,,,,,,,
,,,,,,,,,
,,,,,,,,,
,,,,,,,,,
,,,,,,,,,
,,,,,,,,,
,,,,,,,,,
,,,,,,,,,
,,,,,,,,,
,,,,,,,,,
,,,,,,,,,
,,,,,,,,,
,,,,,,,,,
,,,,,,,,,
,,,,,,,,,
,,,,,,,,,
,,,,,,,,,
,,,,,,,,,
,,,,,,,,,
,,,,,,,,,
,,,,,,,,,
,,,,,,,,,
,,,,,,,,,
,,,,,,,,,
,,,,,,,,,
,,,,,,,,,
,,,,,,,,,
,,,,,,,,,
,,,,,,,,,
,,,,,,,,,
,,,,,,,,,
,,,,,,,,,
,,,,,,,,,
,,,,,,,,,
,,,,,,,,,
,,,,,,,,,
,,,,,,,,,
,,,,,,,,,
,,,,,,,,,
,,,,,,,,,
,,,,,,,,,
,,,,,,,,,
,,,,,,,,,
,,,,,,,,,
,,,,,,,,,
,,,,,,,,,
,,,,,,,,,
,,,,,,,,,
,,,,,,,,,
,,,,,,,,,
,,,,,,,,,
,,,,,,,,,
,,,,,,,,,
,,,,,,,,,
,,,,,,,,,
,,,,,,,,,
,,,,,,,,,
,,,,,,,,,
,,,,,,,,,
,,,,,,,,,
,,,,,,,,,
,,,,,,,,,
,,,,,,,,,
,,,,,,,,,
,,,,,,,,,
,,,,,,,,,
Construction Company, Worcester,Whipple Construction,01608,(508) 753-1496,MA,446 Main St,"446 Main St, Worcester, MA 01608","construction, Worcester, Massachusetts",http://www.whipple-construction.com/
General Contractor, Worcester,Lauring Construction Co Inc,01609,(508) 755-0754,MA,23 Brigham Rd,"23 Brigham Rd, Worcester, MA 01609","construction, Worcester, Massachusetts",http://www.lauringconstruction.com/
Construction Company, Worcester,Cardinal Construction Inc,01604,(508) 831-4447,MA,10 E Worcester St,"10 E Worcester St, Worcester, MA 01604","construction, Worcester, Massachusetts",http://www.cardinalmanagement.net/
Construction Company, Worcester,Botany Bay Construction Co Inc,01602,(508) 756-2147,MA,55 Botany Bay Rd,"55 Botany Bay Rd, Worcester, MA 01602","construction, Worcester, Massachusetts",http://botanybayconstruction.com/
Home Builder, Worcester,F W Madigan Co,01602,(508) 753-1459,MA,367 Chandler St,"367 Chandler St, Worcester, MA 01602","construction, Worcester, Massachusetts",http://www.fwmadigan.com/
General Contractor, Worcester,Quality Contracting Inc,01610,(508) 756-8800,MA,534 Cambridge St,"534 Cambridge St, Worcester, MA 01610","construction, Worcester, Massachusetts",http://www.qualitycontracting.us/
Roofing Contractor, Worcester,Golden Group Construction Corp.,01605,(508) 873-1884,MA,20 Tattan Farm Rd,"20 Tattan Farm Rd, Worcester, MA 01605","construction, Worcester, Massachusetts",http://www.goldengroupconstruction.com/
Construction Company, Worcester,A F Amorello & Sons Inc,01604,(508) 791-8778,MA,115 SW Cutoff,"115 SW Cutoff, Worcester, MA 01604","construction, Worcester, Massachusetts",http://www.afamorello.com/
Construction Company, Worcester,Igor's Construction,01606,(508) 889-4331,MA,419 Burncoat St,"419 Burncoat St, Worcester, MA 01606","construction, Worcester, Massachusetts",http://igorsconstruction.com/
Contractor, Worcester,Reis Construction Management,01603,(508) 962-7179,MA,6 S Edlin St,"6 S Edlin St, Worcester, MA 01603","construction, Worcester, Massachusetts",
Construction Company, MA 01602,Taylor Made Construction Corp.,01603,(774) 242-2358,MA,Worcester,"Worcester, MA 01602","construction, Worcester, Massachusetts",http://taylormadeconstructioncorp.com/
Construction Company, Worcester,Oasis Construction Inc,01604,(508) 802-7470,MA,200 SW Cutoff,"200 SW Cutoff, Worcester, MA 01604","construction, Worcester, Massachusetts",
Septic System Service, MA 01606,Alexander Construction,01604,(508) 304-5014,MA,Worcester,"Worcester, MA 01606","construction, Worcester, Massachusetts",
Construction Company, Worcester,"Liberty Construction, Inc.",01603,(508) 791-0222,MA,13 Jacques St,"13 Jacques St, Worcester, MA 01603","construction, Worcester, Massachusetts",http://liberty-construction.com/
Excavating Contractor, Worcester,Marois Bros Inc,01601,(508) 791-8134,MA,965 Millbury St,"965 Millbury St, Worcester, MA 01601","construction, Worcester, Massachusetts",http://maroisbrothers.com/
Home Builder, Worcester,Antonelli Construction Co,01604,(508) 753-7436,MA,21 Adams St,"21 Adams St, Worcester, MA 01604","construction, Worcester, Massachusetts",http://www.antonelliconstruction.com/
General Contractor, Worcester,R A Simoncini Co,01605,(508) 797-3322,MA,1 Moran Ct,"1 Moran Ct, Worcester, MA 01605","construction, Worcester, Massachusetts",
General Contractor, Worcester,Salisbury Construction Co,01602,(508) 752-3505,MA,453 Chandler St,"453 Chandler St, Worcester, MA 01602","construction, Worcester, Massachusetts",http://www.salisburyconsultingcontractors.com/
General Contractor, MA 01527,OTA Construction,St,(508) 373-4435,Spencer,51 West Main Street MIllbury,"51 West Main Street MIllbury, MA 01527, Spencer St, Worcester, MA 01603","construction, Worcester, Massachusetts",http://www.otaconstruction.com/
Excavating Contractor, Worcester,Barrows Septic Services,01609,(508) 754-4942,MA,22 Barrows Rd,"22 Barrows Rd, Worcester, MA 01609","construction, Worcester, Massachusetts",http://www.barrowsseptic.com/
General Contractor, Worcester,Gallo Construction Inc,01608,(508) 755-4745,MA,370 Southbridge St,"370 Southbridge St, Worcester, MA 01608","construction, Worcester, Massachusetts",
General Contractor, Worcester,Icarus Construction Services,01608,(508) 755-7462,MA,340 Main St #840,"340 Main St #840, Worcester, MA 01608","construction, Worcester, Massachusetts",http://www.icarusconstruction.com/
Demolition Contractor, Worcester,Ricciardi Brothers Inc,01604,(508) 753-0175,MA,20 Envelope Terrace,"20 Envelope Terrace, Worcester, MA 01604","construction, Worcester, Massachusetts",http://www.ricciardibrosinc.com/
Paving Contractor, Worcester,Amorello Services,01604,(508) 798-6717,MA,115 SW Cutoff,"115 SW Cutoff, Worcester, MA 01604","construction, Worcester, Massachusetts",http://danamorelloservices.com/
Construction Company, Worcester,Jan-Michaels Construction,01602,(508) 792-9586,MA,18 Mabelle St,"18 Mabelle St, Worcester, MA 01602","construction, Worcester, Massachusetts",http://www.jan-michaels.com/
Home Builder, Worcester,W Hartnagel Construction,01603,(508) 579-0550,MA,18 Ferdinand St,"18 Ferdinand St, Worcester, MA 01603","construction, Worcester, Massachusetts",
General Contractor, Worcester,Cutler Associates Inc,01609,(508) 757-7500,MA,43 Harvard St,"43 Harvard St, Worcester, MA 01609","construction, Worcester, Massachusetts",http://cutlerdb.com/
General Contractor, Worcester,Mfj Construction & Remodeling,01606,(508) 852-5564,MA,16 Norrback Ave,"16 Norrback Ave, Worcester, MA 01606","construction, Worcester, Massachusetts",
Construction Company, Worcester,Energy Construction Services,01603,(508) 767-1200,MA,76 Webster St,"76 Webster St, Worcester, MA 01603","construction, Worcester, Massachusetts",http://www.nrgserv.com/
Deck Builder, Worcester,R.P. Wilkinson Construction,01609,(508) 579-8884,MA,210 Park Ave #283,"210 Park Ave #283, Worcester, MA 01609","construction, Worcester, Massachusetts",http://www.rpwilkinsonconstruction.com/
Home Builder, Worcester,Al Maykel Construction,01609,(508) 757-7533,MA,232 Chandler St,"232 Chandler St, Worcester, MA 01609","construction, Worcester, Massachusetts",
General Contractor, Worcester,C & S Construction,01605,(508) 752-5900,MA,405 Grove St,"405 Grove St, Worcester, MA 01605","construction, Worcester, Massachusetts",
Construction Company, Worcester,D.S. Landscape Construction,01602,(774) 239-0773,MA,Worcester and surrounding,"Worcester and surrounding, Worcester, MA 01602","construction, Worcester, Massachusetts",
Kitchen Remodeler, Worcester,Add-Ventures Blanchard Construction,01602,(508) 798-2325,MA,16 Kensington Rd,"16 Kensington Rd, Worcester, MA 01602","construction, Worcester, Massachusetts",http://blanchard-construction.com/
Tree Service, Worcester,Setaro Construction Corporation,01603,(774) 696-0010,MA,220 Stafford St,"220 Stafford St, Worcester, MA 01603","construction, Worcester, Massachusetts",http://setarobrostreeservice.com/
Electrician, Worcester,Emci,01604,(508) 796-0355,MA,270 SW Cutoff,"270 SW Cutoff, Worcester, MA 01604","construction, Worcester, Massachusetts",
General Contractor, Worcester,Fisher Contracting Corporation,01603,(508) 421-6989,MA,11 Webster Pl,"11 Webster Pl, Worcester, MA 01603","construction, Worcester, Massachusetts",http://fishercontracting.us/
Construction Equipment Supplier, Worcester,Curtis Construction Equipment,01607,(508) 363-1889,MA,1085 Millbury St,"1085 Millbury St, Worcester, MA 01607","construction, Worcester, Massachusetts",http://www.curtisconstructionrentals.com/
Contractor, Worcester,Capstone General Contracting LLC,01604,(508) 799-4463,MA,898B Grafton St,"898B Grafton St, Worcester, MA 01604","construction, Worcester, Massachusetts",
Construction Company, Worcester,SRT Landscape Construction,01606,(508) 410-6154,MA,13 Tower St,"13 Tower St, Worcester, MA 01606","construction, Worcester, Massachusetts",http://srtconstruction.net/
General Contractor, Worcester,Regen Builders,01604,(774) 696-7437,MA,23 Ida Rd,"23 Ida Rd, Worcester, MA 01604","construction, Worcester, Massachusetts",http://www.regenbuilders.com/
General Contractor, Worcester,UCX - Underground Construction INC,01604,(508) 459-9671,MA,21 Eskow Rd,"21 Eskow Rd, Worcester, MA 01604","construction, Worcester, Massachusetts",
Siding Contractor, MA 01607,UBrothers Construction,01604,(508) 425-0244,MA,Worcester,"Worcester, MA 01607","construction, Worcester, Massachusetts",http://ubrothersconstruction.com/
General Contractor, Worcester,E G Fisher Contracting Inc,01603,(508) 754-8315,MA,11 Webster Pl,"11 Webster Pl, Worcester, MA 01603","construction, Worcester, Massachusetts",http://fishercontracting.us/
Masonry Contractor, Worcester,Joseph T Bianco Masonry & Construction,01604,(508) 799-3917,MA,807 Franklin St,"807 Franklin St, Worcester, MA 01604","construction, Worcester, Massachusetts",http://www.josephtbiancomasonry.com/
Contractor, Worcester,J E Amorello Inc,01604,(508) 791-9251,MA,115 SW Cutoff,"115 SW Cutoff, Worcester, MA 01604","construction, Worcester, Massachusetts",http://www.jeamorello.com/
Demolition Contractor, Worcester,Standard Builders,01607,(508) 755-1088,MA,257 Granite St,"257 Granite St, Worcester, MA 01607","construction, Worcester, Massachusetts",http://standardbuildersworcester.com/
Roofing Contractor, Worcester,Kenny Exteriors,01604,(508) 798-8100,MA,172 Shrewsbury St,"172 Shrewsbury St, Worcester, MA 01604","construction, Worcester, Massachusetts",http://www.kennyexteriors.com/
General Contractor, MA 01610,"G & O Construction Contractors, Inc.",01604,(508) 450-4316,MA,Worcester,"Worcester, MA 01610","construction, Worcester, Massachusetts",http://www.generalcontractorworcester.net/
Home Builder, Worcester,R & K Home Improvement Co,01606,(508) 853-8985,MA,16 Dodge Ave,"16 Dodge Ave, Worcester, MA 01606","construction, Worcester, Massachusetts",http://www.randkhomeimprovement.com/
General Contractor, Worcester,Cardinal Construction Inc,01608,(508) 831-4447,MA,1 Exchange Pl,"1 Exchange Pl, Worcester, MA 01608","construction, Worcester, Massachusetts",http://www.cardinalmanagement.net/
Home Builder, Worcester,New England Design Associates,01609,(508) 792-3000,MA,39 Salisbury St,"39 Salisbury St, Worcester, MA 01609","construction, Worcester, Massachusetts",http://neda-development.com/
Construction Company, Worcester,"Trivium Design, Construction & Development",01608,(508) 925-0826,MA,390 Main St #746,"390 Main St #746, Worcester, MA 01608","construction, Worcester, Massachusetts",http://www.trivium-construction.com/
Property Management Company, Worcester,Glickman Kovago & Company,01609,(508) 753-9100,MA,47 Harvard St,"47 Harvard St, Worcester, MA 01609","construction, Worcester, Massachusetts",http://www.glickmankovago.com/
Excavating Contractor, Worcester,D F Callahan Inc,01605,(508) 852-1205,MA,761 Grove St,"761 Grove St, Worcester, MA 01605","construction, Worcester, Massachusetts",
Paving Contractor, Worcester,Paldino Brothers Co Inc,01604,(508) 756-5020,MA,468 Franklin St,"468 Franklin St, Worcester, MA 01604","construction, Worcester, Massachusetts",
Architect, Worcester,AZ Construction N Design,01606,(774) 243-7170,MA,240 Barber Ave,"240 Barber Ave, Worcester, MA 01606","construction, Worcester, Massachusetts",http://azconstructionndesign.com/
Environmental Program, Worcester,Tantara Corporation,01610,(508) 752-5599,MA,54 Mason St,"54 Mason St, Worcester, MA 01610","construction, Worcester, Massachusetts",http://www.tantaracorp.com/
Real Estate Developer, Worcester,Carabetta Enterprises,01605,(508) 853-5232,MA,111 Country Club Blvd,"111 Country Club Blvd, Worcester, MA 01605","construction, Worcester, Massachusetts",http://www.carabetta.com/
Electrician, Worcester,Commonwealth Electrical,01607,(508) 421-6600,MA,125 Blackstone River Rd,"125 Blackstone River Rd, Worcester, MA 01607","construction, Worcester, Massachusetts",http://comelectrical.com/
Roofing Contractor, MA 01605,Golden Group Construction Corp.,01607,(508) 873-1884,MA,Worcester,"Worcester, MA 01605","construction, Worcester, Massachusetts",http://www.goldengroupconstruction.com/
Paving Contractor, Worcester,Sealcoating LTD,01609,(508) 688-0564,MA,85 Barry Rd,"85 Barry Rd, Worcester, MA 01609","construction, Worcester, Massachusetts",http://sealcoatingltd.com/
Plumber, Worcester,J Brennan Plumbing & Heating,01609,(508) 798-6735,MA,240 Moreland St,"240 Moreland St, Worcester, MA 01609","construction, Worcester, Massachusetts",http://www.jbrennanplumbingandheating.com/
Construction Company, Grafton,J J Construction,01536,(508) 839-2388,MA,202 Worcester St,"202 Worcester St, Grafton, MA 01536","construction, Worcester, Massachusetts",http://www.jjconstruction-ma.com/
Roofing Contractor, MA 01603,Tri State Construction Co,01536,(508) 751-8585,MA,Worcester,"Worcester, MA 01603","construction, Worcester, Massachusetts",http://tri-state-roofing.com/
Construction Company, Worcester,"Barnes Building & Remodeling, Inc.",01605,(877) 280-3311,MA,100 Grove St #216,"100 Grove St #216, Worcester, MA 01605","construction, Worcester, Massachusetts",http://www.barnesbuilding.net/
Home Builder, Holden,"Gallo Builders, INC.",01520,(508) 829-0676,MA,31 Gallair Cir,"31 Gallair Cir, Holden, MA 01520","construction, Worcester, Massachusetts",http://www.gallobuilders.com/
Construction Company, Worcester,"Graves Engineering, Inc.",01605,(508) 856-0321,MA,100 Grove St,"100 Grove St, Worcester, MA 01605","construction, Worcester, Massachusetts",http://www.gravesengineering.com/
Construction Company, Worcester,Evans Remodeling,01602,(508) 753-8354,MA,29 Vassar St,"29 Vassar St, Worcester, MA 01602","construction, Worcester, Massachusetts",
