Category,City,Company,Zipcode,Phone,State,Street,Address,SearchTerm,Website
Construction Company, NY 11230,A to Z Renovations Services In NY,,(800) 257-0440,,Brooklyn,"Brooklyn, NY 11230","renovation services, New York, New York",http://atozrenovationsny.com/
General Contractor, New York,Knockout Renovation,10016,(212) 599-5060,NY,47 E 34th St,"47 E 34th St, New York, NY 10016","renovation services, New York, New York",http://www.knockoutrenovation.com/
Construction Company, New York,Amp Interior Renovations,10040,(212) 740-1914,NY,600 W 192nd St,"600 W 192nd St, New York, NY 10040","renovation services, New York, New York",http://ampinterior.com/
Contractor, Brooklyn,Perfect Renovation,11201,(718) 797-1335,NY,103 Atlantic Ave,"103 Atlantic Ave, Brooklyn, NY 11201","renovation services, New York, New York",http://www.perfect-renovation.com/
Kitchen Remodeler, New York,TBro's Renovation Inc.,10001,(917) 909-6006,NY,153 W 27th St,"153 W 27th St, New York, NY 10001","renovation services, New York, New York",http://www.tbrosrenovation.com/
General Contractor, 1460 3rd Ave,NYC Renovation Group,York,(212) 722-8883,New,C/O A1 Interior Carpets,"C/O A1 Interior Carpets, 1460 3rd Ave, New York, NY 10028","renovation services, New York, New York",
Kitchen Remodeler, New York,MyHome - NYC Kitchen & Bath Remodeling,10036,(212) 666-2888,NY,353 W 48th St,"353 W 48th St, New York, NY 10036","renovation services, New York, New York",http://www.myhomeus.com/
General Contractor, NY 10024,GRNY Renovation,,(212) 380-6171,,New York,"New York, NY 10024","renovation services, New York, New York",http://www.grnyrenovation.com/
Kitchen Remodeler, New York,Kitchen & Bathroom Renovation Contractors | New York Artistic,10024,(212) 362-3441,NY,552 Columbus Ave,"552 Columbus Ave, New York, NY 10024","renovation services, New York, New York",http://www.newyorkartistic.com/
Kitchen Remodeler, NY 11215,GRNY Renovation Brooklyn,,(212) 380-6171,,Brooklyn,"Brooklyn, NY 11215","renovation services, New York, New York",http://www.grnyrenovation.com/
Construction Company, Brooklyn,All Renovation Construction LLC,11232,(718) 351-4099,NY,220 36th St b416,"220 36th St b416, Brooklyn, NY 11232","renovation services, New York, New York",http://allrenovations.com/
General Contractor, New York,Universal Renovation NYC,10019,(347) 865-8387,NY,322 W 57th St #18b,"322 W 57th St #18b, New York, NY 10019","renovation services, New York, New York",http://universalrenovation.com/
General Contractor, New York,Bhutta Renovation | Apartment Renovation NYC,10016,(718) 218-4247,NY,30 Park Ave #4l,"30 Park Ave #4l, New York, NY 10016","renovation services, New York, New York",http://www.bhuttarenovation.com/
General Contractor, New York,UCE Renovation,10016,(646) 580-7374,NY,349 5th Ave,"349 5th Ave, New York, NY 10016","renovation services, New York, New York",http://www.ucerenovation.com/
General Contractor, Queens,Polcon Renovation Inc,11385,(718) 938-4353,NY,6052 Madison St,"6052 Madison St, Queens, NY 11385","renovation services, New York, New York",
Construction Company, Brooklyn,"Renovation-Plus Construction Group, LLC.",11234,(646) 245-0088,NY,4809 Avenue N,"4809 Avenue N, Brooklyn, NY 11234","renovation services, New York, New York",http://www.renovation-plus.com/
Interior Designer, New York,Ideal Home Renovations,10075,(646) 761-0551,NY,229 E 79th St,"229 E 79th St, New York, NY 10075","renovation services, New York, New York",http://www.idealhomerenovations.com/
General Contractor, New York,Crafted Kitchen Remodeling & Renovations Contractors,10018,(212) 391-9700,NY,110 W 40th St,"110 W 40th St, New York, NY 10018","renovation services, New York, New York",http://craftedkitchen.com/
Construction Company, NY 10009,Renovation NY,,(917) 531-7991,,New York,"New York, NY 10009","renovation services, New York, New York",http://www.renovationny.com/
General Contractor, Brooklyn,Universal Renovation NYC INC,11234,(347) 865-8387,NY,1350 E 66th St,"1350 E 66th St, Brooklyn, NY 11234","renovation services, New York, New York",http://universalrenovation.com/
Dry Wall Contractor, Queens,General Renovation,11434,(646) 624-4386,NY,114-05 170th St #3d,"114-05 170th St #3d, Queens, NY 11434","renovation services, New York, New York",
General Contractor, Brooklyn,Captain Renovation & Contracting Inc,11217,(718) 972-4646,NY,313 Butler St,"313 Butler St, Brooklyn, NY 11217","renovation services, New York, New York",http://captaincontracting.com/
Contractor, NY 11231,The CHS Group,,(800) 357-7474,,Brooklyn,"Brooklyn, NY 11231","renovation services, New York, New York",http://www.thechsgroup.us/
Construction Company, New York,Batiment Renovation,10012,(212) 203-3088,NY,14 Murray Street #203,"14 Murray Street #203, New York, NY 10012","renovation services, New York, New York",http://batimentny.com/
Construction Company, Queens,Solid Renovation,11418,(917) 300-5522,NY,87-17 102nd St,"87-17 102nd St, Queens, NY 11418","renovation services, New York, New York",http://www.solidrenovation.com/
Construction Company, Queens,"Renovation Group, Inc.",11375,(718) 690-1370,NY,112-26 69th Rd,"112-26 69th Rd, Queens, NY 11375","renovation services, New York, New York",http://www.nrgmagic.com/
General Contractor, New York,Eurostruct,10075,(212) 535-3407,NY,12 E 78th St,"12 E 78th St, New York, NY 10075","renovation services, New York, New York",http://eurostruct.com/
General Contractor, NY 10002,Khan Home Improvement General Contractor,,(718) 633-2220,,New York,"New York, NY 10002","renovation services, New York, New York",http://www.khanhomeimprovement.com/
Construction Company, New York,LMA Group,10010,(212) 366-5555,NY,45 W 21st St,"45 W 21st St, New York, NY 10010","renovation services, New York, New York",http://lmagroupinc.com/
General Contractor, New York,Sweeten,10002,(212) 671-1713,NY,195 Chrystie St #502f,"195 Chrystie St #502f, New York, NY 10002","renovation services, New York, New York",
General Contractor, Brooklyn,Khan Home Improvement General Contractor,11218,(718) 633-2220,NY,543 McDonald Ave,"543 McDonald Ave, Brooklyn, NY 11218","renovation services, New York, New York",http://www.khanhomeimprovement.com/
General Contractor, New York,NYKB,10010,(212) 242-3500,NY,8 W 25th St,"8 W 25th St, New York, NY 10010","renovation services, New York, New York",http://www.nykb.com/
General Contractor, New York,KRS Renovation Corporation,10036,(212) 246-4101,NY,404 W 46th St,"404 W 46th St, New York, NY 10036","renovation services, New York, New York",
General Contractor, Brooklyn,Creative Renovations LLC,11231,(718) 858-8900,NY,271 Columbia St,"271 Columbia St, Brooklyn, NY 11231","renovation services, New York, New York",http://creativeren.com/
Construction Company, Queens,Gotham Builders,11361,(800) 444-4923,NY,203-20 Rocky Hill Rd,"203-20 Rocky Hill Rd, Queens, NY 11361","renovation services, New York, New York",http://www.gothambuildersofnewyork.com/
General Contractor, Queens,GRNY Renovation Queens,11375,(212) 380-6171,NY,Forest Hills,"Forest Hills, Queens, NY 11375","renovation services, New York, New York",http://www.grnyrenovation.com/
General Contractor, New York,E S Renovation & Construction,10016,(212) 243-7281,NY,166 E 34th St # 21K,"166 E 34th St # 21K, New York, NY 10016","renovation services, New York, New York",http://esrenovation.com/
Construction Company, Brooklyn,High Tech Construction - Brownstone Facade Restoration,11218,(347) 792-1266,NY,3623 15th Ave,"3623 15th Ave, Brooklyn, NY 11218","renovation services, New York, New York",http://www.hightechconstructionco.com/
Contractor, NY 10024,Painter and Carpenter Home Renovation LLC,,(347) 924-7182,,New York,"New York, NY 10024","renovation services, New York, New York",http://www.painterandcarpenter.com/
General Contractor, NY 10458,Eden General Construction Inc.,,(212) 369-6666,,Bronx,"Bronx, NY 10458","renovation services, New York, New York",http://www.contractorinny.com/
Kitchen Remodeler, New York,KBR - Design & Build,10001,(212) 475-8000,NY,838 6th Avenue 5th Floor,"838 6th Avenue 5th Floor, New York, NY 10001","renovation services, New York, New York",http://www.kbremodel.com/
Construction Company, Queens,Cristom Construction,11357,(718) 747-4747,NY,151-01 14th Ave,"151-01 14th Ave, Queens, NY 11357","renovation services, New York, New York",http://www.cristomconstruction.com/
Construction Company, Brooklyn,Big Apple Remodeling Corporation.,11222,(718) 314-7074,NY,952 Manhattan Ave,"952 Manhattan Ave, Brooklyn, NY 11222","renovation services, New York, New York",http://www.bigappleremodelingny.com/
Kitchen Remodeler, Bronx,"Enri's Preservation & Creation, LLC",10462,(646) 209-1245,NY,2107 Wallace Ave,"2107 Wallace Ave, Bronx, NY 10462","renovation services, New York, New York",http://www.enrisallinteriorrenovation.com/
Construction Company, Queens,A and E Brothers NY,11378,(347) 916-1799,NY,Ridgewood,"Ridgewood, Queens, NY 11378","renovation services, New York, New York",http://aandebrothersny.com/
Construction Company, 39 W 37th St,"Rusk Renovations, Inc.",York,(212) 544-0986,New,15th Floor,"15th Floor, 39 W 37th St, New York, NY 10018","renovation services, New York, New York",http://www.ruskrenovations.com/
Interior Designer, New York,Encore Decor Ltd,10113,(212) 694-6309,NY,Old Chelsea Station,"Old Chelsea Station, New York, NY 10113","renovation services, New York, New York",http://www.encoredecor.com/
General Contractor, New York,Interior Renovations NYC,10001,(646) 685-3177,NY,244 5th Ave l214,"244 5th Ave l214, New York, NY 10001","renovation services, New York, New York",http://interiorrenovations.nyc/
Construction Company, New York,GreenStreet Inc.,10016,(212) 234-1027,NY,303 5th Ave #1702,"303 5th Ave #1702, New York, NY 10016","renovation services, New York, New York",http://greenstreetinc.com/
General Contractor, 16D,JMPB Enterprises,York,(212) 371-2222,New,1175 York Ave,"1175 York Ave, 16D, New York, NY 10065","renovation services, New York, New York",http://www.jmpbenterprises.com/
Construction Company, New York,Mamais Contracting Corporation.,10027,(212) 865-1666,NY,256 W 124th St,"256 W 124th St, New York, NY 10027","renovation services, New York, New York",http://www.mamais.com/
Medical Billing Service, New York,Medical Billing Services New York,10018,(800) 966-9270,NY,242 W 36th St,"242 W 36th St, New York, NY 10018","renovation services, New York, New York",http://www.medical-billing.com/
Kitchen Remodeler, New York,Klein Kitchen & Bath,10075,(212) 717-1726,NY,1504 2nd Ave,"1504 2nd Ave, New York, NY 10075","renovation services, New York, New York",http://www.kleinkitchenandbath.com/
Construction Company, New York,Interior Building Services New York City,10016,(212) 300-7353,NY,105 E 34th St,"105 E 34th St, New York, NY 10016","renovation services, New York, New York",http://www.kitchenrenovationnyc.com/
General Contractor, Queens,PTL Renovation Inc,11365,(718) 380-2478,NY,7172 162nd St,"7172 162nd St, Queens, NY 11365","renovation services, New York, New York",
General Contractor, Brooklyn,Townhouse Therapy,11238,(917) 658-6104,NY,103 St James Pl,"103 St James Pl, Brooklyn, NY 11238","renovation services, New York, New York",http://townhouse-therapy.com/
General Contractor, Brooklyn,Townhouse Therapy,11238,(917) 658-6104,NY,103 St James Pl,"103 St James Pl, Brooklyn, NY 11238","renovation services, New York, New York",http://townhouse-therapy.com/
General Contractor, Brooklyn,Townhouse Therapy,11238,(917) 658-6104,NY,103 St James Pl,"103 St James Pl, Brooklyn, NY 11238","renovation services, New York, New York",http://townhouse-therapy.com/
General Contractor, Brooklyn,Townhouse Therapy,11238,(917) 658-6104,NY,103 St James Pl,"103 St James Pl, Brooklyn, NY 11238","renovation services, New York, New York",http://townhouse-therapy.com/
General Contractor, Brooklyn,Townhouse Therapy,11238,(917) 658-6104,NY,103 St James Pl,"103 St James Pl, Brooklyn, NY 11238","renovation services, New York, New York",http://townhouse-therapy.com/
,,,,,,,,,
Window Installation Service, IN 46256,Indiana Renovation Concepts,,(317) 426-5304,,Indianapolis,"Indianapolis, IN 46256","renovation services, Indianapolis, Indiana",http://www.indianarenovationconceptsonline.com/
Kitchen Remodeler, Indianapolis,Steve Gray Renovations,46256,(317) 596-0928,IN,7111 Freemont Court,"7111 Freemont Court, Indianapolis, IN 46256","renovation services, Indianapolis, Indiana",http://www.stevegrayrenovations.com/
General Contractor, IN 46032,Renovation Plus,,(317) 572-5951,,Carmel,"Carmel, IN 46032","renovation services, Indianapolis, Indiana",http://www.indianapolisremodelingservice.net/
Custom Home Builder, Indianapolis,"WrightWorks, LLC",46220,(317) 925-7106,IN,5207 N College Ave Suite 1,"5207 N College Ave Suite 1, Indianapolis, IN 46220","renovation services, Indianapolis, Indiana",http://www.wrightworks.net/
Swimming Pool Contractor, Indianapolis,Anthony's Classic Pool Renovations,46236,(317) 823-2240,IN,10126 Alexia Dr,"10126 Alexia Dr, Indianapolis, IN 46236","renovation services, Indianapolis, Indiana",http://www.anthonyspoolplastering.com/
Fence Contractor, Indianapolis,Edg Custom Renovations LLC,46226,(312) 288-0658,IN,5250 N Kercheval Dr,"5250 N Kercheval Dr, Indianapolis, IN 46226","renovation services, Indianapolis, Indiana",
Bathroom Remodeler, Indianapolis,"DK Investment Renovations, Inc",46226,(317) 506-4635,IN,3130 N Richardt Ave,"3130 N Richardt Ave, Indianapolis, IN 46226","renovation services, Indianapolis, Indiana",
Architect, Indianapolis,Brenner Design Inc,46204,(317) 262-1220,IN,620 N Delaware St,"620 N Delaware St, Indianapolis, IN 46204","renovation services, Indianapolis, Indiana",http://brennerdesign.com/
General Contractor, IN 46143,A New Horizon Renovations LLP,,(317) 893-2784,,Greenwood,"Greenwood, IN 46143","renovation services, Indianapolis, Indiana",http://www.anhrrenovations.com/
Contractor, Indianapolis,"Extreme Property Solutions, LLC",46234,(317) 777-7751,IN,8751 Rockville Rd,"8751 Rockville Rd, Indianapolis, IN 46234","renovation services, Indianapolis, Indiana",
Kitchen Remodeler, IN 46260,Booher Remodeling Company,,(317) 852-5546,,Indianapolis,"Indianapolis, IN 46260","renovation services, Indianapolis, Indiana",http://www.booherbuilding.com/
Swimming Pool Contractor, IN 46256,Imperial Pool and Spa Service,,(317) 280-3827,,Indianapolis,"Indianapolis, IN 46256","renovation services, Indianapolis, Indiana",http://www.poolrepaircompanyindianapolis.com/
Kitchen Remodeler, Indianapolis,Greg Kearns Builder Designer,46236,(317) 289-7807,IN,7962 Oaklandon Rd Suite 104,"7962 Oaklandon Rd Suite 104, Indianapolis, IN 46236","renovation services, Indianapolis, Indiana",http://www.gregkearnsbuilderdesigner.com/
Architect, Indianapolis,Architura Corporation,46204,(317) 348-1000,IN,55 Monument Cir,"55 Monument Cir, Indianapolis, IN 46204","renovation services, Indianapolis, Indiana",http://www.archituracorp.com/
Engineering Consultant, Indianapolis,R E Dimond & Associates,46204,(317) 634-4672,IN,732 N Capitol Ave,"732 N Capitol Ave, Indianapolis, IN 46204","renovation services, Indianapolis, Indiana",http://redimond.com/
General Contractor, Carmel,"Centennial Construction & Remodeling Services, Inc.",46032,(317) 848-7634,IN,940 3rd Ave SW,"940 3rd Ave SW, Carmel, IN 46032","renovation services, Indianapolis, Indiana",http://www.centennialconstructionremodeling.com/
General Contractor, Indianapolis,"CMH Builders, Inc.",46268,(317) 714-6536,IN,8847 Commerce Park Pl,"8847 Commerce Park Pl, Indianapolis, IN 46268","renovation services, Indianapolis, Indiana",http://www.cmhbuilders.com/
Swimming Pool Contractor, Indianapolis,RenoSys Corporation,46220,(800) 783-7005,IN,2825 E 55th Pl,"2825 E 55th Pl, Indianapolis, IN 46220","renovation services, Indianapolis, Indiana",http://www.renosys.com/
General Contractor, IN 46112,Top Down Renovations,,(317) 407-1368,,Brownsburg,"Brownsburg, IN 46112","renovation services, Indianapolis, Indiana",http://www.topdownrenovations.com/
General Contractor, IN 46112,Top Down Renovations,,(317) 407-1368,,Brownsburg,"Brownsburg, IN 46112","renovation services, Indianapolis, Indiana",http://www.topdownrenovations.com/
Construction Company, IN 46203,Paul's Remodeling and Construction,,(317) 473-4078,,Indianapolis,"Indianapolis, IN 46203","renovation services, Indianapolis, Indiana",http://www.paulsremodelingconstruction.com/
Construction Company, Indianapolis,Stenz Construction Corporation,46204,(317) 262-4999,IN,429 N Pennsylvania St,"429 N Pennsylvania St, Indianapolis, IN 46204","renovation services, Indianapolis, Indiana",http://www.stenzcorp.com/
Fire Damage Restoration Service, Indianapolis,Ardsley Group,46205,(317) 259-0392,IN,5149 N Keystone Ave,"5149 N Keystone Ave, Indianapolis, IN 46205","renovation services, Indianapolis, Indiana",http://www.ardsleygroup.com/
General Contractor, Greenwood,"Gettum Associates, Inc",46142,(317) 888-5681,IN,4984 W Smith Valley Rd,"4984 W Smith Valley Rd, Greenwood, IN 46142","renovation services, Indianapolis, Indiana",http://www.gettum.com/
General Contractor, Fishers,H & H Renovations,46038,(312) 288-0851,IN,13265 La Canada Blvd,"13265 La Canada Blvd, Fishers, IN 46038","renovation services, Indianapolis, Indiana",
Real Estate Agency, Indianapolis,Litz Group,46204,(317) 882-8600,IN,749 Massachusetts Ave,"749 Massachusetts Ave, Indianapolis, IN 46204","renovation services, Indianapolis, Indiana",http://www.litzgroup.com/
Construction Company, Carmel,"CRG Residential, LLC",46032,(317) 575-9400,IN,805 City Center Dr,"805 City Center Dr, Carmel, IN 46032","renovation services, Indianapolis, Indiana",http://crgresidential.com/
Construction Company, Carmel,"CRG Residential, LLC",46032,(317) 575-9400,IN,805 City Center Dr,"805 City Center Dr, Carmel, IN 46032","renovation services, Indianapolis, Indiana",http://crgresidential.com/
Construction Company, Carmel,"CRG Residential, LLC",46032,(317) 575-9400,IN,805 City Center Dr,"805 City Center Dr, Carmel, IN 46032","renovation services, Indianapolis, Indiana",http://crgresidential.com/
Construction Company, Carmel,"CRG Residential, LLC",46032,(317) 575-9400,IN,805 City Center Dr,"805 City Center Dr, Carmel, IN 46032","renovation services, Indianapolis, Indiana",http://crgresidential.com/
Construction Company, Carmel,"CRG Residential, LLC",46032,(317) 575-9400,IN,805 City Center Dr,"805 City Center Dr, Carmel, IN 46032","renovation services, Indianapolis, Indiana",http://crgresidential.com/
Construction Company, Carmel,"CRG Residential, LLC",46032,(317) 575-9400,IN,805 City Center Dr,"805 City Center Dr, Carmel, IN 46032","renovation services, Indianapolis, Indiana",http://crgresidential.com/
Construction Company, Carmel,"CRG Residential, LLC",46032,(317) 575-9400,IN,805 City Center Dr,"805 City Center Dr, Carmel, IN 46032","renovation services, Indianapolis, Indiana",http://crgresidential.com/
Construction Company, Carmel,"CRG Residential, LLC",46032,(317) 575-9400,IN,805 City Center Dr,"805 City Center Dr, Carmel, IN 46032","renovation services, Indianapolis, Indiana",http://crgresidential.com/
Construction Company, Carmel,"CRG Residential, LLC",46032,(317) 575-9400,IN,805 City Center Dr,"805 City Center Dr, Carmel, IN 46032","renovation services, Indianapolis, Indiana",http://crgresidential.com/
Construction Company, Carmel,"CRG Residential, LLC",46032,(317) 575-9400,IN,805 City Center Dr,"805 City Center Dr, Carmel, IN 46032","renovation services, Indianapolis, Indiana",http://crgresidential.com/
Construction Company, Carmel,"CRG Residential, LLC",46032,(317) 575-9400,IN,805 City Center Dr,"805 City Center Dr, Carmel, IN 46032","renovation services, Indianapolis, Indiana",http://crgresidential.com/
Construction Company, Carmel,"CRG Residential, LLC",46032,(317) 575-9400,IN,805 City Center Dr,"805 City Center Dr, Carmel, IN 46032","renovation services, Indianapolis, Indiana",http://crgresidential.com/
Construction Company, Carmel,"CRG Residential, LLC",46032,(317) 575-9400,IN,805 City Center Dr,"805 City Center Dr, Carmel, IN 46032","renovation services, Indianapolis, Indiana",http://crgresidential.com/
General Contractor, Memphis,M & M Renovations,38116,(901) 345-5000,TN,840 Dolan Rd,"840 Dolan Rd, Memphis, TN 38116","renovation services, Memphis, Tennessee",
General Contractor, TN 38117,SCC Residential Design & Construction,,(901) 338-4390,,Memphis,"Memphis, TN 38117","renovation services, Memphis, Tennessee",http://www.sccdesignbuild.com/
Painter, Memphis,All Wall Concepts,38125,(901) 237-3672,TN,7493 Bronze Dr,"7493 Bronze Dr, Memphis, TN 38125","renovation services, Memphis, Tennessee",http://www.allwallconcepts.com/
Kitchen Remodeler, Memphis,"Memphis Home Renovations, LLC",38111,(901) 485-2046,TN,2889 Poplar Ave,"2889 Poplar Ave, Memphis, TN 38111","renovation services, Memphis, Tennessee",http://memphishomerenovations.com/
Construction Company, Memphis,Midtown Renovations,38104,(901) 605-2603,TN,2270 York Ave,"2270 York Ave, Memphis, TN 38104","renovation services, Memphis, Tennessee",
General Contractor, Memphis,Sky Renovations & Development Group,38106,(901) 800-2217,TN,1178 Norris Rd,"1178 Norris Rd, Memphis, TN 38106","renovation services, Memphis, Tennessee",
General Contractor, Memphis,Capital Construction,38104,(901) 870-3506,TN,89 N Cooper St,"89 N Cooper St, Memphis, TN 38104","renovation services, Memphis, Tennessee",http://capitalconstructionmemphis.com/
Construction Company, Memphis,Luxury Additions And Renovations,38018,(901) 483-7026,TN,Cordova,"Cordova, Memphis, TN 38018","renovation services, Memphis, Tennessee",http://www.luxuryadditionsandrenovations.com/home.html
Water Damage Restoration Service, Memphis,Memphis RCI Restoration Services: Water•Fire•Wind Damage Cleanup Company,38118,(901) 854-4447,TN,3665 S Perkins Rd #8,"3665 S Perkins Rd #8, Memphis, TN 38118","renovation services, Memphis, Tennessee",http://rcirestorationservices.com/
General Contractor, Memphis,"Garner Specialties, LLC",38018,(901) 598-7800,TN,803 Willow Tree Cir,"803 Willow Tree Cir, Memphis, TN 38018","renovation services, Memphis, Tennessee",http://www.garnerspecialties.com/
General Contractor, Memphis,Nu-Prime of Memphis,38114,(901) 323-2248,TN,1420 Airways Blvd,"1420 Airways Blvd, Memphis, TN 38114","renovation services, Memphis, Tennessee",http://www.nuprime.com/
General Contractor, TN 38125,Bennett Construction,,(901) 313-4935,,Memphis,"Memphis, TN 38125","renovation services, Memphis, Tennessee",http://www.memphisremodelingcontractor.org/
Window Installation Service, Memphis,"Crone Construction, Inc",38111,(901) 335-2242,TN,3294 Poplar Ave,"3294 Poplar Ave, Memphis, TN 38111","renovation services, Memphis, Tennessee",http://www.replacementwindows-memphis.com/
General Contractor, Memphis,Metro Builders,38115,(901) 457-0090,TN,2504 Mt Moriah Rd,"2504 Mt Moriah Rd, Memphis, TN 38115","renovation services, Memphis, Tennessee",http://www.memphisremodelingservice.org/
Bathroom Remodeler, Memphis,Re-Bath MidSouth,38122,(901) 682-5463,TN,5140 Old Summer Rd,"5140 Old Summer Rd, Memphis, TN 38122","renovation services, Memphis, Tennessee",http://bathroomremodelingmemphis.com/
Historical Landmark, Memphis,Crosstown Concourse,38104,(901) 507-8034,TN,495 N Watkins St,"495 N Watkins St, Memphis, TN 38104","renovation services, Memphis, Tennessee","http://www.crosstownconcourse.com/,http://en.wikipedia.org/wiki/Crosstown_Concourse"
Builder, Memphis,Underwood Building Services Llc,38111,(901) 327-3768,TN,3800 Kearney Ave,"3800 Kearney Ave, Memphis, TN 38111","renovation services, Memphis, Tennessee",
General Contractor, Memphis,Metro Construction,38134,(901) 386-0094,TN,1936 Vanderhorn Dr,"1936 Vanderhorn Dr, Memphis, TN 38134","renovation services, Memphis, Tennessee",http://www.metro-gc.com/
Plumber, TN 38139,A & K Plumbing Company,,(901) 309-2565,,Germantown,"Germantown, TN 38139","renovation services, Memphis, Tennessee",http://myplumberinmemphis.com/
Professional Services, Memphis,Tim Disalvo & Co,38112,(901) 753-8304,TN,2640 Faxon Ave,"2640 Faxon Ave, Memphis, TN 38112","renovation services, Memphis, Tennessee",http://timdisalvo.com/
Non-Profit Organization, Memphis,Better Business Bureau of the Mid-South,38125,(901) 759-1300,TN,3693 Tyndale Dr,"3693 Tyndale Dr, Memphis, TN 38125","renovation services, Memphis, Tennessee",http://www.bbb.org/Memphis
Kitchen Remodeler, Memphis,Inside And Out Kitchen & Bath Remodeler | Home Remodeling Memphis,38112,(901) 290-9659,TN,1692 Beard Pl,"1692 Beard Pl, Memphis, TN 38112","renovation services, Memphis, Tennessee",http://in-n-outremodelingtn.com/
Painter, Memphis,Penmark Painting,38104,(901) 487-8804,TN,S Claybrook St,"S Claybrook St, Memphis, TN 38104","renovation services, Memphis, Tennessee",http://www.penmarkpainting.com/
Apartment Building, Memphis,The Chisca on Main,38103,(901) 578-3040,TN,272 S Main St,"272 S Main St, Memphis, TN 38103","renovation services, Memphis, Tennessee",http://www.thechisca.com/
Chimney Sweep, TN 38127,Coopertown Services,,(901) 358-7777,,Memphis,"Memphis, TN 38127","renovation services, Memphis, Tennessee",http://www.coopertownservices.com/
Architect, Memphis,Self+Tucker Architects,38103,(901) 261-1505,TN,505 Tennessee St # 101,"505 Tennessee St # 101, Memphis, TN 38103","renovation services, Memphis, Tennessee",http://www.selftucker.com/
Handyman, Memphis,Neading Remodeling | Handyman and Bathroom Remodeling Nutbush Memphis,38122,(901) 290-9661,TN,4559 Tutwiler Ave,"4559 Tutwiler Ave, Memphis, TN 38122","renovation services, Memphis, Tennessee",
Roofing Contractor, TN 38017,My Town Maintenance Roofing & Renovation,,(901) 834-7663,,Collierville,"Collierville, TN 38017","renovation services, Memphis, Tennessee",http://www.mytownroofing.com/
Construction Company, Memphis,"Zellner Construction Services, LLC",38115,(901) 794-1100,TN,2926 Ridgeway Rd,"2926 Ridgeway Rd, Memphis, TN 38115","renovation services, Memphis, Tennessee",http://www.zellnerconstruction.com/
Environmental Consultant, Memphis,"Tioga Environmental Consultants, Inc",38103,(901) 791-2432,TN,357 N Main St,"357 N Main St, Memphis, TN 38103","renovation services, Memphis, Tennessee",http://www.tiogaenv.com/
Roofing Contractor, TN 38134,Tenneessee Roofing Pros,,(901) 300-2210,,Memphis,"Memphis, TN 38134","renovation services, Memphis, Tennessee",http://associatedroofing-tn.com/services/memphis/
Construction Company, Memphis,Levine & Poor Inc,38117,(901) 683-6885,TN,4967 William Arnold Rd,"4967 William Arnold Rd, Memphis, TN 38117","renovation services, Memphis, Tennessee",http://www.levineandpoor.com/
Bathroom Remodeler, Memphis,ServiceMaster by Capital Construction,38104,(901) 509-9885,TN,89 N Cooper St,"89 N Cooper St, Memphis, TN 38104","renovation services, Memphis, Tennessee",http://www.servicemasterbycapital.com/
General Contractor, Memphis,Contractors Inc,38133,(901) 377-6055,TN,1989 Fletcher Creek Dr,"1989 Fletcher Creek Dr, Memphis, TN 38133","renovation services, Memphis, Tennessee",http://www.contractorsinc.com/
Architect, Memphis,Archimania,38103,(901) 527-3560,TN,356 S Main St,"356 S Main St, Memphis, TN 38103","renovation services, Memphis, Tennessee",http://www.archimania.com/
General Contractor, Memphis,Montgomery Martin Contractors,38125,(901) 374-9400,TN,8245 Tournament Dr # 300,"8245 Tournament Dr # 300, Memphis, TN 38125","renovation services, Memphis, Tennessee",http://www.montgomerymartin.com/
Gutter Cleaning Service, Memphis,A To Z Construction Services LLC,38112,(901) 452-2667,TN,581 Vandalia St,"581 Vandalia St, Memphis, TN 38112","renovation services, Memphis, Tennessee",http://www.atozconstructionservices.com/
Home Builder, Germantown,Salvaggio Group LLC,38138,(901) 737-3192,TN,7734 Poplar Pike,"7734 Poplar Pike, Germantown, TN 38138","renovation services, Memphis, Tennessee",http://www.salhomes.com/
General Contractor, Memphis,"Hutzel Construction Company, Inc.",38134,(901) 380-1149,TN,6349 US-70 #101,"6349 US-70 #101, Memphis, TN 38134","renovation services, Memphis, Tennessee",http://www.hccimemphis.com/
Swimming Pool Contractor, TN 38118,Ogden Glen,,(901) 794-4764,,Memphis,"Memphis, TN 38118","renovation services, Memphis, Tennessee",http://ogdenpools.com/
Coin Operated Laundry Equipment Supplier, Memphis,Larry & Mikes Laundry Service,38115,(901) 546-8151,TN,6376 Winchester Rd #2,"6376 Winchester Rd #2, Memphis, TN 38115","renovation services, Memphis, Tennessee",http://lmlaundryservices.com/
Kitchen Remodeler, Bartlett,Mini-Max Kitchen & Bath Gallery,38133,(901) 386-6868,TN,2945 Brother Blvd,"2945 Brother Blvd, Bartlett, TN 38133","renovation services, Memphis, Tennessee",http://www.minimaxdesign.com/
Real Estate Agency, Memphis,MemphisInvest.com,38018,(877) 773-9998,TN,130 Timber Creek Dr,"130 Timber Creek Dr, Memphis, TN 38018","renovation services, Memphis, Tennessee",http://www.memphisinvest.com/
Swimming Pool Contractor, MS 38105,Burton Custom Pools & Renovations,,(901) 457-9545,,Olive Branch,"Olive Branch, MS 38105","renovation services, Memphis, Tennessee",http://burtoncustompools.com/
Construction Company, Memphis,Bartlett Home Improvement,38134,(901) 826-6402,TN,2943 Sycamore View Rd,"2943 Sycamore View Rd, Memphis, TN 38134","renovation services, Memphis, Tennessee",http://www.bartletthomeimprovement.com/
Home Builder, Memphis,Keith Allen Homes,38119,(901) 754-4044,TN,5575 Poplar Ave,"5575 Poplar Ave, Memphis, TN 38119","renovation services, Memphis, Tennessee",http://keithallenhomes.com/
Architect, Memphis,Architecture Inc,38103,(901) 526-5080,TN,88 Union Ave,"88 Union Ave, Memphis, TN 38103","renovation services, Memphis, Tennessee",http://www.archincmemphis.com/
Kitchen Remodeler, Memphis,Memphis Kitchen & Bath,38104,,TN,16 S Cleveland St,"16 S Cleveland St, Memphis, TN 38104","renovation services, Memphis, Tennessee",
, Memphis,Tri State Renovation Inc,38118,(901) 541-3830,TN,3780 Homewood Rd,"3780 Homewood Rd, Memphis, TN 38118","renovation services, Memphis, Tennessee",
Swimming Pool Supply Store, Memphis,Memphis Pool,38118,(901) 365-2480,TN,2762 Getwell Rd,"2762 Getwell Rd, Memphis, TN 38118","renovation services, Memphis, Tennessee",http://www.memphispool.com/
Real Estate Agency, Memphis,Lucky A Properties,38133,(901) 388-7676,TN,3950 Brunswick Rd,"3950 Brunswick Rd, Memphis, TN 38133","renovation services, Memphis, Tennessee",http://www.luckyaproperties.com/
Home Builder, Germantown,"David Clark Construction, LLC",38138,(901) 754-2117,TN,3169 Professional Plaza Dr #1,"3169 Professional Plaza Dr #1, Germantown, TN 38138","renovation services, Memphis, Tennessee",http://www.davidclarkconstruction.com/
Non-Profit Organization, Memphis,Fogelman Downtown YMCA,38103,(901) 527-9622,TN,245 Madison Ave,"245 Madison Ave, Memphis, TN 38103","renovation services, Memphis, Tennessee",http://www.ymcamemphis.org/
General Contractor, Atoka,Cutting Edge Renovations,38004,(901) 268-8438,TN,79 Quail Hollow Dr,"79 Quail Hollow Dr, Atoka, TN 38004","renovation services, Memphis, Tennessee",
Bathroom Remodeler, Memphis,Bath Fitter of Memphis,38133,(901) 386-5495,TN,6949 Appling Farms Pkwy #103,"6949 Appling Farms Pkwy #103, Memphis, TN 38133","renovation services, Memphis, Tennessee",http://memphis.bathfittersouth.com/
Roofing Contractor, Collierville,Restoration System Roofing Services,38017,(901) 854-3402,TN,153 N Main St #104,"153 N Main St #104, Collierville, TN 38017","renovation services, Memphis, Tennessee",http://restorationroofing.com/
Swimming Pool Repair Service, Collierville,Elite Pool Service Inc,38017,(901) 853-1313,TN,790 Arlie Cove,"790 Arlie Cove, Collierville, TN 38017","renovation services, Memphis, Tennessee",http://www.elitepoolonline.com/
Swimming Pool Repair Service, Rossville,Goin Swimmin Pool Service & Supply,38066,(901) 861-6257,TN,1990 TN-194,"1990 TN-194, Rossville, TN 38066","renovation services, Memphis, Tennessee",http://www.goinswimmin.com/
General Contractor, Memphis,Treadwell Swift General Contractors,38117,(901) 683-4440,TN,5130 Wheelis Dr,"5130 Wheelis Dr, Memphis, TN 38117","renovation services, Memphis, Tennessee",http://swifttreadwell.com/
Handyman, MS 38671,American Brothers Renovations,,(901) 239-2137,,Southaven,"Southaven, MS 38671","renovation services, Memphis, Tennessee",
Coin Operated Laundry Equipment Supplier, Memphis,Larry & Mikes Laundry Service,38115,(901) 546-8151,TN,6376 Winchester Rd #2,"6376 Winchester Rd #2, Memphis, TN 38115","renovation services, Memphis, Tennessee",http://lmlaundryservices.com/
,,,,,,,,,
,,,,,,,,,
,,,,,,,,,
,,,,,,,,,
,,,,,,,,,
,,,,,,,,,
,,,,,,,,,
,,,,,,,,,
,,,,,,,,,
,,,,,,,,,
Home Builder, Germantown,"David Clark Construction, LLC",38138,(901) 754-2117,TN,3169 Professional Plaza Dr #1,"3169 Professional Plaza Dr #1, Germantown, TN 38138","renovation services, Memphis, Tennessee",http://www.davidclarkconstruction.com/
Non-Profit Organization, Memphis,Fogelman Downtown YMCA,38103,(901) 527-9622,TN,245 Madison Ave,"245 Madison Ave, Memphis, TN 38103","renovation services, Memphis, Tennessee",http://www.ymcamemphis.org/
General Contractor, Atoka,Cutting Edge Renovations,38004,(901) 268-8438,TN,79 Quail Hollow Dr,"79 Quail Hollow Dr, Atoka, TN 38004","renovation services, Memphis, Tennessee",
Bathroom Remodeler, Memphis,Bath Fitter of Memphis,38133,(901) 386-5495,TN,6949 Appling Farms Pkwy #103,"6949 Appling Farms Pkwy #103, Memphis, TN 38133","renovation services, Memphis, Tennessee",http://memphis.bathfittersouth.com/
Roofing Contractor, Collierville,Restoration System Roofing Services,38017,(901) 854-3402,TN,153 N Main St #104,"153 N Main St #104, Collierville, TN 38017","renovation services, Memphis, Tennessee",http://restorationroofing.com/
Swimming Pool Repair Service, Collierville,Elite Pool Service Inc,38017,(901) 853-1313,TN,790 Arlie Cove,"790 Arlie Cove, Collierville, TN 38017","renovation services, Memphis, Tennessee",http://www.elitepoolonline.com/
Swimming Pool Repair Service, Rossville,Goin Swimmin Pool Service & Supply,38066,(901) 861-6257,TN,1990 TN-194,"1990 TN-194, Rossville, TN 38066","renovation services, Memphis, Tennessee",http://www.goinswimmin.com/
General Contractor, Memphis,Treadwell Swift General Contractors,38117,(901) 683-4440,TN,5130 Wheelis Dr,"5130 Wheelis Dr, Memphis, TN 38117","renovation services, Memphis, Tennessee",http://swifttreadwell.com/
Handyman, MS 38671,American Brothers Renovations,,(901) 239-2137,,Southaven,"Southaven, MS 38671","renovation services, Memphis, Tennessee",
Coin Operated Laundry Equipment Supplier, Memphis,Larry & Mikes Laundry Service,38115,(901) 546-8151,TN,6376 Winchester Rd #2,"6376 Winchester Rd #2, Memphis, TN 38115","renovation services, Memphis, Tennessee",http://lmlaundryservices.com/
Kitchen Remodeler, Bartlett,Mini-Max Kitchen & Bath Gallery,38133,(901) 386-6868,TN,2945 Brother Blvd,"2945 Brother Blvd, Bartlett, TN 38133","renovation services, Memphis, Tennessee",http://www.minimaxdesign.com/
Real Estate Agency, Memphis,MemphisInvest.com,38018,(877) 773-9998,TN,130 Timber Creek Dr,"130 Timber Creek Dr, Memphis, TN 38018","renovation services, Memphis, Tennessee",http://www.memphisinvest.com/
Swimming Pool Contractor, MS 38105,Burton Custom Pools & Renovations,,(901) 457-9545,,Olive Branch,"Olive Branch, MS 38105","renovation services, Memphis, Tennessee",http://burtoncustompools.com/
Construction Company, Memphis,Bartlett Home Improvement,38134,(901) 826-6402,TN,2943 Sycamore View Rd,"2943 Sycamore View Rd, Memphis, TN 38134","renovation services, Memphis, Tennessee",http://www.bartletthomeimprovement.com/
Home Builder, Memphis,Keith Allen Homes,38119,(901) 754-4044,TN,5575 Poplar Ave,"5575 Poplar Ave, Memphis, TN 38119","renovation services, Memphis, Tennessee",http://keithallenhomes.com/
Architect, Memphis,Architecture Inc,38103,(901) 526-5080,TN,88 Union Ave,"88 Union Ave, Memphis, TN 38103","renovation services, Memphis, Tennessee",http://www.archincmemphis.com/
Kitchen Remodeler, Memphis,Memphis Kitchen & Bath,38104,,TN,16 S Cleveland St,"16 S Cleveland St, Memphis, TN 38104","renovation services, Memphis, Tennessee",
, Memphis,Tri State Renovation Inc,38118,(901) 541-3830,TN,3780 Homewood Rd,"3780 Homewood Rd, Memphis, TN 38118","renovation services, Memphis, Tennessee",
Swimming Pool Supply Store, Memphis,Memphis Pool,38118,(901) 365-2480,TN,2762 Getwell Rd,"2762 Getwell Rd, Memphis, TN 38118","renovation services, Memphis, Tennessee",http://www.memphispool.com/
Real Estate Agency, Memphis,Lucky A Properties,38133,(901) 388-7676,TN,3950 Brunswick Rd,"3950 Brunswick Rd, Memphis, TN 38133","renovation services, Memphis, Tennessee",http://www.luckyaproperties.com/
Home Builder, Germantown,"David Clark Construction, LLC",38138,(901) 754-2117,TN,3169 Professional Plaza Dr #1,"3169 Professional Plaza Dr #1, Germantown, TN 38138","renovation services, Memphis, Tennessee",http://www.davidclarkconstruction.com/
Non-Profit Organization, Memphis,Fogelman Downtown YMCA,38103,(901) 527-9622,TN,245 Madison Ave,"245 Madison Ave, Memphis, TN 38103","renovation services, Memphis, Tennessee",http://www.ymcamemphis.org/
General Contractor, Atoka,Cutting Edge Renovations,38004,(901) 268-8438,TN,79 Quail Hollow Dr,"79 Quail Hollow Dr, Atoka, TN 38004","renovation services, Memphis, Tennessee",
Bathroom Remodeler, Memphis,Bath Fitter of Memphis,38133,(901) 386-5495,TN,6949 Appling Farms Pkwy #103,"6949 Appling Farms Pkwy #103, Memphis, TN 38133","renovation services, Memphis, Tennessee",http://memphis.bathfittersouth.com/
Roofing Contractor, Collierville,Restoration System Roofing Services,38017,(901) 854-3402,TN,153 N Main St #104,"153 N Main St #104, Collierville, TN 38017","renovation services, Memphis, Tennessee",http://restorationroofing.com/
Swimming Pool Repair Service, Collierville,Elite Pool Service Inc,38017,(901) 853-1313,TN,790 Arlie Cove,"790 Arlie Cove, Collierville, TN 38017","renovation services, Memphis, Tennessee",http://www.elitepoolonline.com/
Swimming Pool Repair Service, Rossville,Goin Swimmin Pool Service & Supply,38066,(901) 861-6257,TN,1990 TN-194,"1990 TN-194, Rossville, TN 38066","renovation services, Memphis, Tennessee",http://www.goinswimmin.com/
General Contractor, Memphis,Treadwell Swift General Contractors,38117,(901) 683-4440,TN,5130 Wheelis Dr,"5130 Wheelis Dr, Memphis, TN 38117","renovation services, Memphis, Tennessee",http://swifttreadwell.com/
Handyman, MS 38671,American Brothers Renovations,,(901) 239-2137,,Southaven,"Southaven, MS 38671","renovation services, Memphis, Tennessee",
Coin Operated Laundry Equipment Supplier, Memphis,Larry & Mikes Laundry Service,38115,(901) 546-8151,TN,6376 Winchester Rd #2,"6376 Winchester Rd #2, Memphis, TN 38115","renovation services, Memphis, Tennessee",http://lmlaundryservices.com/
Kitchen Remodeler, Bartlett,Mini-Max Kitchen & Bath Gallery,38133,(901) 386-6868,TN,2945 Brother Blvd,"2945 Brother Blvd, Bartlett, TN 38133","renovation services, Memphis, Tennessee",http://www.minimaxdesign.com/
Real Estate Agency, Memphis,MemphisInvest.com,38018,(877) 773-9998,TN,130 Timber Creek Dr,"130 Timber Creek Dr, Memphis, TN 38018","renovation services, Memphis, Tennessee",http://www.memphisinvest.com/
Swimming Pool Contractor, MS 38105,Burton Custom Pools & Renovations,,(901) 457-9545,,Olive Branch,"Olive Branch, MS 38105","renovation services, Memphis, Tennessee",http://burtoncustompools.com/
Construction Company, Memphis,Bartlett Home Improvement,38134,(901) 826-6402,TN,2943 Sycamore View Rd,"2943 Sycamore View Rd, Memphis, TN 38134","renovation services, Memphis, Tennessee",http://www.bartletthomeimprovement.com/
Home Builder, Memphis,Keith Allen Homes,38119,(901) 754-4044,TN,5575 Poplar Ave,"5575 Poplar Ave, Memphis, TN 38119","renovation services, Memphis, Tennessee",http://keithallenhomes.com/
Architect, Memphis,Architecture Inc,38103,(901) 526-5080,TN,88 Union Ave,"88 Union Ave, Memphis, TN 38103","renovation services, Memphis, Tennessee",http://www.archincmemphis.com/
Kitchen Remodeler, Memphis,Memphis Kitchen & Bath,38104,,TN,16 S Cleveland St,"16 S Cleveland St, Memphis, TN 38104","renovation services, Memphis, Tennessee",
, Memphis,Tri State Renovation Inc,38118,(901) 541-3830,TN,3780 Homewood Rd,"3780 Homewood Rd, Memphis, TN 38118","renovation services, Memphis, Tennessee",
Swimming Pool Supply Store, Memphis,Memphis Pool,38118,(901) 365-2480,TN,2762 Getwell Rd,"2762 Getwell Rd, Memphis, TN 38118","renovation services, Memphis, Tennessee",http://www.memphispool.com/
Real Estate Agency, Memphis,Lucky A Properties,38133,(901) 388-7676,TN,3950 Brunswick Rd,"3950 Brunswick Rd, Memphis, TN 38133","renovation services, Memphis, Tennessee",http://www.luckyaproperties.com/
Home Builder, Germantown,"David Clark Construction, LLC",38138,(901) 754-2117,TN,3169 Professional Plaza Dr #1,"3169 Professional Plaza Dr #1, Germantown, TN 38138","renovation services, Memphis, Tennessee",http://www.davidclarkconstruction.com/
Home Builder, Germantown,"David Clark Construction, LLC",38138,(901) 754-2117,TN,3169 Professional Plaza Dr #1,"3169 Professional Plaza Dr #1, Germantown, TN 38138","renovation services, Memphis, Tennessee",http://www.davidclarkconstruction.com/
Home Builder, Germantown,"David Clark Construction, LLC",38138,(901) 754-2117,TN,3169 Professional Plaza Dr #1,"3169 Professional Plaza Dr #1, Germantown, TN 38138","renovation services, Memphis, Tennessee",http://www.davidclarkconstruction.com/
Home Builder, Germantown,"David Clark Construction, LLC",38138,(901) 754-2117,TN,3169 Professional Plaza Dr #1,"3169 Professional Plaza Dr #1, Germantown, TN 38138","renovation services, Memphis, Tennessee",http://www.davidclarkconstruction.com/
Home Builder, Germantown,"David Clark Construction, LLC",38138,(901) 754-2117,TN,3169 Professional Plaza Dr #1,"3169 Professional Plaza Dr #1, Germantown, TN 38138","renovation services, Memphis, Tennessee",http://www.davidclarkconstruction.com/
Home Builder, Germantown,"David Clark Construction, LLC",38138,(901) 754-2117,TN,3169 Professional Plaza Dr #1,"3169 Professional Plaza Dr #1, Germantown, TN 38138","renovation services, Memphis, Tennessee",http://www.davidclarkconstruction.com/
Home Builder, Germantown,"David Clark Construction, LLC",38138,(901) 754-2117,TN,3169 Professional Plaza Dr #1,"3169 Professional Plaza Dr #1, Germantown, TN 38138","renovation services, Memphis, Tennessee",http://www.davidclarkconstruction.com/
Home Builder, Germantown,"David Clark Construction, LLC",38138,(901) 754-2117,TN,3169 Professional Plaza Dr #1,"3169 Professional Plaza Dr #1, Germantown, TN 38138","renovation services, Memphis, Tennessee",http://www.davidclarkconstruction.com/
Home Builder, Germantown,"David Clark Construction, LLC",38138,(901) 754-2117,TN,3169 Professional Plaza Dr #1,"3169 Professional Plaza Dr #1, Germantown, TN 38138","renovation services, Memphis, Tennessee",http://www.davidclarkconstruction.com/
General Contractor, Louisville,S B Home Renovations LLC,40214,(502) 314-8316,KY,7616 Pavilion Park Rd,"7616 Pavilion Park Rd, Louisville, KY 40214","renovation services, Louisville, Kentucky",
General Contractor, Louisville,Marvelous Renovations Inc,40299,(502) 418-9179,KY,10817 Bluegrass Pkwy,"10817 Bluegrass Pkwy, Louisville, KY 40299","renovation services, Louisville, Kentucky",
General Contractor, Louisville,Kentuckiana Exterior Renovations,40220,(502) 439-5449,KY,3234 Orchard Manor Cir,"3234 Orchard Manor Cir, Louisville, KY 40220","renovation services, Louisville, Kentucky",http://www.kentuckianaexteriorrenovations.com/
Painter, KY 40118,White Wolf Painting And Renovations,,(502) 265-5068,,Louisville,"Louisville, KY 40118","renovation services, Louisville, Kentucky",http://painterslouisvilleky.com/
General Contractor, Louisville,Probuilt Renovation & Design,40218,(502) 491-7374,KY,3510 Kerry Dr,"3510 Kerry Dr, Louisville, KY 40218","renovation services, Louisville, Kentucky",
General Contractor, Louisville,Home Work Residential Rnvtn,40207,(502) 895-3005,KY,401 Chenoweth Ln,"401 Chenoweth Ln, Louisville, KY 40207","renovation services, Louisville, Kentucky",http://www.wisebuyingmall.com/homeworkresidentialreno
Construction Company, Louisville,Distinct Renovations,40299,(502) 727-5217,KY,6608 Calm River Way,"6608 Calm River Way, Louisville, KY 40299","renovation services, Louisville, Kentucky",
Kitchen Remodeler, KY 40213,Designer Builders,,(502) 376-8664,,Audubon Park,"Audubon Park, KY 40213","renovation services, Louisville, Kentucky",http://www.designerbuildersky.com/
Kitchen Remodeler, KY 40216,Link Renovations,,(502) 377-2551,,Louisville,"Louisville, KY 40216","renovation services, Louisville, Kentucky",http://www.linkrenovations.com/
General Contractor, Louisville,Reliable Renovations LLC,40223,(502) 245-7954,KY,10106 Timberwood Cir,"10106 Timberwood Cir, Louisville, KY 40223","renovation services, Louisville, Kentucky",
Concrete Contractor, Louisville,Access Renovation Co,40209,(502) 364-7311,KY,4850 Crittenden Dr # C,"4850 Crittenden Dr # C, Louisville, KY 40209","renovation services, Louisville, Kentucky",
General Contractor, KY 40218,Concord Construction,,(502) 333-9198,,Louisville,"Louisville, KY 40218","renovation services, Louisville, Kentucky",http://homeconstructionlouisvilleky.com/
General Contractor, Louisville,McAllister Renovation and Remodeling,40204,(502) 291-5296,KY,2217 Glenmary Ave,"2217 Glenmary Ave, Louisville, KY 40204","renovation services, Louisville, Kentucky",
Contractor, Louisville,Triple Crown Renovation,40228,(502) 403-0911,KY,7717 Hogans Run,"7717 Hogans Run, Louisville, KY 40228","renovation services, Louisville, Kentucky",
General Contractor, Louisville,MPM Renovations,40218,(502) 614-5848,KY,3715 Bardstown Rd # 403,"3715 Bardstown Rd # 403, Louisville, KY 40218","renovation services, Louisville, Kentucky",
Contractor, KY 40216,BC Remodeling and Renovations,,(502) 299-3721,,Louisville,"Louisville, KY 40216","renovation services, Louisville, Kentucky",http://www.bcremodelingandrenovations.com/
Category,City,Company,Zipcode,Phone,State,Street,Address,SearchTerm,Website
Cleaning Service, CA 90024,Suite Renovation Cleaning Services - Los Angeles,,(310) 943-1189,,Los Angeles,"Los Angeles, CA 90024","renovation services, Los Angeles, California",http://www.suiterenovation.com/westwood
Janitorial Service, Los Angeles,Suite Renovation Cleaning Services - Encino,91316,(818) 574-0955,CA,5135 Zelzah Ave,"5135 Zelzah Ave, Los Angeles, CA 91316","renovation services, Los Angeles, California",http://www.suiterenovation.com/encino
Contractor, CA 90020,TCWRC Contractors Los Angeles,,,,Los Angeles,"Los Angeles, CA 90020","renovation services, Los Angeles, California",http://www.contractorslosangeles.org/
Contractor, West Hollywood,MDM Custom Remodeling Inc.,90069,(323) 210-3350,CA,8721 Santa Monica Blvd,"8721 Santa Monica Blvd, West Hollywood, CA 90069","renovation services, Los Angeles, California",http://www.mdmcustomremodeling.com/
General Contractor, Los Angeles,Sky Renovation,91401,(888) 519-1699,CA,Van Nuys,"Van Nuys, Los Angeles, CA 91401","renovation services, Los Angeles, California",http://www.skyrenovation.com/
Stucco Contractor, Los Angeles,Sky Renovation,90036,(888) 519-1699,CA,5757 Wilshire Blvd #1222,"5757 Wilshire Blvd #1222, Los Angeles, CA 90036","renovation services, Los Angeles, California",http://www.skyrenovation.com/
Cleaning Service, Los Angeles,Suite Renovation Cleaning Services - Woodland Hills,91364,(818) 431-8067,CA,Woodland Hills,"Woodland Hills, Los Angeles, CA 91364","renovation services, Los Angeles, California",http://www.suiterenovation.com/
General Contractor, Los Angeles,Horizon Renovation Inc,90025,(310) 481-0859,CA,1852 S Sepulveda Blvd,"1852 S Sepulveda Blvd, Los Angeles, CA 90025","renovation services, Los Angeles, California",
Handyman, Los Angeles,Eye 4 Design and Renovation,90041,(323) 491-0073,CA,4853 Avoca St,"4853 Avoca St, Los Angeles, CA 90041","renovation services, Los Angeles, California",http://www.eye4la.com/
Cleaning Service, Los Angeles,Suite Renovation Cleaning Services - Canoga Park,91304,(818) 431-8179,CA,Canoga Park,"Canoga Park, Los Angeles, CA 91304","renovation services, Los Angeles, California",http://www.suiterenovation.com/canoga-park
General Contractor, Los Angeles,MDM General Contractor Room Additions,91607,(323) 210-3350,CA,12439 W Magnolia Blvd #143,"12439 W Magnolia Blvd #143, Los Angeles, CA 91607","renovation services, Los Angeles, California",http://www.mdmcustomremodeling.com/
Cleaning Service, CA 91340,Suite Renovation Cleaning Services - San Fernando,,(818) 396-1342,,San Fernando,"San Fernando, CA 91340","renovation services, Los Angeles, California",http://www.suiterenovation.com/san-fernando
Cleaning Service, CA 91505,Suite Renovation Cleaning Services - Burbank,,(626) 628-2788,,Burbank,"Burbank, CA 91505","renovation services, Los Angeles, California",http://www.suiterenovation.com/our-locations/burbank/
Cleaning Service, CA 91754,Suite Renovation Cleaning Services - Monterey Park,,(323) 232-5979,,Monterey Park,"Monterey Park, CA 91754","renovation services, Los Angeles, California",http://www.suiterenovation.com/our-locations/monterey-park/
Construction Company, Los Angeles,L.A. Remodeling Co.,90042,(800) 995-2107,CA,6000 York Blvd,"6000 York Blvd, Los Angeles, CA 90042","renovation services, Los Angeles, California",http://www.laremodelingco.com/
Construction Company, Los Angeles,Interserv,90036,(323) 857-0710,CA,5900 Wilshire Blvd # 1700,"5900 Wilshire Blvd # 1700, Los Angeles, CA 90036","renovation services, Los Angeles, California",http://www.interservlp.com/
Bathroom Remodeler, CA 90015,LA Bathroom Remodel,,(213) 986-2243,,Los Angeles,"Los Angeles, CA 90015","renovation services, Los Angeles, California",http://www.labathroomremodel.com/
Kitchen Remodeler, CA 91803,"Jaybridge Construction | Residential Remodeling,Kitchen & Bathroom Renovation,Custom Home Remodeling",,(626) 506-6918,,Alhambra,"Alhambra, CA 91803","renovation services, Los Angeles, California",http://jaybridgeconstruction.com/
General Contractor, Los Angeles,TLC Renovation Inc,91042,(818) 352-2233,CA,9947 Commerce Ave,"9947 Commerce Ave, Los Angeles, CA 91042","renovation services, Los Angeles, California",
General Contractor, Los Angeles,BH Kruper Replacement Windows,91335,(818) 343-0016,CA,7008 Reseda Blvd,"7008 Reseda Blvd, Los Angeles, CA 91335","renovation services, Los Angeles, California",http://www.renovatingla.com/
Kitchen Remodeler, Gardena,Home Pros Renovations,90249,(310) 515-3596,CA,1441 W 132nd St,"1441 W 132nd St, Gardena, CA 90249","renovation services, Los Angeles, California",
General Contractor, Los Angeles,Alpine Green Property Services,91436,(800) 406-6815,CA,16350 Ventura Blvd,"16350 Ventura Blvd, Los Angeles, CA 91436","renovation services, Los Angeles, California",http://www.alpinegreenps.com/
General Contractor, Los Angeles,ESV Prime Construction Specialists Inc.,90068,(818) 883-8753,CA,3330 Barham Blvd #103,"3330 Barham Blvd #103, Los Angeles, CA 90068","renovation services, Los Angeles, California",http://www.esvconstruction.com/
General Contractor, Los Angeles,Bathroom Remodeling,90069,(310) 491-5939,CA,8410 Sunset Blvd,"8410 Sunset Blvd, Los Angeles, CA 90069","renovation services, Los Angeles, California",
Contractor, CA 90028,HESD Contractors Hollywood,,(323) 285-5326,,Los Angeles,"Los Angeles, CA 90028","renovation services, Los Angeles, California",http://www.contractorshollywood.org/
Cabinet Store, Los Angeles,Euro Interior Collection,90046,(310) 728-6979,CA,7550 Sunset Blvd,"7550 Sunset Blvd, Los Angeles, CA 90046","renovation services, Los Angeles, California",http://www.remodelingcontractorlosangelesca.com/
Bathroom Remodeler, Los Angeles,Scott Gurican,90041,(818) 314-2137,CA,1833 Hill Dr,"1833 Hill Dr, Los Angeles, CA 90041","renovation services, Los Angeles, California",
Home Builder, Los Angeles,Best Builders-Development Inc,90010,(213) 457-9582,CA,3699 Wilshire Blvd # 850,"3699 Wilshire Blvd # 850, Los Angeles, CA 90010","renovation services, Los Angeles, California",http://bestbuildersla.com/
Kitchen Remodeler, Glendale,BMO Kitchen & Bathroom Rnvtn,91208,(818) 482-1053,CA,1636 Verdugo Vista Dr # 205,"1636 Verdugo Vista Dr # 205, Glendale, CA 91208","renovation services, Los Angeles, California",http://www.bmokitchenandbath.com/
Beauty Salon, Downey,Renovation Hair Center,90242,(562) 869-1296,CA,8015 Imperial Hwy,"8015 Imperial Hwy, Downey, CA 90242","renovation services, Los Angeles, California",
Contractor, CA 90012,UAC Contractors,,(888) 408-6293,,Los Angeles,"Los Angeles, CA 90012","renovation services, Los Angeles, California",http://www.uaccontractors.com/
Kitchen Remodeler, Los Angeles,"Capital Construction & Development, Inc.",90035,(323) 951-9897,CA,1127 S Alfred St,"1127 S Alfred St, Los Angeles, CA 90035","renovation services, Los Angeles, California",http://www.capitalbuilds.com/
American Restaurant, Los Angeles,Onyx Lounge,90013,(213) 891-1144,CA,118 W 5th St,"118 W 5th St, Los Angeles, CA 90013","renovation services, Los Angeles, California","http://onyxloungela.com/,http://onyxloungela.com/wp-content/uploads/2013/01/130106_Onyx-brunch-menu.pdf,http://onyxloungela.com/wp-content/uploads/2013/01/130106_Onyx-brunch-menu.pdf"
Construction Company, Los Angeles,Best Builders & Development,91406,(818) 728-1922,CA,Van Nuys,"Van Nuys, Los Angeles, CA 91406","renovation services, Los Angeles, California",http://bestbuildersla.com/
Home Builder, Los Angeles,Precise Home Builders,91335,(800) 805-0692,CA,Reseda,"Reseda, Los Angeles, CA 91335","renovation services, Los Angeles, California",http://www.precisehomebuilders.com/
General Contractor, CA 90025,Construction & Building Services Inc,,(310) 660-7667,,Los Angeles,"Los Angeles, CA 90025","renovation services, Los Angeles, California",http://constructionservicesla.com/
General Contractor, Redondo Beach,O&R Building,90277,(424) 237-8885,CA,1051 Avenue D,"1051 Avenue D, Redondo Beach, CA 90277","renovation services, Los Angeles, California",http://www.oandrbuilding.com/
Construction Company, Los Angeles,Stonecastle Construction,90045,(310) 348-8730,CA,8330 Lilienthal Ave,"8330 Lilienthal Ave, Los Angeles, CA 90045","renovation services, Los Angeles, California",http://www.stonecastleconstruction.com/
Kitchen Remodeler, CA 90017,DC Keeton Home Improvements,,(213) 232-4783,,Los Angeles,"Los Angeles, CA 90017","renovation services, Los Angeles, California",http://dckeeton.com/
Moving and Storage Service, CA 90039,Bathroom Remodeling Contractor,,(818) 940-1717,,Los Angeles,"Los Angeles, CA 90039","renovation services, Los Angeles, California",http://bathroomremodelingcontractorla.com/
General Contractor, Los Angeles,AGA Construction Inc.,91356,(818) 996-7575,CA,18375 Ventura Blvd #548,"18375 Ventura Blvd #548, Los Angeles, CA 91356","renovation services, Los Angeles, California",http://www.losangelesrenovations.com/
Real Estate Developer, Los Angeles,LAURUS CORPORATION,90067,(310) 277-8600,CA,1880 Century Park E #1016,"1880 Century Park E #1016, Los Angeles, CA 90067","renovation services, Los Angeles, California",http://www.lauruscorporation.com/
General Contractor, CA 90404,"Reliance Design, Build, Remodel",,(310) 498-3983,,Los Angeles,"Los Angeles, CA 90404","renovation services, Los Angeles, California",http://www.reliancedbr.com/
Electrician, Los Angeles,OCA Los Angeles Electrical,90041,(323) 259-0299,CA,4689 N Eagle Rock Blvd,"4689 N Eagle Rock Blvd, Los Angeles, CA 90041","renovation services, Los Angeles, California",http://ocaelectrical.com/
Construction Company, Beverly Hills,Luxus Construction,90210,(310) 270-8596,CA,9663 Santa Monica Blvd,"9663 Santa Monica Blvd, Beverly Hills, CA 90210","renovation services, Los Angeles, California",http://luxusconstruction.com/
General Contractor, Los Angeles,Advanced Builders & Contractors,91356,(888) 930-1030,CA,19528 Ventura Blvd #120,"19528 Ventura Blvd #120, Los Angeles, CA 91356","renovation services, Los Angeles, California",http://www.abclosangeles.com/
Kitchen Remodeler, Los Angeles,Topaz Construction And Development,91401,(844) 585-7949,CA,14428 Hamlin St,"14428 Hamlin St, Los Angeles, CA 91401","renovation services, Los Angeles, California",http://www.topazremodeling.com/
Home Builder, Pasadena,ConSpec Building Systems,91106,(626) 796-8413,CA,677 S Lake Ave,"677 S Lake Ave, Pasadena, CA 91106","renovation services, Los Angeles, California",http://www.conspec.com/
Construction Company, Los Angeles,Ideal Construction Services Inc.,90019,(888) 702-4950,CA,4521 Abbey Pl,"4521 Abbey Pl, Los Angeles, CA 90019","renovation services, Los Angeles, California",
Electrician, CA 90034,The Electric Connection,,(213) 401-2334,,Los Angeles,"Los Angeles, CA 90034","renovation services, Los Angeles, California",http://www.theelectricconnection.com/
General Contractor, Los Angeles,GoodFellas Construction,91436,(888) 810-6143,CA,Encino,"Encino, Los Angeles, CA 91436","renovation services, Los Angeles, California",http://losangeleshomeremodelingservice.com/
Construction Company, CA 90064,KRB Construction,,(310) 766-5555,,Los Angeles,"Los Angeles, CA 90064","renovation services, Los Angeles, California",http://krbconstruction.net/
General Contractor, Los Angeles,"Michael Hoff, General Contractor",90272,(310) 853-8974,CA,Pacific Palisades,"Pacific Palisades, Los Angeles, CA 90272","renovation services, Los Angeles, California",http://pacificpalisadescontractor.com/
Sheriff's Department, Los Angeles,Hall of Justice,90012,(213) 229-1700,CA,211 W Temple St,"211 W Temple St, Los Angeles, CA 90012","renovation services, Los Angeles, California",http://sheriff.lacounty.gov/
General Contractor, CA 90049,Joel & Co. Construction - General Contractors,,(310) 728-6181,,Los Angeles,"Los Angeles, CA 90049","renovation services, Los Angeles, California",http://www.losangelesgeneralcontractor.com/
Basketball Court, Los Angeles,Pauley Pavilion,90024,(310) 825-4546,CA,301 Westwood Plaza,"301 Westwood Plaza, Los Angeles, CA 90024","renovation services, Los Angeles, California","http://www.uclabruins.com/ViewArticle.dbml?DB_OEM_ID=30500&ATCLID=208271486,http://en.wikipedia.org/wiki/Pauley_Pavilion,http://www.ticketmaster.com/browse/volleyball-catid-204/sports-rid-10004,http://www.ticketmaster.com/Pauley-Pavilion-tickets-Los-Angeles/venue/90292"
Custom Home Builder, Los Angeles,My Space Remodeling,91331,(888) 897-4696,CA,12990 Branford St,"12990 Branford St, Los Angeles, CA 91331","renovation services, Los Angeles, California",http://myspaceremodeling.com/
Construction Company, Los Angeles,Capitol Remodeling Inc.,91356,(818) 609-0987,CA,Tarzana,"Tarzana, Los Angeles, CA 91356","renovation services, Los Angeles, California",http://capitolremodeling.com/
Veterans Organization, Los Angeles,Bob Hope Patriotic Hall,90015,(213) 765-9680,CA,1816 S Figueroa St,"1816 S Figueroa St, Los Angeles, CA 90015","renovation services, Los Angeles, California","http://mva.lacounty.gov/wps/portal/mva/patriotic_hall?1dmy&page=dept.lac.mva.home.bhph.detail.hidden&urile=wcm%3Apath%3A/mva+content/home/patriotic+hall/visit+the+hall,http://en.wikipedia.org/wiki/Bob_Hope_Patriotic_Hall"
, Los Angeles,Beverly Hills Marriott,90035,(310) 553-6561,CA,1150 S Beverly Dr,"1150 S Beverly Dr, Los Angeles, CA 90035","renovation services, Los Angeles, California",http://www.marriott.com/hotels/travel/laxbv-beverly-hills-marriott/
Student Housing Center, Los Angeles,Hitch Suites,90024,(310) 825-2965,CA,245 De Neve Dr,"245 De Neve Dr, Los Angeles, CA 90024","renovation services, Los Angeles, California",
Interior Designer, Los Angeles,D.Mar - Interior Design - Interior Design in Los Angeles CA,90046,(323) 436-0036,CA,7471 Melrose Ave #14,"7471 Melrose Ave #14, Los Angeles, CA 90046","renovation services, Los Angeles, California",http://dmarinteriors.com/
General Contractor, CA 90066,Stout Design Build,,(310) 904-6011,,Los Angeles,"Los Angeles, CA 90066","renovation services, Los Angeles, California",http://www.losangeleslandscapingservices.com/
General Contractor, Los Angeles,CA Green Remodeling Inc.,91307,(800) 636-2033,CA,6700 Fallbrook Ave #192a,"6700 Fallbrook Ave #192a, Los Angeles, CA 91307","renovation services, Los Angeles, California",http://www.cagreenremodeling.com/
General Contractor, CA 91770,"If You Dream It, We Build It Construction Inc",,(562) 270-1577,,Rosemead,"Rosemead, CA 91770","renovation services, Los Angeles, California",http://losangelescahomeconstruction.com/
Garage Builder, Los Angeles,Garage Envy,91352,(818) 767-9870,CA,9455 Chivers Ave,"9455 Chivers Ave, Los Angeles, CA 91352","renovation services, Los Angeles, California",http://www.garageenvy.com/
Contractor, CA 90712,TCWRC Contractros Lakewood,,(562) 448-1159,,Lakewood,"Lakewood, CA 90712","renovation services, Los Angeles, California",http://www.contractorslakewood.org/
Kitchen Remodeler, Los Angeles,Pacific Blue Construction - Kitchen / Bathroom Remodeling,90035,(818) 703-7444,CA,1470 Rexford Dr,"1470 Rexford Dr, Los Angeles, CA 90035","renovation services, Los Angeles, California",http://www.pacificblueconstruction.com/
Swimming Pool Contractor, Santa Clarita,Specialized Pools,91321,(747) 233-5758,CA,Newhall,"Newhall, Santa Clarita, CA 91321","renovation services, Los Angeles, California",http://poolcompanylosangelesca.com/
Bathroom Remodeler, Los Angeles,One Week Bath,91411,(800) 663-9335,CA,15145 Califa St,"15145 Califa St, Los Angeles, CA 91411","renovation services, Los Angeles, California",http://www.oneweekbath.com/
Painter, CA 90703,Painting Renovations,,(562) 449-9239,,Cerritos,"Cerritos, CA 90703","renovation services, Los Angeles, California",http://paintingrenovations.com/commercial-painting-services.php
Architect, Los Angeles,Pfeiffer Partners,90017,(213) 624-2775,CA,811 W 7th St #700,"811 W 7th St #700, Los Angeles, CA 90017","renovation services, Los Angeles, California",http://www.pfeifferpartners.com/
General Contractor, Los Angeles,Tims New Construction Los Angeles,90017,(323) 327-9912,CA,657 S Figueroa St,"657 S Figueroa St, Los Angeles, CA 90017","renovation services, Los Angeles, California",http://timsnewconstruction.com/Contractor/Los_Angeles/Los_Angeles.php
Painter, Los Angeles,Aaron's Painting Company,90034,(310) 391-2036,CA,10931 Rose Ave #4,"10931 Rose Ave #4, Los Angeles, CA 90034","renovation services, Los Angeles, California",http://paintbyaaron.thebluebook.com/
Construction Company, Calabasas,Uptown Renovations / Construction Co.,91302,(818) 515-1400,CA,22287 Mulholland Hwy,"22287 Mulholland Hwy, Calabasas, CA 91302","renovation services, Los Angeles, California",http://www.uptownrenovationsco.com/
Contractor, CA 90241,HESD Contractors Downey,,(562) 261-8605,,Downey,"Downey, CA 90241","renovation services, Los Angeles, California",http://www.contractorsdowney.org/
Construction Company, Los Angeles,The Ratkovich Company,90017,(213) 486-6500,CA,700 S Flower St #2600,"700 S Flower St #2600, Los Angeles, CA 90017","renovation services, Los Angeles, California",http://www.ratkovich.net/
Construction Company, Los Angeles,Stone Castle Construction,90045,(310) 348-8730,CA,7836 Agnew Ave,"7836 Agnew Ave, Los Angeles, CA 90045","renovation services, Los Angeles, California",http://www.stonecastleconstruction.com/
Construction Company, Los Angeles,Modaa Inc,91423,(818) 760-4573,CA,14140 Ventura Blvd Ste. 105,"14140 Ventura Blvd Ste. 105, Los Angeles, CA 91423","renovation services, Los Angeles, California",http://www.modaainc.com/
Architect, Los Angeles,Stenfors Associates Architects Inc.,90010,(323) 951-0300,CA,4201 Wilshire Blvd,"4201 Wilshire Blvd, Los Angeles, CA 90010","renovation services, Los Angeles, California",http://www.stenforsarchitects.com/
Office Supply Store, CA 90045,Digital Office Systems,,(310) 337-9694,,Los Angeles,"Los Angeles, CA 90045","renovation services, Los Angeles, California",
Category,City,Company,Zipcode,Phone,State,Street,Address,SearchTerm,Website
Construction Company, Chicago,prestige renovations services inc.,60632,(773) 600-0899,IL,4331 S California Ave,"4331 S California Ave, Chicago, IL 60632","renovation services, Chicago, Illinois",http://www.prestigerenovationservices.net/
Painter, IL 60634,JIP Renovation Services,,(773) 358-0472,,Chicago,"Chicago, IL 60634","renovation services, Chicago, Illinois",http://www.chicagorenovationservices.com/
Renovation Contractor, Chicago,EMPIRE Renovation Roofing & Hail Damage Restoration,60634,(800) 293-9213,IL,3130 N Narragansett Ave,"3130 N Narragansett Ave, Chicago, IL 60634","renovation services, Chicago, Illinois",
Waste Management Service, Chicago,Reno Renovation,60706,(708) 667-0944,IL,7101 W Gunnison St,"7101 W Gunnison St, Chicago, IL 60706","renovation services, Chicago, Illinois",http://www.reno2011.com/
Window Installation Service, IL 60614,R & R Window Repair and Renovations,,(847) 773-5079,,Chicago,"Chicago, IL 60614","renovation services, Chicago, Illinois",http://www.randrglassinc.com/
General Contractor, IL 60634,Czar Renovations,,(773) 622-6772,,Chicago,"Chicago, IL 60634","renovation services, Chicago, Illinois",http://www.czarrenovations.com/
Handyman, Chicago,Northside Renovations,60626,(773) 744-5734,IL,1629 W Columbia Ave,"1629 W Columbia Ave, Chicago, IL 60626","renovation services, Chicago, Illinois",http://northsiderenovations.com/
General Contractor, Chicago,DWD Renovation,60626,(773) 657-5990,IL,7059 N Ashland Blvd,"7059 N Ashland Blvd, Chicago, IL 60626","renovation services, Chicago, Illinois",http://www.dwdrenovation.com/
Construction Company, Franklin Park,Chicago Renovation Co.,60131,(847) 455-7900,IL,9115 W Grand Ave,"9115 W Grand Ave, Franklin Park, IL 60131","renovation services, Chicago, Illinois",
Construction Company, Chicago,Littlerock Renovation Coaching,60622,(773) 772-0789,IL,1518 N Leavitt St,"1518 N Leavitt St, Chicago, IL 60622","renovation services, Chicago, Illinois",http://www.remodelingconsultants.net/
Bathroom Remodeler, Skokie,Chi Renovation & Design,60077,(847) 983-4024,IL,4868 Dempster St,"4868 Dempster St, Skokie, IL 60077","renovation services, Chicago, Illinois",http://www.chi-renovation.com/
Masonry Contractor, IL 60639,AAA MASONRY RENOVATION iNC,,(773) 807-3927,,Chicago,"Chicago, IL 60639","renovation services, Chicago, Illinois",
Construction Company, Chicago,Renovation Brothers,60611,(312) 927-1600,IL,207 E Ohio St #104,"207 E Ohio St #104, Chicago, IL 60611","renovation services, Chicago, Illinois",http://renovationbrothersinc.com/
,,,,,,,,,
,,,,,,,,,
,,,,,,,,,
,,,,,,,,,
,,,,,,,,,
,,,,,,,,,
,,,,,,,,,
,,,,,,,,,
,,,,,,,,,
,,,,,,,,,
,,,,,,,,,
,,,,,,,,,
,,,,,,,,,
,,,,,,,,,
,,,,,,,,,
,,,,,,,,,
,,,,,,,,,
,,,,,,,,,
,,,,,,,,,
,,,,,,,,,
,,,,,,,,,
,,,,,,,,,
,,,,,,,,,
,,,,,,,,,
,,,,,,,,,
,,,,,,,,,
,,,,,,,,,
General Contractor, Houston,TCD Renovation Services,77074,(713) 772-9833,TX,9410 Alberene Dr,"9410 Alberene Dr, Houston, TX 77074","renovation services, Houston, Texas",
General Contractor, Houston,Norberg Moving Installation,77055,(713) 973-7509,TX,6620 Long Point Rd,"6620 Long Point Rd, Houston, TX 77055","renovation services, Houston, Texas",http://www.norbergservices.com/
Construction Company, Houston,"Incredible Renovations, LLC",77057,(713) 532-2526,TX,5814 Winsome Ln,"5814 Winsome Ln, Houston, TX 77057","renovation services, Houston, Texas",http://www.incrediblerenovations.com/
General Contractor, TX 77032,H&V Renovations,,(832) 534-0202,,Houston,"Houston, TX 77032","renovation services, Houston, Texas",http://houstontxhomeremodelingservice.com/
General Contractor, Houston,Alfred's Construction and Renovation,77082,(713) 272-8985,TX,5419 Clarewood Dr,"5419 Clarewood Dr, Houston, TX 77082","renovation services, Houston, Texas",http://alfredsconstruction.com/
General Contractor, Kingwood,RSI Texas Inc,77339,(281) 361-9126,TX,808 Russell Palmer Rd # 253,"808 Russell Palmer Rd # 253, Kingwood, TX 77339","renovation services, Houston, Texas",
Kitchen Remodeler, Houston,Amazing Renovations,77057,(713) 429-0207,TX,5773 Woodway Dr #16,"5773 Woodway Dr #16, Houston, TX 77057","renovation services, Houston, Texas",http://amazingrenovationsinc.com/
Legal Services, Dr Spring,Total Renovation Services,77379,(832) 299-5968,TX,17711 Strack Dr E,"17711 Strack Dr E, Dr Spring, TX 77379","renovation services, Houston, Texas",http://rnovations.com/
General Contractor, Houston,R P Renovations Inc,77065,(281) 955-8305,TX,10015 N Eldridge Pkwy,"10015 N Eldridge Pkwy, Houston, TX 77065","renovation services, Houston, Texas",
Construction Company, Houston,"J & A Home Renovation/Construction, LLC",77087,(832) 844-0195,TX,6714 Narcissus St,"6714 Narcissus St, Houston, TX 77087","renovation services, Houston, Texas",http://www.renovationsbyadrian.com/
Swimming Pool Contractor, TX 77040,Aesthetic Pool & Patio Renovations,,(713) 875-3838,,Houston,"Houston, TX 77040","renovation services, Houston, Texas",http://aestheticpools.com/
General Contractor, Houston,Oscar's Renovations,77009,(832) 236-8036,TX,200 Carl St,"200 Carl St, Houston, TX 77009","renovation services, Houston, Texas",
Roofing Contractor, Houston,Pinnacle Renovation Roofing Inc.,77060,(832) 374-1378,TX,101 Casa Grande Dr,"101 Casa Grande Dr, Houston, TX 77060","renovation services, Houston, Texas",http://pinnaclerenovationroofing.com/
Interior Designer, Houston,Relocate & Renovate,77024,(281) 497-3017,TX,908 Town and Country Blvd #120,"908 Town and Country Blvd #120, Houston, TX 77024","renovation services, Houston, Texas",http://relocateandrenovate.com/
Roofing Contractor, TX 77079,Reynolds Roofing and Renovation,,(936) 443-3252,,Houston,"Houston, TX 77079","renovation services, Houston, Texas",http://www.reynoldsroofingandhomerenovation.com/
Kitchen Remodeler, Houston,"Xtreme Renovations, LLC",77095,(281) 345-4233,TX,9310 Point Park Dr,"9310 Point Park Dr, Houston, TX 77095","renovation services, Houston, Texas",http://www.xtreme-renovations.com/
General Contractor, Kingwood,Modern Home Renovation,77339,(281) 361-4409,TX,1715 Northpark Dr,"1715 Northpark Dr, Kingwood, TX 77339","renovation services, Houston, Texas",http://www.mhrenovation.com/
Bathroom Remodeler, Houston,Aces Renovation,77024,(281) 900-0908,TX,845 Hollyridge Dr,"845 Hollyridge Dr, Houston, TX 77024","renovation services, Houston, Texas",
Kitchen Remodeler, TX 77018,Houston Remodeling,,(713) 699-5000,,Houston,"Houston, TX 77018","renovation services, Houston, Texas",http://www.houstonremodeling.com/
General Contractor, TX 77013,Aim To Please Renovating,,(832) 715-4712,,Houston,"Houston, TX 77013","renovation services, Houston, Texas",
General Contractor, Houston,Renovation Experts,77057,(713) 218-7576,TX,5851 Southwest Fwy,"5851 Southwest Fwy, Houston, TX 77057","renovation services, Houston, Texas",http://www.renovationexperts.com/
General Contractor, Houston,Houstonian Home Renovations,77092,(281) 226-2350,TX,4220 Northfield Ln,"4220 Northfield Ln, Houston, TX 77092","renovation services, Houston, Texas",http://www.houstoniancustom.com/
Swimming Pool Contractor, TX 77010,Pool Renovation Houston,,(832) 377-1605,,Houston,"Houston, TX 77010","renovation services, Houston, Texas",
General Contractor, TX 77095,Macias Constructions,,(832) 548-9464,,Houston,"Houston, TX 77095","renovation services, Houston, Texas",http://www.houstonbuildingconstruction.com/
Home Builder, Houston,Morse Renovations & Custom,77008,(713) 426-5721,TX,611 E 20th St,"611 E 20th St, Houston, TX 77008","renovation services, Houston, Texas",
Building Restoration Service, Houston,Matt Powers Custom Homes & Renovations,77063,(713) 787-6709,TX,2450 Fondren Rd #111,"2450 Fondren Rd #111, Houston, TX 77063","renovation services, Houston, Texas",http://mattpowerscustomhomes.com/
Construction Company, Houston,D & D Renovations,77055,(346) 800-3517,TX,9821 Cedardale Dr,"9821 Cedardale Dr, Houston, TX 77055","renovation services, Houston, Texas",http://www.danddrenovations.net/
Construction Company, Houston,Gemstar Construction & Dev,77073,(281) 821-1195,TX,21707 Inverness Forest Blvd,"21707 Inverness Forest Blvd, Houston, TX 77073","renovation services, Houston, Texas",http://gemstarconstruction.com/
Architect, Houston,Studio RED Architects,77004,(713) 622-5333,TX,1320 McGowen St,"1320 McGowen St, Houston, TX 77004","renovation services, Houston, Texas",http://www.studioredarchitects.com/
Home Improvement Store, Houston,Omega Restoration & Remodeling,77065,(281) 477-7858,TX,11350 Jones Rd W Ste B100,"11350 Jones Rd W Ste B100, Houston, TX 77065","renovation services, Houston, Texas",http://www.1800omega.com/
General Contractor, TX 77388,B Squared Impressive Renovations LLC,,(832) 585-3836,,Spring,"Spring, TX 77388","renovation services, Houston, Texas",http://www.remodelingspring.net/#cid=sem::glbc
General Contractor, TX 77062,Absolute Renovation,,(832) 808-4742,,Houston,"Houston, TX 77062","renovation services, Houston, Texas",
Construction Company, Houston,Tejas Interior Renovations Inc,77002,(713) 222-1333,TX,600 Travis St B4-104,"600 Travis St B4-104, Houston, TX 77002","renovation services, Houston, Texas",http://www.tejasinteriorrenovations.com/
General Contractor, Houston,William Shaw & Associates,77005,(713) 666-1931,TX,4206 Law St,"4206 Law St, Houston, TX 77005","renovation services, Houston, Texas",http://www.wmshawandassoc.com/
General Contractor, TX 77093,Alberto’s Remodeling,,(281) 969-4113,,Houston,"Houston, TX 77093","renovation services, Houston, Texas",http://houstonhomeremodelcontractor.com/
Kitchen Remodeler, Cypress,Renovation Station,77429,(281) 246-3004,TX,15014 Spring Cypress Rd #230,"15014 Spring Cypress Rd #230, Cypress, TX 77429","renovation services, Houston, Texas",http://www.renovationstationcypress.com/
Roofing Contractor, Houston,Restoration Services Inc,77064,(281) 890-1880,TX,9810 Fairbanks North Houston Rd,"9810 Fairbanks North Houston Rd, Houston, TX 77064","renovation services, Houston, Texas",http://rsi-restorationservices.com/
Roofing Contractor, Houston,Houston Restoration Services,77063,(281) 850-4393,TX,8989 Westheimer Rd #102,"8989 Westheimer Rd #102, Houston, TX 77063","renovation services, Houston, Texas",http://www.qualityroofertx.com/
Home Builder, Houston,Houstonian Home Renovations,77080,(281) 226-2350,TX,9318 Willowview Ln,"9318 Willowview Ln, Houston, TX 77080","renovation services, Houston, Texas",http://www.houstoniancustom.com/
Construction Company, Houston,Afco Renovations,77083,(281) 400-1802,TX,15223 La Paloma Dr,"15223 La Paloma Dr, Houston, TX 77083","renovation services, Houston, Texas",http://www.houstonhomeremodelingcompanies.com/
Swimming, Houston,"Sweetwater Pools, Inc",77099,(281) 988-8480,TX,10408 Rockley Rd,"10408 Rockley Rd, Houston, TX 77099","renovation services, Houston, Texas",http://www.sweetwaterpoolsinc.com/
General Contractor, Houston,LBJ Construction LP,77040,(713) 781-0169,TX,5436 Guhn Rd,"5436 Guhn Rd, Houston, TX 77040","renovation services, Houston, Texas",http://www.lbjconstruction.com/
Construction Company, Houston,"Boutros Construction, Inc.",77042,(713) 587-0000,TX,888 W Sam Houston Pkwy S #200,"888 W Sam Houston Pkwy S #200, Houston, TX 77042","renovation services, Houston, Texas",http://www.boutrosconstruction.com/
General Contractor, Houston,Urban Design Constructors,77032,(713) 560-8118,TX,5750 North Sam Houston Pkwy E #512b,"5750 North Sam Houston Pkwy E #512b, Houston, TX 77032","renovation services, Houston, Texas",http://urbandesignconstructors.com/
Construction Company, Houston,Millbrook Construction,77009,(713) 423-4790,TX,906 E 23rd St,"906 E 23rd St, Houston, TX 77009","renovation services, Houston, Texas",http://www.millbrook-construction.com/
General Contractor, TX 77450,Houston Custom Remodeling,,(713) 998-6850,,Katy,"Katy, TX 77450","renovation services, Houston, Texas",http://houstoncustomremodeling.com/
Home Builder, Porter,D R Renovation Services,77365,(281) 831-7650,TX,15562 N Country Dr,"15562 N Country Dr, Porter, TX 77365","renovation services, Houston, Texas",http://www.drrenovationservices.com/
Real Estate Agency, Houston,Aim Realty Inc,77014,(281) 440-4418,TX,14417 Cornerstone Village Dr,"14417 Cornerstone Village Dr, Houston, TX 77014","renovation services, Houston, Texas",http://www.aimrealtymanagement.com/
Swimming Pool Repair Service, TX 77018,Manning Pool Service,,(713) 812-9098,,Houston,"Houston, TX 77018","renovation services, Houston, Texas",http://www.manningpoolservice.com/
Carpet Installer, Houston,All-American Renovations LLC,77032,(281) 449-9393,TX,1313 Aldine Bender Rd # C,"1313 Aldine Bender Rd # C, Houston, TX 77032","renovation services, Houston, Texas",http://www.allamericancompany.com/
Association or Organization, Houston,Community Associations Institute - Greater Houston Chapter,77024,(713) 784-5462,TX,9525 Katy Fwy #303,"9525 Katy Fwy #303, Houston, TX 77024","renovation services, Houston, Texas",http://www.caihouston.org/
Construction Company, Spring,Wright Way Construction Services,77379,(832) 761-5291,TX,17835 Kuykendahl Rd,"17835 Kuykendahl Rd, Spring, TX 77379","renovation services, Houston, Texas",http://www.wrightwayconst.com/
Fireplace Store, Houston,Jim Miller's Fireplace Repair,77006,(281) 459-0849,TX,2303 Louisiana St #143,"2303 Louisiana St #143, Houston, TX 77006","renovation services, Houston, Texas",http://www.houstonfireplace.net/
Professional Services, Houston,Elite Sky Management Co,77219,,TX,PO Box 130884,"PO Box 130884, Houston, TX 77219","renovation services, Houston, Texas",
General Contractor, TX 77477,"HomeBase Repairs, LLC",,(281) 261-2847,,Stafford,"Stafford, TX 77477","renovation services, Houston, Texas",http://www.homebaserepairs.com/
Construction Company, Houston,Gold Key Construction,77058,(281) 827-6352,TX,1322 Space Park Dr a171,"1322 Space Park Dr a171, Houston, TX 77058","renovation services, Houston, Texas",http://goldkeyconstruction.com/
General Contractor, TX 77062,Galaxy Homes,,(281) 909-7322,,Houston,"Houston, TX 77062","renovation services, Houston, Texas",http://remodelingcompanieshoustontx.com/
General Contractor, TX 77077,Mary's Handymen LLC,,(832) 327-8840,,Houston,"Houston, TX 77077","renovation services, Houston, Texas",http://maryshandymenhouston.com/
Bathroom Remodeler, Houston,Craftsmanship By John,77055,(713) 984-8834,TX,1418 Cedar Post Ln,"1418 Cedar Post Ln, Houston, TX 77055","renovation services, Houston, Texas",http://www.craftsmanshipbyjohn.com/
General Contractor, Houston,JRP Demolition Services LLC.,77091,(346) 800-6442,TX,1106 Paul Quinn St,"1106 Paul Quinn St, Houston, TX 77091","renovation services, Houston, Texas",http://houstontexascontractors.com/
Bathroom Remodeler, Spring,Horizon Renovations LLC,77373,(281) 381-0430,TX,4002 Fitzwater Dr,"4002 Fitzwater Dr, Spring, TX 77373","renovation services, Houston, Texas",http://profile.billboardlocal.com/TX/Spring/Residential+Renovation+Service/Horizon+Renovations+Llc
Contractor, TX 77055,Houston Remodeling Contractors,,(713) 597-1604,,Houston,"Houston, TX 77055","renovation services, Houston, Texas",http://www.houstonremodelingcontractors.com/
Construction Company, Houston,Crestmark Construction Services,77018,(713) 426-6161,TX,1512 W 34th St,"1512 W 34th St, Houston, TX 77018","renovation services, Houston, Texas",http://www.crestmarkservices.com/
Flooring Contractor, Sugar Land,Horizon Renovations,77479,(281) 201-2995,TX,15367 Southwest Fwy,"15367 Southwest Fwy, Sugar Land, TX 77479","renovation services, Houston, Texas",
General Contractor, TX 77389,RenovateNow.CO,,(281) 968-2930,,Spring,"Spring, TX 77389","renovation services, Houston, Texas",http://renovatenowcommercial.com/
Home Builder, Houston,Colony Builders Inc,77041,(713) 272-6224,TX,5829 West Sam Houston Pkwy N,"5829 West Sam Houston Pkwy N, Houston, TX 77041","renovation services, Houston, Texas",http://colonybuildersinc.com/
General Contractor, TX 77035,Derek James Homes,,(281) 407-9512,,Houston,"Houston, TX 77035","renovation services, Houston, Texas",http://houstontxlocalhomecontractor.com/
Air Conditioning Repair Service, Houston,John Moore Services,77064,(713) 730-2525,TX,10005 West Sam Houston Pkwy N,"10005 West Sam Houston Pkwy N, Houston, TX 77064","renovation services, Houston, Texas",http://www.johnmooreservices.com/
General Contractor, Houston,Discount Contractors,77095,(281) 550-0171,TX,14310 Muirfield Ln,"14310 Muirfield Ln, Houston, TX 77095","renovation services, Houston, Texas",http://discountcontractorshouston.com/
Roofing Contractor, TX 77089,Huckabee Construction,,(832) 900-2040,,Houston,"Houston, TX 77089","renovation services, Houston, Texas",http://www.localroofingserviceshoustontx.com/
Siding Contractor, Houston,Colony Builders Inc,77041,(713) 272-6224,TX,5829 West Sam Houston Pkwy N #801,"5829 West Sam Houston Pkwy N #801, Houston, TX 77041","renovation services, Houston, Texas",http://colonybuildersinc.com/
Bathroom Remodeler, Houston,Five Star Bath Solutions of Houston,77096,(713) 574-2387,TX,5446 Yarwell Dr,"5446 Yarwell Dr, Houston, TX 77096","renovation services, Houston, Texas",http://www.fivestarbathsolutions.com/houston
General Contractor, TX 77049,McClain Remodeling,,(832) 412-2032,,Houston,"Houston, TX 77049","renovation services, Houston, Texas",http://homeremodelerhoustontx.com/
Swimming Pool Contractor, TX 77043,Blue Science Houston,,(713) 636-5751,,Houston,"Houston, TX 77043","renovation services, Houston, Texas",http://www.bluescience.com/swimming-pool-service/houston-tx/
General Contractor, TX,Ram Painting Multiservice,,(346) 800-6252,,Houston,"Houston, TX","renovation services, Houston, Texas",http://contractorinhoustontexas.com/
Building Restoration Service, Sugar Land,Metalguard - Metal Building Contractors,77478,(713) 449-3430,TX,14019 Southwest Fwy,"14019 Southwest Fwy, Sugar Land, TX 77478","renovation services, Houston, Texas",http://metalguard.com/
Furniture Store, Houston,Diverse Office & Home Solutions,77018,(713) 562-0024,TX,1910 Wakefield Dr,"1910 Wakefield Dr, Houston, TX 77018","renovation services, Houston, Texas",
General Contractor, TX 77070,Moreno Construction Services,,(713) 459-5953,,Houston,"Houston, TX 77070","renovation services, Houston, Texas",
Swimming Pool Contractor, TX 77459,Blu Pools and Patios,,(832) 758-3249,,Missouri City,"Missouri City, TX 77459","renovation services, Houston, Texas",http://blupoolsandpatios.com/
Interior Designer, TX 77494,West Houston Design Group,,(713) 489-2419,,Katy,"Katy, TX 77494","renovation services, Houston, Texas",http://katyinteriordesigndecorators.com/
Plumber, Friendswood,FannCo Plumbing,77546,(281) 482-1575,TX,1805 Parkview Dr,"1805 Parkview Dr, Friendswood, TX 77546","renovation services, Houston, Texas",http://fanncoplumbing.com/
Construction Company, Houston,Case & Associates,77057,(713) 789-5530,TX,6315 Skyline Dr,"6315 Skyline Dr, Houston, TX 77057","renovation services, Houston, Texas",http://www.casegc.com/
Category,City,Company,Zipcode,Phone,State,Street,Address,SearchTerm,Website
Construction Company, Philadelphia,Mitchell Renovations,19147,(215) 467-1454,PA,1315 S 2nd St,"1315 S 2nd St, Philadelphia, PA 19147","renovation services, Philadelphia, Pennsylvania",http://mitchellrenovations.com/
Painter, PA 19104,Best Designs Renovations,,(215) 873-3424,,Philadelphia,"Philadelphia, PA 19104","renovation services, Philadelphia, Pennsylvania",http://www.bestdesignsrenovations.com/
General Contractor, Philadelphia,Martin Bean Renovation & Associates,19139,(215) 476-5006,PA,6066 Vine St,"6066 Vine St, Philadelphia, PA 19139","renovation services, Philadelphia, Pennsylvania",
Window Installation Service, PA 19139,Jayco Renovations INC,,(215) 701-6265,,Philadelphia,"Philadelphia, PA 19139","renovation services, Philadelphia, Pennsylvania",http://philadelphiawindowcontractor.com/
General Contractor, Narberth,"Main Line Renovations, Inc.",19072,(610) 667-7555,PA,32 Sabine Ave,"32 Sabine Ave, Narberth, PA 19072","renovation services, Philadelphia, Pennsylvania",http://www.mainlinerenovations.com/
Painting, PA 19003,T.J.'s Painting & Renovations Co.,,(610) 864-1649,,Devon,"Devon, PA 19003","renovation services, Philadelphia, Pennsylvania",http://www.tjspaintingandrenovations.com/
General Contractor, PA 19124,Johnny Comoara Construction LLC,,(267) 918-3537,,Philadelphia,"Philadelphia, PA 19124","renovation services, Philadelphia, Pennsylvania",http://johnnycremodeling.com/
Swimming Pool Contractor, Philadelphia,Sunrise Leisure Renovations,19124,(215) 533-2877,PA,1717 Gillingham St,"1717 Gillingham St, Philadelphia, PA 19124","renovation services, Philadelphia, Pennsylvania",
Kitchen Remodeler, PA 19121,Nolt's Renovations,,(267) 992-5595,,Philadelphia,"Philadelphia, PA 19121","renovation services, Philadelphia, Pennsylvania",
Contractor, Philadelphia,dRemodeling,19127,(215) 848-4444,PA,4229 Ridge Ave,"4229 Ridge Ave, Philadelphia, PA 19127","renovation services, Philadelphia, Pennsylvania",http://www.dremodeling.com/
General Contractor, PA 19124,Right Choice Renovations,,(215) 688-6701,,Philadelphia,"Philadelphia, PA 19124","renovation services, Philadelphia, Pennsylvania",
General Contractor, PA 19138,Accurate Home Remodeling,,(267) 428-1822,,Philadelphia,"Philadelphia, PA 19138","renovation services, Philadelphia, Pennsylvania",http://philadelphiahomeremodelcompany.com/
Home Builder, Upper Darby,American Made Renovations,19026,(484) 470-3287,PA,916 Argyle Rd,"916 Argyle Rd, Upper Darby, PA 19026","renovation services, Philadelphia, Pennsylvania",http://www.amrbuilds.com/
General Contractor, Philadelphia,Abstract Renovations LLC,19111,(267) 546-7382,PA,1110 Strahle St,"1110 Strahle St, Philadelphia, PA 19111","renovation services, Philadelphia, Pennsylvania",
Construction Company, Philadelphia,INTECH Construction,19104,(215) 243-2000,PA,3020 Market St,"3020 Market St, Philadelphia, PA 19104","renovation services, Philadelphia, Pennsylvania",http://www.intechconstruction.com/
Insulation Contractor, Philadelphia,D A Virelli Inc,19145,(215) 467-8233,PA,2207 S Colorado St,"2207 S Colorado St, Philadelphia, PA 19145","renovation services, Philadelphia, Pennsylvania",http://www.davirelli.com/
Construction Company, PA 19102,Bella Brothers Construction Inc,,(215) 633-0333,,Philadelphia,"Philadelphia, PA 19102","renovation services, Philadelphia, Pennsylvania",http://www.bellabrothers.com/
General Contractor, PA 19139,The Renaissance Co.,,(215) 747-3470,,Philadelphia,"Philadelphia, PA 19139","renovation services, Philadelphia, Pennsylvania",http://www.therencompany.com/
Kitchen Remodeler, Fort Washington,HomeTech Renovations,19034,(215) 646-7477,PA,518 S Bethlehem Pike,"518 S Bethlehem Pike, Fort Washington, PA 19034","renovation services, Philadelphia, Pennsylvania",http://www.htrenovations.com/
, PA 19143,TGIW Renovations,,(215) 850-8881,,Philadelphia,"Philadelphia, PA 19143","renovation services, Philadelphia, Pennsylvania",
Swimming Pool Contractor, Plymouth Meeting,Premier Pool Renovations,19462,(610) 825-8808,PA,5185 Campus Dr # 202,"5185 Campus Dr # 202, Plymouth Meeting, PA 19462","renovation services, Philadelphia, Pennsylvania",http://www.premierrenovations.com/
General Contractor, Philadelphia,Torcon Inc,19112,(215) 271-1449,PA,1 Crescent Dr #302,"1 Crescent Dr #302, Philadelphia, PA 19112","renovation services, Philadelphia, Pennsylvania",http://www.torcon.com/
Construction Company, Philadelphia,Family and Friends Builders LLC,19134,(215) 537-1520,PA,2544 E Cambria St,"2544 E Cambria St, Philadelphia, PA 19134","renovation services, Philadelphia, Pennsylvania",
Construction Company, Philadelphia,TYCE Renovations LLC,19154,(267) 546-7382,PA,11058 Knights Rd,"11058 Knights Rd, Philadelphia, PA 19154","renovation services, Philadelphia, Pennsylvania",
Janitorial Service, PA 19138,Cots Inc,,(215) 424-1034,,Philadelphia,"Philadelphia, PA 19138","renovation services, Philadelphia, Pennsylvania",http://cotscorp.com/
Interior Designer, Bala Cynwyd,Design Manifest Inc,19004,(610) 667-7711,PA,5 Maple Ave,"5 Maple Ave, Bala Cynwyd, PA 19004","renovation services, Philadelphia, Pennsylvania",http://www.designmanifest.com/
Construction Company, Philadelphia,Structure Tone Inc,19102,(215) 563-7871,PA,1500 Walnut St #1410,"1500 Walnut St #1410, Philadelphia, PA 19102","renovation services, Philadelphia, Pennsylvania",http://www.structuretone.com/
Interior Designer, Philadelphia,Teknika Design Group,19106,(215) 922-4414,PA,225 Race St,"225 Race St, Philadelphia, PA 19106","renovation services, Philadelphia, Pennsylvania",http://www.teknikadesigngroup.com/
General Contractor, PA 19120,VBM Construction And General Contracting,,(267) 386-5085,,Philadelphia,"Philadelphia, PA 19120","renovation services, Philadelphia, Pennsylvania",http://www.vbmcontracting.com/
General Contractor, Philadelphia,dRemodeling,19129,(215) 848-4444,PA,4229 Ridge Ave,"4229 Ridge Ave, Philadelphia, PA 19129","renovation services, Philadelphia, Pennsylvania",http://www.dremodeling.com/philadelphia-bathroom-remodeling.htm
General Contractor, PA 19102,Home Experts LLC,,(215) 352-5147,,Philadelphia,"Philadelphia, PA 19102","renovation services, Philadelphia, Pennsylvania",http://homeexpertsllc.com/
Architect, Philadelphia,Krieger + Associates Architects,19118,(215) 247-2020 ext. 202,PA,14 W Highland Ave,"14 W Highland Ave, Philadelphia, PA 19118","renovation services, Philadelphia, Pennsylvania",http://www.kriegerarchitects.com/
General Contractor, Bensalem,First Choice Renovation LLC,19020,(215) 604-1578,PA,Cambria Center,"Cambria Center, Bensalem, PA 19020","renovation services, Philadelphia, Pennsylvania",http://www.firstchoicerenovation.com/
General Contractor, Philadelphia,AwardCo,19103,(484) 614-9605,PA,1815 John F Kennedy Blvd,"1815 John F Kennedy Blvd, Philadelphia, PA 19103","renovation services, Philadelphia, Pennsylvania",http://www.awardco1.com/
General Contractor, Philadelphia,Approved Renovations LLC,19154,(215) 637-5057,PA,3500 Dows Rd,"3500 Dows Rd, Philadelphia, PA 19154","renovation services, Philadelphia, Pennsylvania",
Real Estate Agency, Philadelphia,Condo Shops Philadelphia,19102,(215) 692-6636,PA,1425 Locust St,"1425 Locust St, Philadelphia, PA 19102","renovation services, Philadelphia, Pennsylvania",http://www.thecondoshops.com/
General Contractor, Philadelphia,Myers Constructs Inc.,19144,(215) 438-6696,PA,70 E Coulter St,"70 E Coulter St, Philadelphia, PA 19144","renovation services, Philadelphia, Pennsylvania",http://myersconstructs.com/
Library, Philadelphia,Lovett Branch,19119,(215) 685-2095,PA,Germantown Ave,"Germantown Ave, Philadelphia, PA 19119","renovation services, Philadelphia, Pennsylvania",http://www.freelibrary.org/
Non-Profit Organization, Philadelphia,Northern Children's Services,19128,(215) 482-1423,PA,5301 Ridge Ave,"5301 Ridge Ave, Philadelphia, PA 19128","renovation services, Philadelphia, Pennsylvania",http://www.northernchildren.org/
General Contractor, Philadelphia,W & W Contractors,19143,(215) 724-0270,PA,1713 S 56th St,"1713 S 56th St, Philadelphia, PA 19143","renovation services, Philadelphia, Pennsylvania",http://www.residentialcontractorphiladelphia.com/
Kitchen Remodeler, PA 19053,Daniel’s Custom Building and Renovations,,(215) 704-4102,,Feasterville-Trevose,"Feasterville-Trevose, PA 19053","renovation services, Philadelphia, Pennsylvania",http://www.danielsbuilders.com/
General Contractor, Wyndmoor,Cherokee Construction,19038,(215) 248-1800,PA,820 Paper Mill Rd,"820 Paper Mill Rd, Wyndmoor, PA 19038","renovation services, Philadelphia, Pennsylvania",http://cherokeeconstruction.com/
General Contractor, Philadelphia,"Buckminster Green, LLC",19123,(484) 432-2692,PA,958 N 5th St,"958 N 5th St, Philadelphia, PA 19123","renovation services, Philadelphia, Pennsylvania",http://www.buckminstergreen.com/
Architect, Philadelphia,Bello Architects,19148,(215) 755-5862,PA,2805 S Front St,"2805 S Front St, Philadelphia, PA 19148","renovation services, Philadelphia, Pennsylvania",http://www.belloarchitects.com/
General Contractor, Philadelphia,Hanson General Contracting,19128,(215) 483-8338,PA,214 Kalos St,"214 Kalos St, Philadelphia, PA 19128","renovation services, Philadelphia, Pennsylvania",http://www.hgcinc.biz/
Scaffolding Rental Service, Philadelphia,Superior Scaffold Services,19124,(215) 423-0100,PA,520 E Luzerne St,"520 E Luzerne St, Philadelphia, PA 19124","renovation services, Philadelphia, Pennsylvania",http://www.superiorscaffold.com/
Structural Engineer, Philadelphia,Keast & Hood Structural Engineers,19106,(215) 625-0099,PA,400 Market St #1250,"400 Market St #1250, Philadelphia, PA 19106","renovation services, Philadelphia, Pennsylvania",http://www.keasthood.com/
Construction, Philadelphia,C Erickson & Sons Inc,19103,(215) 568-3120,PA,2200 Arch St #200,"2200 Arch St #200, Philadelphia, PA 19103","renovation services, Philadelphia, Pennsylvania",http://www.cerickson.com/
Construction Company, Bryn Mawr,"Gardner/Fox Associates, Inc.",19010,(610) 525-8305,PA,919 Glenbrook Ave,"919 Glenbrook Ave, Bryn Mawr, PA 19010","renovation services, Philadelphia, Pennsylvania",http://www.gardnerfox.com/
General Contractor, Upper Darby,Main Line Home Remodeling,19026,(610) 324-8293,PA,Drexel Hill,"Drexel Hill, Upper Darby, PA 19026","renovation services, Philadelphia, Pennsylvania",http://mainlinehomeremodeling.com/
General Contractor, Glenside,On Call Contracting Services,19038,(267) 838-9154,PA,2262 Mt Carmel Ave,"2262 Mt Carmel Ave, Glenside, PA 19038","renovation services, Philadelphia, Pennsylvania",
Architect, Philadelphia,Cicada Architecture Planning,19102,(215) 247-1430,PA,1520 Locust St #702,"1520 Locust St #702, Philadelphia, PA 19102","renovation services, Philadelphia, Pennsylvania",http://www.cicadaarchitecture.com/
Home Builder, Philadelphia,Temple Group Inc,19102,(215) 545-2105,PA,230 S Broad St # 1101,"230 S Broad St # 1101, Philadelphia, PA 19102","renovation services, Philadelphia, Pennsylvania",http://www.thetemplegroup.com/
General Contractor, Philadelphia,Milestone Construction Management,19154,(215) 676-7730,PA,9995 Roosevelt Blvd #2A,"9995 Roosevelt Blvd #2A, Philadelphia, PA 19154","renovation services, Philadelphia, Pennsylvania",http://www.milestonecm.net/
Construction Company, Philadelphia,Brian T Freedman Construction,19154,(267) 229-8669,PA,12460 Sweet Briar Pl,"12460 Sweet Briar Pl, Philadelphia, PA 19154","renovation services, Philadelphia, Pennsylvania",
General Contractor, Philadelphia,Power Home Remodeling Group,19124,(215) 537-1890,PA,2400 Church St,"2400 Church St, Philadelphia, PA 19124","renovation services, Philadelphia, Pennsylvania",
Residential Area, Philadelphia,Gregory College House,19104,(215) 573-5171,PA,3909 Spruce St,"3909 Spruce St, Philadelphia, PA 19104","renovation services, Philadelphia, Pennsylvania",http://gregory.house.upenn.edu/
Architect, Philadelphia,Kieran Timberlake,19123,(215) 922-6600,PA,841 N American St,"841 N American St, Philadelphia, PA 19123","renovation services, Philadelphia, Pennsylvania",http://www.kierantimberlake.com/
Apartment Complex, Philadelphia,Presidential City,19131,(215) 883-1036,PA,3900 City Ave,"3900 City Ave, Philadelphia, PA 19131","renovation services, Philadelphia, Pennsylvania",http://presidentialcity.com/
Bathroom Remodeler, Cheltenham Township,Ferrarini Kitchens. Baths. Interiors. (Showroom),19027,(215) 242-3014,PA,8015 Old York Rd,"8015 Old York Rd, Cheltenham Township, PA 19027","renovation services, Philadelphia, Pennsylvania",http://www.ferrariniremodeling.com/
Architect, Philadelphia,Srk Architects,19107,(215) 568-1090,PA,1225 Spring St,"1225 Spring St, Philadelphia, PA 19107","renovation services, Philadelphia, Pennsylvania",http://www.srkarchitects.com/
Real Estate Agency, Philadelphia,The Condo Shop,19130,(215) 692-6636,PA,2001 Hamilton St,"2001 Hamilton St, Philadelphia, PA 19130","renovation services, Philadelphia, Pennsylvania",http://www.thecondoshops.com/
Bathroom Remodeler, Bala Cynwyd,American Home Concepts,19004,(610) 667-7775,PA,29 Bala Ave,"29 Bala Ave, Bala Cynwyd, PA 19004","renovation services, Philadelphia, Pennsylvania",http://www.americanhomeconceptsonline.com/
Social Services Organization, Philadelphia,Washington West Project,19107,(215) 985-9206,PA,1201 Locust St,"1201 Locust St, Philadelphia, PA 19107","renovation services, Philadelphia, Pennsylvania",http://www.mazzonicenter.org/
Golf Course Builder, Upper Moreland Township,Total Turf Golf Services Inc,19006,(215) 366-7155,PA,1965 Byberry Rd,"1965 Byberry Rd, Upper Moreland Township, PA 19006","renovation services, Philadelphia, Pennsylvania",http://www.totalturfservices.com/
Contractor, Breinigsville,"S&D Renovations, Inc",18031,(610) 366-8828,PA,9620 Hamilton Blvd,"9620 Hamilton Blvd, Breinigsville, PA 18031","renovation services, Philadelphia, Pennsylvania",http://www.sdrenovations.com/
Swimming Pool Repair Service, PA 19403,Frog's Pool Renovation & Repairs,,(484) 681-1146,,Norristown,"Norristown, PA 19403","renovation services, Philadelphia, Pennsylvania",http://frogspoolrenovation.com/
Roofing Contractor, North Wales,"Volpe Enterprises, Inc. - Complete Home Renovations",19454,(610) 539-6730,PA,217 Church Rd,"217 Church Rd, North Wales, PA 19454","renovation services, Philadelphia, Pennsylvania",http://www.govolpe.com/
Concrete Contractor, PA 18974,"Koncrete Man General Construction, LLC",,(215) 791-4162,,Warminster,"Warminster, PA 18974","renovation services, Philadelphia, Pennsylvania",http://www.koncreteman.com/
General Contractor, PA 19020,Turchi Construction,,(215) 638-4785,,Bensalem,"Bensalem, PA 19020","renovation services, Philadelphia, Pennsylvania",http://www.turchiconstruction.com/
Swimming Pool Repair Service, PA 18902,Artesian Custom Pools and Renovations,,(215) 340-0433,,Doylestown,"Doylestown, PA 18902","renovation services, Philadelphia, Pennsylvania",http://www.poolsbyartesian.com/
General Contractor, PA 19054,Level Best Construction,,(267) 980-2525,,Levittown,"Levittown, PA 19054","renovation services, Philadelphia, Pennsylvania",http://levelbestconstruction.com/
Contractor, Atco,A.R.P. Renovation and Maintenance,08004,(856) 528-8735,NJ,2171 Atco Ave,"2171 Atco Ave, Atco, NJ 08004","renovation services, Philadelphia, Pennsylvania",http://www.arprenovation.com/
Contractor, NJ 08016,D & D Renovations and Services LLC,,(609) 643-5063,,Burlington,"Burlington, NJ 08016","renovation services, Philadelphia, Pennsylvania",http://www.ddreno.com/
Kitchen Remodeler, PA 19382,Scheer Kitchen Renovations,,(610) 732-8463,,West Chester,"West Chester, PA 19382","renovation services, Philadelphia, Pennsylvania",http://www.scheerkitchens.com/
General Contractor, Morrisville,Lotus Renovation and Design,19067,(267) 907-5274,PA,347 Prospect Ave,"347 Prospect Ave, Morrisville, PA 19067","renovation services, Philadelphia, Pennsylvania",http://www.lotusrenovationspa.com/
General Contractor, Collegeville,Lord Contractors Inc,19426,(610) 489-0966,PA,3231 Mill Rd,"3231 Mill Rd, Collegeville, PA 19426","renovation services, Philadelphia, Pennsylvania",http://www.lordcontractors.com/
Category,City,Company,Zipcode,Phone,State,Street,Address,SearchTerm,Website
Construction Company, Philadelphia,Mitchell Renovations,19147,(215) 467-1454,PA,1315 S 2nd St,"1315 S 2nd St, Philadelphia, PA 19147","renovation services, Philadelphia, Pennsylvania",http://mitchellrenovations.com/
Painter, PA 19104,Best Designs Renovations,,(215) 873-3424,,Philadelphia,"Philadelphia, PA 19104","renovation services, Philadelphia, Pennsylvania",http://www.bestdesignsrenovations.com/
General Contractor, Philadelphia,Martin Bean Renovation & Associates,19139,(215) 476-5006,PA,6066 Vine St,"6066 Vine St, Philadelphia, PA 19139","renovation services, Philadelphia, Pennsylvania",
General Contractor, PA 19124,Right Choice Renovations,,(215) 688-6701,,Philadelphia,"Philadelphia, PA 19124","renovation services, Philadelphia, Pennsylvania",
Window Installation Service, PA 19139,Jayco Renovations INC,,(215) 701-6265,,Philadelphia,"Philadelphia, PA 19139","renovation services, Philadelphia, Pennsylvania",http://philadelphiawindowcontractor.com/
General Contractor, Narberth,"Main Line Renovations, Inc.",19072,(610) 667-7555,PA,32 Sabine Ave,"32 Sabine Ave, Narberth, PA 19072","renovation services, Philadelphia, Pennsylvania",http://www.mainlinerenovations.com/
Painting, PA 19003,T.J.'s Painting & Renovations Co.,,(610) 864-1649,,Devon,"Devon, PA 19003","renovation services, Philadelphia, Pennsylvania",http://www.tjspaintingandrenovations.com/
General Contractor, PA 19124,Johnny Comoara Construction LLC,,(267) 918-3537,,Philadelphia,"Philadelphia, PA 19124","renovation services, Philadelphia, Pennsylvania",http://johnnycremodeling.com/
Insulation Contractor, Philadelphia,Lucky Dog Renovations,19134,(267) 319-1017,PA,3132 E Thompson St,"3132 E Thompson St, Philadelphia, PA 19134","renovation services, Philadelphia, Pennsylvania",http://www.luckydogrenovations.com/
Swimming Pool Contractor, Philadelphia,Sunrise Leisure Renovations,19124,(215) 533-2877,PA,1717 Gillingham St,"1717 Gillingham St, Philadelphia, PA 19124","renovation services, Philadelphia, Pennsylvania",
Kitchen Remodeler, PA 19121,Nolt's Renovations,,(267) 992-5595,,Philadelphia,"Philadelphia, PA 19121","renovation services, Philadelphia, Pennsylvania",
Contractor, Philadelphia,dRemodeling,19127,(215) 848-4444,PA,4229 Ridge Ave,"4229 Ridge Ave, Philadelphia, PA 19127","renovation services, Philadelphia, Pennsylvania",http://www.dremodeling.com/
General Contractor, PA 19138,Accurate Home Remodeling,,(267) 428-1822,,Philadelphia,"Philadelphia, PA 19138","renovation services, Philadelphia, Pennsylvania",http://philadelphiahomeremodelcompany.com/
Home Builder, Upper Darby,American Made Renovations,19026,(484) 470-3287,PA,916 Argyle Rd,"916 Argyle Rd, Upper Darby, PA 19026","renovation services, Philadelphia, Pennsylvania",http://www.amrbuilds.com/
General Contractor, Philadelphia,Abstract Renovations LLC,19111,(267) 546-7382,PA,1110 Strahle St,"1110 Strahle St, Philadelphia, PA 19111","renovation services, Philadelphia, Pennsylvania",
Construction Company, Philadelphia,INTECH Construction,19104,(215) 243-2000,PA,3020 Market St,"3020 Market St, Philadelphia, PA 19104","renovation services, Philadelphia, Pennsylvania",http://www.intechconstruction.com/
Insulation Contractor, Philadelphia,D A Virelli Inc,19145,(215) 467-8233,PA,2207 S Colorado St,"2207 S Colorado St, Philadelphia, PA 19145","renovation services, Philadelphia, Pennsylvania",http://www.davirelli.com/
Construction Company, PA 19102,Bella Brothers Construction Inc,,(215) 633-0333,,Philadelphia,"Philadelphia, PA 19102","renovation services, Philadelphia, Pennsylvania",http://www.bellabrothers.com/
General Contractor, PA 19139,The Renaissance Co.,,(215) 747-3470,,Philadelphia,"Philadelphia, PA 19139","renovation services, Philadelphia, Pennsylvania",http://www.therencompany.com/
Kitchen Remodeler, Fort Washington,HomeTech Renovations,19034,(215) 646-7477,PA,518 S Bethlehem Pike,"518 S Bethlehem Pike, Fort Washington, PA 19034","renovation services, Philadelphia, Pennsylvania",http://www.htrenovations.com/
Swimming Pool Contractor, Plymouth Meeting,Premier Pool Renovations,19462,(610) 825-8808,PA,5185 Campus Dr # 202,"5185 Campus Dr # 202, Plymouth Meeting, PA 19462","renovation services, Philadelphia, Pennsylvania",http://www.premierrenovations.com/
Janitorial Service, PA 19138,Cots Inc,,(215) 424-1034,,Philadelphia,"Philadelphia, PA 19138","renovation services, Philadelphia, Pennsylvania",http://cotscorp.com/
Construction, Philadelphia,C Erickson & Sons Inc,19103,(215) 568-3120,PA,2200 Arch St #200,"2200 Arch St #200, Philadelphia, PA 19103","renovation services, Philadelphia, Pennsylvania",http://www.cerickson.com/
General Contractor, Philadelphia,Torcon Inc,19112,(215) 271-1449,PA,1 Crescent Dr #302,"1 Crescent Dr #302, Philadelphia, PA 19112","renovation services, Philadelphia, Pennsylvania",http://www.torcon.com/
Construction Company, Philadelphia,Family and Friends Builders LLC,19134,(215) 537-1520,PA,2544 E Cambria St,"2544 E Cambria St, Philadelphia, PA 19134","renovation services, Philadelphia, Pennsylvania",
Construction Company, Philadelphia,TYCE Renovations LLC,19154,(267) 546-7382,PA,11058 Knights Rd,"11058 Knights Rd, Philadelphia, PA 19154","renovation services, Philadelphia, Pennsylvania",
Interior Designer, Bala Cynwyd,Design Manifest Inc,19004,(610) 667-7711,PA,5 Maple Ave,"5 Maple Ave, Bala Cynwyd, PA 19004","renovation services, Philadelphia, Pennsylvania",http://www.designmanifest.com/
Construction Company, Philadelphia,Structure Tone Inc,19102,(215) 563-7871,PA,1500 Walnut St #1410,"1500 Walnut St #1410, Philadelphia, PA 19102","renovation services, Philadelphia, Pennsylvania",http://www.structuretone.com/
Interior Designer, Philadelphia,Teknika Design Group,19106,(215) 922-4414,PA,225 Race St,"225 Race St, Philadelphia, PA 19106","renovation services, Philadelphia, Pennsylvania",http://www.teknikadesigngroup.com/
General Contractor, PA 19120,VBM Construction And General Contracting,,(267) 386-5085,,Philadelphia,"Philadelphia, PA 19120","renovation services, Philadelphia, Pennsylvania",http://www.vbmcontracting.com/
General Contractor, Philadelphia,dRemodeling,19129,(215) 848-4444,PA,4229 Ridge Ave,"4229 Ridge Ave, Philadelphia, PA 19129","renovation services, Philadelphia, Pennsylvania",http://www.dremodeling.com/philadelphia-bathroom-remodeling.htm
General Contractor, PA 19102,Home Experts LLC,,(215) 352-5147,,Philadelphia,"Philadelphia, PA 19102","renovation services, Philadelphia, Pennsylvania",http://homeexpertsllc.com/
Architect, Philadelphia,Krieger + Associates Architects,19118,(215) 247-2020 ext. 202,PA,14 W Highland Ave,"14 W Highland Ave, Philadelphia, PA 19118","renovation services, Philadelphia, Pennsylvania",http://www.kriegerarchitects.com/
General Contractor, Bensalem,First Choice Renovation LLC,19020,(215) 604-1578,PA,Cambria Center,"Cambria Center, Bensalem, PA 19020","renovation services, Philadelphia, Pennsylvania",http://www.firstchoicerenovation.com/
General Contractor, Philadelphia,Approved Renovations LLC,19154,(215) 637-5057,PA,3500 Dows Rd,"3500 Dows Rd, Philadelphia, PA 19154","renovation services, Philadelphia, Pennsylvania",
Real Estate Agency, Philadelphia,Condo Shops Philadelphia,19102,(215) 692-6636,PA,1425 Locust St,"1425 Locust St, Philadelphia, PA 19102","renovation services, Philadelphia, Pennsylvania",http://www.thecondoshops.com/
General Contractor, Philadelphia,Myers Constructs Inc.,19144,(215) 438-6696,PA,70 E Coulter St,"70 E Coulter St, Philadelphia, PA 19144","renovation services, Philadelphia, Pennsylvania",http://myersconstructs.com/
Non-Profit Organization, Philadelphia,Northern Children's Services,19128,(215) 482-1423,PA,5301 Ridge Ave,"5301 Ridge Ave, Philadelphia, PA 19128","renovation services, Philadelphia, Pennsylvania",http://www.northernchildren.org/
Library, Philadelphia,Lovett Branch,19119,(215) 685-2095,PA,Germantown Ave,"Germantown Ave, Philadelphia, PA 19119","renovation services, Philadelphia, Pennsylvania",http://www.freelibrary.org/
General Contractor, Philadelphia,W & W Contractors,19143,(215) 724-0270,PA,1713 S 56th St,"1713 S 56th St, Philadelphia, PA 19143","renovation services, Philadelphia, Pennsylvania",http://www.residentialcontractorphiladelphia.com/
Kitchen Remodeler, PA 19053,Daniel’s Custom Building and Renovations,,(215) 704-4102,,Feasterville-Trevose,"Feasterville-Trevose, PA 19053","renovation services, Philadelphia, Pennsylvania",http://www.danielsbuilders.com/
General Contractor, Wyndmoor,Cherokee Construction,19038,(215) 248-1800,PA,820 Paper Mill Rd,"820 Paper Mill Rd, Wyndmoor, PA 19038","renovation services, Philadelphia, Pennsylvania",http://cherokeeconstruction.com/
General Contractor, Philadelphia,"Buckminster Green, LLC",19123,(484) 432-2692,PA,958 N 5th St,"958 N 5th St, Philadelphia, PA 19123","renovation services, Philadelphia, Pennsylvania",http://www.buckminstergreen.com/
Architect, Philadelphia,Bello Architects,19148,(215) 755-5862,PA,2805 S Front St,"2805 S Front St, Philadelphia, PA 19148","renovation services, Philadelphia, Pennsylvania",http://www.belloarchitects.com/
General Contractor, Philadelphia,Hanson General Contracting,19128,(215) 483-8338,PA,214 Kalos St,"214 Kalos St, Philadelphia, PA 19128","renovation services, Philadelphia, Pennsylvania",http://www.hgcinc.biz/
Scaffolding Rental Service, Philadelphia,Superior Scaffold Services,19124,(215) 423-0100,PA,520 E Luzerne St,"520 E Luzerne St, Philadelphia, PA 19124","renovation services, Philadelphia, Pennsylvania",http://www.superiorscaffold.com/
Structural Engineer, Philadelphia,Keast & Hood Structural Engineers,19106,(215) 625-0099,PA,400 Market St #1250,"400 Market St #1250, Philadelphia, PA 19106","renovation services, Philadelphia, Pennsylvania",http://www.keasthood.com/
Construction Company, Bryn Mawr,"Gardner/Fox Associates, Inc.",19010,(610) 525-8305,PA,919 Glenbrook Ave,"919 Glenbrook Ave, Bryn Mawr, PA 19010","renovation services, Philadelphia, Pennsylvania",http://www.gardnerfox.com/
General Contractor, Upper Darby,Main Line Home Remodeling,19026,(610) 324-8293,PA,Drexel Hill,"Drexel Hill, Upper Darby, PA 19026","renovation services, Philadelphia, Pennsylvania",http://mainlinehomeremodeling.com/
General Contractor, Glenside,On Call Contracting Services,19038,(267) 838-9154,PA,2262 Mt Carmel Ave,"2262 Mt Carmel Ave, Glenside, PA 19038","renovation services, Philadelphia, Pennsylvania",
Architect, Philadelphia,Cicada Architecture Planning,19102,(215) 247-1430,PA,1520 Locust St #702,"1520 Locust St #702, Philadelphia, PA 19102","renovation services, Philadelphia, Pennsylvania",http://www.cicadaarchitecture.com/
General Contractor, Philadelphia,Milestone Construction Management,19154,(215) 676-7730,PA,9995 Roosevelt Blvd #2A,"9995 Roosevelt Blvd #2A, Philadelphia, PA 19154","renovation services, Philadelphia, Pennsylvania",http://www.milestonecm.net/
Construction Company, Philadelphia,Brian T Freedman Construction,19154,(267) 229-8669,PA,12460 Sweet Briar Pl,"12460 Sweet Briar Pl, Philadelphia, PA 19154","renovation services, Philadelphia, Pennsylvania",
General Contractor, Philadelphia,Power Home Remodeling Group,19124,(215) 537-1890,PA,2400 Church St,"2400 Church St, Philadelphia, PA 19124","renovation services, Philadelphia, Pennsylvania",
Residential Area, Philadelphia,Gregory College House,19104,(215) 573-5171,PA,3909 Spruce St,"3909 Spruce St, Philadelphia, PA 19104","renovation services, Philadelphia, Pennsylvania",http://gregory.house.upenn.edu/
Architect, Philadelphia,Kieran Timberlake,19123,(215) 922-6600,PA,841 N American St,"841 N American St, Philadelphia, PA 19123","renovation services, Philadelphia, Pennsylvania",http://www.kierantimberlake.com/
Architect, Philadelphia,Martin J Rosenblum & Associates,19102,(215) 985-4646,PA,346 S 15th St,"346 S 15th St, Philadelphia, PA 19102","renovation services, Philadelphia, Pennsylvania",http://www.mjra-architects.com/
Apartment Complex, Philadelphia,Presidential City,19131,(215) 883-1036,PA,3900 City Ave,"3900 City Ave, Philadelphia, PA 19131","renovation services, Philadelphia, Pennsylvania",http://presidentialcity.com/
Bathroom Remodeler, Cheltenham Township,Ferrarini Kitchens. Baths. Interiors. (Showroom),19027,(215) 242-3014,PA,8015 Old York Rd,"8015 Old York Rd, Cheltenham Township, PA 19027","renovation services, Philadelphia, Pennsylvania",http://www.ferrariniremodeling.com/
Architect, Philadelphia,Srk Architects,19107,(215) 568-1090,PA,1225 Spring St,"1225 Spring St, Philadelphia, PA 19107","renovation services, Philadelphia, Pennsylvania",http://www.srkarchitects.com/
Real Estate Agency, Philadelphia,The Condo Shop,19130,(215) 692-6636,PA,2001 Hamilton St,"2001 Hamilton St, Philadelphia, PA 19130","renovation services, Philadelphia, Pennsylvania",http://www.thecondoshops.com/
Bathroom Remodeler, Bala Cynwyd,American Home Concepts,19004,(610) 667-7775,PA,29 Bala Ave,"29 Bala Ave, Bala Cynwyd, PA 19004","renovation services, Philadelphia, Pennsylvania",http://www.americanhomeconceptsonline.com/
Social Services Organization, Philadelphia,Washington West Project,19107,(215) 985-9206,PA,1201 Locust St,"1201 Locust St, Philadelphia, PA 19107","renovation services, Philadelphia, Pennsylvania",http://www.mazzonicenter.org/
Golf Course Builder, Upper Moreland Township,Total Turf Golf Services Inc,19006,(215) 366-7155,PA,1965 Byberry Rd,"1965 Byberry Rd, Upper Moreland Township, PA 19006","renovation services, Philadelphia, Pennsylvania",http://www.totalturfservices.com/
Contractor, Breinigsville,"S&D Renovations, Inc",18031,(610) 366-8828,PA,9620 Hamilton Blvd,"9620 Hamilton Blvd, Breinigsville, PA 18031","renovation services, Philadelphia, Pennsylvania",http://www.sdrenovations.com/
General Contractor, Fairless Hills,"All in One Renovations, LLC",19030,(215) 595-4070,PA,603 Parkway Dr,"603 Parkway Dr, Fairless Hills, PA 19030","renovation services, Philadelphia, Pennsylvania",http://www.allinonerenovationsllc.com/
Swimming Pool Repair Service, PA 19403,Frog's Pool Renovation & Repairs,,(484) 681-1146,,Norristown,"Norristown, PA 19403","renovation services, Philadelphia, Pennsylvania",http://frogspoolrenovation.com/
Roofing Contractor, North Wales,"Volpe Enterprises, Inc. - Complete Home Renovations",19454,(610) 539-6730,PA,217 Church Rd,"217 Church Rd, North Wales, PA 19454","renovation services, Philadelphia, Pennsylvania",http://www.govolpe.com/
Concrete Contractor, PA 18974,"Koncrete Man General Construction, LLC",,(215) 791-4162,,Warminster,"Warminster, PA 18974","renovation services, Philadelphia, Pennsylvania",http://www.koncreteman.com/
General Contractor, PA 19020,Turchi Construction,,(215) 638-4785,,Bensalem,"Bensalem, PA 19020","renovation services, Philadelphia, Pennsylvania",http://www.turchiconstruction.com/
Swimming Pool Repair Service, PA 18902,Artesian Custom Pools and Renovations,,(215) 340-0433,,Doylestown,"Doylestown, PA 18902","renovation services, Philadelphia, Pennsylvania",http://www.poolsbyartesian.com/
General Contractor, PA 19054,Level Best Construction,,(267) 980-2525,,Levittown,"Levittown, PA 19054","renovation services, Philadelphia, Pennsylvania",http://levelbestconstruction.com/
Contractor, Atco,A.R.P. Renovation and Maintenance,08004,(856) 528-8735,NJ,2171 Atco Ave,"2171 Atco Ave, Atco, NJ 08004","renovation services, Philadelphia, Pennsylvania",http://www.arprenovation.com/
Contractor, NJ 08016,D & D Renovations and Services LLC,,(609) 643-5063,,Burlington,"Burlington, NJ 08016","renovation services, Philadelphia, Pennsylvania",http://www.ddreno.com/
General Contractor, Collegeville,Lord Contractors Inc,19426,(610) 489-0966,PA,3231 Mill Rd,"3231 Mill Rd, Collegeville, PA 19426","renovation services, Philadelphia, Pennsylvania",http://www.lordcontractors.com/
Category,City,Company,Zipcode,Phone,State,Street,Address,SearchTerm,Website
Water Damage Restoration Service, CA 94087,UAC Water Damage Sunnyvale,,(408) 400-3366,,Sunnyvale,"Sunnyvale, CA 94087","renovation services, Sunnyvale, California",http://www.waterdamagesunnyvale.org/
City Hall, Sunnyvale,City of Sunnyvale,94086,(408) 730-7580,CA,456 W Olive Ave,"456 W Olive Ave, Sunnyvale, CA 94086","renovation services, Sunnyvale, California",http://sunnyvale.ca.gov/
Construction Company, Sunnyvale,Kuehne Construction Inc.,94086,(408) 732-4057,CA,933 Kifer Rd,"933 Kifer Rd, Sunnyvale, CA 94086","renovation services, Sunnyvale, California",http://www.kuehneconstruction.net/
Construction Company, Sunnyvale,8 Plus Inc.,94085,(408) 733-8008,CA,242 Commercial St,"242 Commercial St, Sunnyvale, CA 94085","renovation services, Sunnyvale, California",http://www.8plusinc.com/
Electric Vehicle Charging Station, Sunnyvale,EZ Electric Sunnyvale,94089,(408) 734-4282,CA,1250 Birchwood Dr,"1250 Birchwood Dr, Sunnyvale, CA 94089","renovation services, Sunnyvale, California",http://www.ez-electric.com/
General Contractor, Milpitas,MBD Home Renovations & Repair,95035,(408) 708-5128,CA,95 Cedar Way,"95 Cedar Way, Milpitas, CA 95035","renovation services, Sunnyvale, California",http://www.mbdhomerenovationandrepair.com/
Construction Company, Sunnyvale,Sunnyvale construction co.,94087,(408) 313-6000,CA,1013 Robin Way,"1013 Robin Way, Sunnyvale, CA 94087","renovation services, Sunnyvale, California",http://sunnyvalehomeremodelingsantaclara.info/
Construction Company, Sunnyvale,Farbex Construction Services,94086,(408) 273-0423,CA,158 N Sunnyvale Ave # 1,"158 N Sunnyvale Ave # 1, Sunnyvale, CA 94086","renovation services, Sunnyvale, California",http://www.farbexservices.com/
Gas Station, Sunnyvale,Costco Gasoline,94086,(408) 730-1892,CA,150 Lawrence Station Rd,"150 Lawrence Station Rd, Sunnyvale, CA 94086","renovation services, Sunnyvale, California",http://www.costco.com/warehouse-locations/sunnyvale-ca-423.html
Electrician, Sunnyvale,Shafer Contracting,94087,(408) 420-0741,CA,1180 Lochinvar Ave,"1180 Lochinvar Ave, Sunnyvale, CA 94087","renovation services, Sunnyvale, California",http://www.shafercontracting71.com/
Home Improvement Store, Sunnyvale,The Home Depot,94086,(408) 245-3686,CA,680 Kifer Rd,"680 Kifer Rd, Sunnyvale, CA 94086","renovation services, Sunnyvale, California",http://www.homedepot.com/l/Kifer-Rd/CA/Sunnyvale/94086/640
General Contractor, Sunnyvale,"Durabuilt Construction, Inc.",94087,(408) 509-2526,CA,690 W Fremont Ave Suite 15,"690 W Fremont Ave Suite 15, Sunnyvale, CA 94087","renovation services, Sunnyvale, California",http://www.durabuiltinc.com/
Air Conditioning Contractor, Sunnyvale,"Air Maze Services, Inc.",94086,(408) 738-0333,CA,933 Kifer Rd Suite A,"933 Kifer Rd Suite A, Sunnyvale, CA 94086","renovation services, Sunnyvale, California",http://www.airmazeservices.com/
General Contractor, CA 94087,A California Kitchens,,(408) 730-2242,,Sunnyvale,"Sunnyvale, CA 94087","renovation services, Sunnyvale, California",http://calkitchens.com/
Elementary School, Sunnyvale,Bishop Elementary School,94085,(408) 522-8229,CA,450 N Sunnyvale Ave,"450 N Sunnyvale Ave, Sunnyvale, CA 94085","renovation services, Sunnyvale, California",http://www.sesd.org/Domain/8
Interior Designer, Campbell,Gridley Company,95008,(408) 374-0900,CA,122 Orchard City Dr,"122 Orchard City Dr, Campbell, CA 95008","renovation services, Sunnyvale, California",http://www.gridleycompany.com/
, Sunnyvale,Aloft Sunnyvale,94086,(408) 736-0300,CA,170 S Sunnyvale Ave,"170 S Sunnyvale Ave, Sunnyvale, CA 94086","renovation services, Sunnyvale, California",http://www.aloftsunnyvale.com/
General Contractor, Sunnyvale,ICC General Contractors Inc,94086,(408) 733-6656,CA,510 S Mathilda Ave # 12,"510 S Mathilda Ave # 12, Sunnyvale, CA 94086","renovation services, Sunnyvale, California",
Apartment Building, Sunnyvale,Cherry Orchard Apartments,94087,(408) 737-7785,CA,250 W El Camino Real,"250 W El Camino Real, Sunnyvale, CA 94087","renovation services, Sunnyvale, California",http://irvinecompanyapartments.com/Communities/Cherry-Orchard/
Apartment Building, Sunnyvale,Shadowbrook Apartments by Prometheus,94086,(650) 967-6892,CA,235 S Bernardo Ave,"235 S Bernardo Ave, Sunnyvale, CA 94086","renovation services, Sunnyvale, California",http://prometheusreg.com/san-francisco-properties/shadowbrook
Apartment Building, Sunnyvale,Heritage Park Apartments,94086,(877) 396-9296,CA,555 E Washington Ave,"555 E Washington Ave, Sunnyvale, CA 94086","renovation services, Sunnyvale, California",http://liveatheritageparkapts.com/
Professional Services, Sunnyvale,Moffett Towers,94089,,CA,1000 Enterprise Way,"1000 Enterprise Way, Sunnyvale, CA 94089","renovation services, Sunnyvale, California",http://www.moffett-towers.com/
Truck Rental Agency, Sunnyvale,U-Haul of Sunnyvale,94086,(408) 735-7060,CA,939 E El Camino Real,"939 E El Camino Real, Sunnyvale, CA 94086","renovation services, Sunnyvale, California",
Property Management Company, Sunnyvale,Compass Realty & Property Management,94086,(408) 720-0920,CA,114 S Sunnyvale Ave,"114 S Sunnyvale Ave, Sunnyvale, CA 94086","renovation services, Sunnyvale, California",http://compassproperty.com/
, Sunnyvale,Avalon Silicon Valley,94085,(408) 664-2724,CA,1257 Lakeside Dr,"1257 Lakeside Dr, Sunnyvale, CA 94085","renovation services, Sunnyvale, California",http://www.avaloncommunities.com/california/sunnyvale-apartments/avalon-silicon-valley
Gas Station, Sunnyvale,World Gasoline,94085,(408) 736-7816,CA,117 W Maude Ave,"117 W Maude Ave, Sunnyvale, CA 94085","renovation services, Sunnyvale, California",
Medical Center, Sunnyvale,Infusion: Sunnyvale Center: Palo Alto Medical Foundation,94086,(650) 934-7600,CA,301 Old San Francisco Rd,"301 Old San Francisco Rd, Sunnyvale, CA 94086","renovation services, Sunnyvale, California",http://www.pamf.org/infusion/?utm_medium=local&utm_source=google_plus-local&utm_campaign=local-Sunnyvale-PAMF373
Apartment Rental Agency, Sunnyvale,Magnolia Square,94086,(408) 773-8448,CA,107 S Mary Ave,"107 S Mary Ave, Sunnyvale, CA 94086","renovation services, Sunnyvale, California",http://www.essexapartmenthomes.com/apartments/california/sunnyvale/magnolia-square/Home.aspx?utm_source=GooglePlus&utm_medium=Magnolia%20Square&utm_campaign=GoogleMyBusiness
Roofing Contractor, Sunnyvale,Dave's Remodeling Inc.,94087,(888) 216-3539,CA,570 E El Camino Real,"570 E El Camino Real, Sunnyvale, CA 94087","renovation services, Sunnyvale, California",http://www.daveremodeling.com/
Retirement Community, Sunnyvale,Life’s Garden,94086,(408) 245-5433,CA,450 Old San Francisco Rd,"450 Old San Francisco Rd, Sunnyvale, CA 94086","renovation services, Sunnyvale, California",http://www.lifesgarden.org/about-us/
Landscaper, CA 94085,Garescape Inc,,(408) 630-9963,,Sunnyvale,"Sunnyvale, CA 94085","renovation services, Sunnyvale, California",http://www.garescape.com/
Car Dealer, Sunnyvale,Tesla Motors,94087,(408) 739-2034,CA,750 E El Camino Real,"750 E El Camino Real, Sunnyvale, CA 94087","renovation services, Sunnyvale, California",http://www.teslamotors.com/sunnyvale
Roofing Contractor, CA 94086,Sunnyvale Best Roofing,,(408) 758-6479,,Sunnyvale,"Sunnyvale, CA 94086","renovation services, Sunnyvale, California",http://www.roofingsunnyvale.com/
Nissan Dealer, Sunnyvale,Nissan Sunnyvale,94087,(408) 215-1353,CA,680 E El Camino Real,"680 E El Camino Real, Sunnyvale, CA 94087","renovation services, Sunnyvale, California",http://www.nissansunnyvale.com/
Home Improvement Store, Sunnyvale,Lowe's Home Improvement,94085,(408) 470-1680,CA,811 E Arques Ave,"811 E Arques Ave, Sunnyvale, CA 94085","renovation services, Sunnyvale, California",http://www.lowes.com/?cm_mmc=YEXT-_-SiteLink-_-2211-_-Lowes
Construction Company, CA 94085,Farbex Construction,,(408) 590-5410,,Sunnyvale,"Sunnyvale, CA 94085","renovation services, Sunnyvale, California",http://www.farbexservices.com/
Construction Company, CA 94085,Washburn Construction Inc,,(408) 593-6146,,Sunnyvale,"Sunnyvale, CA 94085","renovation services, Sunnyvale, California",http://washburnconstructionca.com/
Apartment Building, Sunnyvale,Verona Gardens,94086,(844) 345-2117,CA,471 Acalanes Dr #17,"471 Acalanes Dr #17, Sunnyvale, CA 94086","renovation services, Sunnyvale, California",http://www.veronagardensapt.com/
Hindu Temple, Sunnyvale,Sunnyvale Hindu Temple & Community Center,94089,(408) 734-4554,CA,450 Persian Dr,"450 Persian Dr, Sunnyvale, CA 94089","renovation services, Sunnyvale, California",http://www.sunnyvale-hindutemple.org/
, Sunnyvale,Sheraton Sunnyvale Hotel,94089,(408) 745-6000,CA,1100 N Mathilda Ave,"1100 N Mathilda Ave, Sunnyvale, CA 94089","renovation services, Sunnyvale, California",http://www.sheratonsunnyvale.com/
Assisted Living Facility, Sunnyvale,Atria Sunnyvale,94087,(408) 512-3188,CA,175 E Remington Dr,"175 E Remington Dr, Sunnyvale, CA 94087","renovation services, Sunnyvale, California",http://www.atriasunnyvale.com/
Apartment Building, Sunnyvale,Arbor Terrace Apartments,94087,(408) 738-0935,CA,555 E El Camino Real,"555 E El Camino Real, Sunnyvale, CA 94087","renovation services, Sunnyvale, California",http://www.equityapartments.com/san-francisco-bay/sunnyvale/arbor-terrace-apartments
Glass & Mirror Shop, Sunnyvale,A-1 Glass & Shower Door Co.,94087,(408) 739-4837,CA,987 E El Camino Real,"987 E El Camino Real, Sunnyvale, CA 94087","renovation services, Sunnyvale, California",http://www.a1glass.info/
Interior Designer, Sunnyvale,PSK InDesign llc,94085,(650) 451-2993,CA,669 Pinnacles Terrace,"669 Pinnacles Terrace, Sunnyvale, CA 94085","renovation services, Sunnyvale, California",http://pskindesign.com/
Apartment Complex, Sunnyvale,Parkwood Apartments,94087,(408) 502-5305,CA,1032 W Remington Dr,"1032 W Remington Dr, Sunnyvale, CA 94087","renovation services, Sunnyvale, California",http://www.parkwood-apartments.com/
Apartment Building, Sunnyvale,Linden Arms,94086,(408) 737-2642,CA,940 Linden Ave,"940 Linden Ave, Sunnyvale, CA 94086","renovation services, Sunnyvale, California",http://www.lindenarms.com/
General Contractor, CA 94087,Chandler Building and Development,,(408) 730-5626,,Sunnyvale,"Sunnyvale, CA 94087","renovation services, Sunnyvale, California",http://www.chandlerbuilding.net/
Category,City,Company,Zipcode,Phone,State,Street,Address,SearchTerm,Website
,,,,,,,,,
,,,,,,,,,
,,,,,,,,,
,,,,,,,,,
,,,,,,,,,
,,,,,,,,,
,,,,,,,,,
,,,,,,,,,
,,,,,,,,,
,,,,,,,,,
,,,,,,,,,
,,,,,,,,,
,,,,,,,,,
,,,,,,,,,
,,,,,,,,,
,,,,,,,,,
,,,,,,,,,
,,,,,,,,,
,,,,,,,,,
,,,,,,,,,
,,,,,,,,,
,,,,,,,,,
,,,,,,,,,
,,,,,,,,,
,,,,,,,,,
,,,,,,,,,
,,,,,,,,,
,,,,,,,,,
,,,,,,,,,
,,,,,,,,,
,,,,,,,,,
,,,,,,,,,
,,,,,,,,,
,,,,,,,,,
,,,,,,,,,
,,,,,,,,,
,,,,,,,,,
,,,,,,,,,
,,,,,,,,,
,,,,,,,,,
,,,,,,,,,
,,,,,,,,,
,,,,,,,,,
,,,,,,,,,
,,,,,,,,,
,,,,,,,,,
,,,,,,,,,
,,,,,,,,,
,,,,,,,,,
,,,,,,,,,
,,,,,,,,,
,,,,,,,,,
,,,,,,,,,
,,,,,,,,,
,,,,,,,,,
,,,,,,,,,
,,,,,,,,,
,,,,,,,,,
,,,,,,,,,
,,,,,,,,,
,,,,,,,,,
,,,,,,,,,
,,,,,,,,,
,,,,,,,,,
,,,,,,,,,
,,,,,,,,,
,,,,,,,,,
,,,,,,,,,
,,,,,,,,,
,,,,,,,,,
,,,,,,,,,
,,,,,,,,,
,,,,,,,,,
,,,,,,,,,
,,,,,,,,,
,,,,,,,,,
,,,,,,,,,
,,,,,,,,,
,,,,,,,,,
,,,,,,,,,
Flooring Contractor, Cary,Noble Renovation,27513,(919) 413-7485,NC,109 Pebble Ridge Farms Ct,"109 Pebble Ridge Farms Ct, Cary, NC 27513","renovation services, Cary, North Carolina",http://www.noblerenovation.com/
Painting, Raleigh,Churchill Painting and Renovations,27606,(919) 650-1589,NC,1225 Buck Jones Rd,"1225 Buck Jones Rd, Raleigh, NC 27606","renovation services, Cary, North Carolina",http://www.churchillpaintingandrenovation.com/
General Contractor, NC 27513,Creative Renovations Inc.,,(919) 481-4544,,Cary,"Cary, NC 27513","renovation services, Cary, North Carolina",http://www.creren.com/
Carpenter, Cary,Boulden Home Repair and Renovations,27513,(919) 439-1056,NC,2813 Waterford Forest Cir,"2813 Waterford Forest Cir, Cary, NC 27513","renovation services, Cary, North Carolina",http://bouldenservices.com/
General Contractor, Cary,Carolina Renovations,27518,(919) 247-1254,NC,Woodfield Lake Rd,"Woodfield Lake Rd, Cary, NC 27518","renovation services, Cary, North Carolina",
General Contractor, Cary,Paradise Found Construction,27513,(919) 830-7218,NC,106 Ortons Point Pl,"106 Ortons Point Pl, Cary, NC 27513","renovation services, Cary, North Carolina",http://caryremodeling.net/
General Contractor, NC 27513,Distinguished Renovations LLC,,(919) 228-9063,,Cary,"Cary, NC 27513","renovation services, Cary, North Carolina",
Home Builder, Cary,Trendmark Inc,27512,(919) 868-4545,NC,PO Box 5712,"PO Box 5712, Cary, NC 27512","renovation services, Cary, North Carolina",http://www.trendmarkinc.com/
General Contractor, Raleigh,Lynn's Renovation Gang LLC,27606,(919) 859-3090,NC,309 Buck Jones Rd,"309 Buck Jones Rd, Raleigh, NC 27606","renovation services, Cary, North Carolina",
Electrician, Cary,Moonlite Electric & Renovation,27511,(919) 468-8347,NC,104C Woodwinds Industrial Ct,"104C Woodwinds Industrial Ct, Cary, NC 27511","renovation services, Cary, North Carolina",http://www.moonliteconstruction.com/
Window Installation Service, Cary,Raleigh Siding by Renovation Pros of NC,27513,(919) 656-4481,NC,2111 CRIGAN Bluff Dr,"2111 CRIGAN Bluff Dr, Cary, NC 27513","renovation services, Cary, North Carolina",
General Contractor, Cary,Meadows Contracting,27519,(919) 795-3276,NC,218 Duck Mill Cir,"218 Duck Mill Cir, Cary, NC 27519","renovation services, Cary, North Carolina",http://www.meadowscontracting.com/
General Contractor, Cary,Code Green Renovation & Construction,27513,(919) 459-2845,NC,202 North Dixon Avenue,"202 North Dixon Avenue, Cary, NC 27513","renovation services, Cary, North Carolina",
General Contractor, Cary,"CORE Remodeling Group, Inc",27518,(919) 608-3347,NC,2054 Kildaire Farm Rd #338,"2054 Kildaire Farm Rd #338, Cary, NC 27518","renovation services, Cary, North Carolina",http://www.coreremodeling.com/
Fire Damage Restoration Service, Cary,Custom Craft Building & Renovation,27518,(919) 362-6555,NC,11301 Penny Rd # A,"11301 Penny Rd # A, Cary, NC 27518","renovation services, Cary, North Carolina",
General Contractor, Cary,Portofino Tile & The Bath Remodeling Center,27511,(919) 914-0684,NC,115 Ward St,"115 Ward St, Cary, NC 27511","renovation services, Cary, North Carolina",http://www.portofinotile.com/
Painter, NC 27502,Robert Witcraft Painting & Renovation,,(919) 723-7746,,Apex,"Apex, NC 27502","renovation services, Cary, North Carolina",http://www.witcraftpainting.com/
General Contractor, NC 27606,"Rimbey Renovations, Inc.",,(919) 816-2084,,Raleigh,"Raleigh, NC 27606","renovation services, Cary, North Carolina",http://www.raleighremodeling.info/
Handyman, Raleigh,Carolina Renovations,27606,(919) 357-8929,NC,Crossroads Blvd,"Crossroads Blvd, Raleigh, NC 27606","renovation services, Cary, North Carolina",
General Contractor, NC 27511,TrendMark Inc,,(919) 868-4545,,Cary,"Cary, NC 27511","renovation services, Cary, North Carolina",http://www.trendmarkinc.com/
General Contractor, Raleigh,Barker Property Maintenance,27607,(919) 859-8484,NC,1401 Sunday Dr #113,"1401 Sunday Dr #113, Raleigh, NC 27607","renovation services, Cary, North Carolina",http://www.barkerpropertymaintenance.com/
General Contractor, Apex,"Core Remodeling Group, Inc",27539,(919) 290-2909,NC,1109 Classic Rd,"1109 Classic Rd, Apex, NC 27539","renovation services, Cary, North Carolina",http://www.coreremodeling.com/
Home Goods Store, Cary,RenovateRepair.com,27513,(919) 264-6434,NC,963 N Harrison Ave,"963 N Harrison Ave, Cary, NC 27513","renovation services, Cary, North Carolina",http://www.renovaterepair.com/
General Contractor, NC 27513,Around To It Home Improvement and Restorations,,(919) 825-0287,,Cary,"Cary, NC 27513","renovation services, Cary, North Carolina",http://homeremodelingcary.com/
General Contractor, Apex,Harold K Jordan & Co,27539,(919) 303-3652,NC,1086 Classic Rd,"1086 Classic Rd, Apex, NC 27539","renovation services, Cary, North Carolina",http://www.hkjconstruction.com/
Bathroom Remodeler, Raleigh,"Blue Ribbon Residential Construction Company, Inc.",27607,(919) 303-0758,NC,5605 Chapel Hill Rd #108,"5605 Chapel Hill Rd #108, Raleigh, NC 27607","renovation services, Cary, North Carolina",http://www.blue-ribbon-construction.com/
General Contractor, NC 27518,Common Ground Inc,,,,Cary,"Cary, NC 27518","renovation services, Cary, North Carolina",http://www.c-g-inc.com/
Elevator Service, Morrisville,"Cabs & Surfaces, Inc",27560,(919) 930-8558,NC,3000 Bear Cat Way #115,"3000 Bear Cat Way #115, Morrisville, NC 27560","renovation services, Cary, North Carolina",http://www.cabsandsurfaces.com/
General Contractor, NC 27606,Renfrow Builders,,(919) 379-5775,,Raleigh,"Raleigh, NC 27606","renovation services, Cary, North Carolina",http://www.renfrowbuilders.com/
Tile Contractor, Cary,Absolute Stone Corporation,27513,(919) 462-8084,NC,151 Towerview Ct,"151 Towerview Ct, Cary, NC 27513","renovation services, Cary, North Carolina",http://absolute-stone.com/
Water Damage Restoration Service, Apex,Cary Reconstruction Co Inc,27539,(919) 467-5517,NC,2410 Reliance Ave,"2410 Reliance Ave, Apex, NC 27539","renovation services, Cary, North Carolina",http://www.callcrc.com/
General Contractor, Cary,"Riley Contracting Group, Inc.",27511,(919) 467-6104,NC,219 E Chatham St,"219 E Chatham St, Cary, NC 27511","renovation services, Cary, North Carolina",http://www.rileycontracting.com/
Mortgage Broker, Cary,"PrimeLending, A PlainsCapital Company",27518,(919) 854-4457,NC,135 Parkway Office Ct # 200,"135 Parkway Office Ct # 200, Cary, NC 27518","renovation services, Cary, North Carolina",
Construction Company, Raleigh,THS National LLC,27607,(919) 741-6229,NC,982 Trinity Rd,"982 Trinity Rd, Raleigh, NC 27607","renovation services, Cary, North Carolina",http://thsrenovation.com/v2/
Cabinet Maker, Raleigh,Triangle Cabinets & Renovations,27604,(919) 883-9216,NC,1613 Old Louisburg Rd,"1613 Old Louisburg Rd, Raleigh, NC 27604","renovation services, Cary, North Carolina",http://www.raleighnccabinetrycontractor.com/
Bathroom Remodeler, NC 27610,Suburban Renovation Services,,(919) 355-4243,,Raleigh,"Raleigh, NC 27610","renovation services, Cary, North Carolina",
General Contractor, Raleigh,Carolina Renovation Experts Inc.,27609,(919) 713-4333,NC,3812 Tarheel Dr,"3812 Tarheel Dr, Raleigh, NC 27609","renovation services, Cary, North Carolina",
General Contractor, Raleigh,Simplified Construction LLC,27609,(919) 876-3152,NC,4441 Six Forks Rd #106,"4441 Six Forks Rd #106, Raleigh, NC 27609","renovation services, Cary, North Carolina",http://www.simplifiedconstruction.com/
Construction Company, Raleigh,Harrod & Associates Constructors,27612,(919) 828-7782,NC,6612 Fleetwood Dr,"6612 Fleetwood Dr, Raleigh, NC 27612","renovation services, Cary, North Carolina",http://www.harrodandassoc.com/
Siding Contractor, Raleigh,"Craftsman Direct, ""Handyman Home Improvement"" Inc.",27617,(919) 612-9000,NC,Brier Creek Commons Shopping Center,"Brier Creek Commons Shopping Center, Raleigh, NC 27617","renovation services, Cary, North Carolina",http://www.craftsmandirect.com/raleigh-handyman-services.php
Construction, Raleigh,"Custom Renovations, Inc.",27604,(919) 669-5291,NC,2208 Timberlake Dr,"2208 Timberlake Dr, Raleigh, NC 27604","renovation services, Cary, North Carolina",http://www.customrenovate.com/
Landscaper, Apex,Bland Landscaping Co,27502,(919) 387-0010,NC,1200 Perry Rd,"1200 Perry Rd, Apex, NC 27502","renovation services, Cary, North Carolina",http://blandlandscaping.com/
Painter, Raleigh,CTI Property Services,27617,(919) 787-3789,NC,5916 Triangle Dr,"5916 Triangle Dr, Raleigh, NC 27617","renovation services, Cary, North Carolina",http://www.ctipropertyservices.com/
General Contractor, NC 27609,Homestretch Renovations,,(919) 341-9911,,Raleigh,"Raleigh, NC 27609","renovation services, Cary, North Carolina",
Siding Contractor, NC 27519,RenovateRepair.com,,(919) 264-6434,,Cary,"Cary, NC 27519","renovation services, Cary, North Carolina",http://renovaterepair.com/
General Contractor, Apex,Asbury Remodeling & Construction,27502,(919) 904-4548,NC,1002 Towhee Dr,"1002 Towhee Dr, Apex, NC 27502","renovation services, Cary, North Carolina",http://www.asburyremodeling.com/
HVAC Contractor, Apex,Custom Home Services,27523,(919) 201-8774,NC,183 Cookie Hill Ln,"183 Cookie Hill Ln, Apex, NC 27523","renovation services, Cary, North Carolina",
Kitchen Remodeler, NC 27612,B & D Bluewater Builders LLC,,(919) 422-1660,,Raleigh,"Raleigh, NC 27612","renovation services, Cary, North Carolina",http://www.bdbluewaterbuilders.com/
General Contractor, Raleigh,Greyhouse Inc,27603,(919) 834-7991,NC,702 W Jones St,"702 W Jones St, Raleigh, NC 27603","renovation services, Cary, North Carolina",http://www.greyhouseinc.com/
Construction Company, Raleigh,Renovation Specialists,27608,(919) 821-4525,NC,1501 Sunrise Ave,"1501 Sunrise Ave, Raleigh, NC 27608","renovation services, Cary, North Carolina",http://www.renovationspecs.com/
General Contractor, Raleigh,"Paragon Building Group, Inc.",27603,(919) 329-0006,NC,829 Purser Dr Suite A,"829 Purser Dr Suite A, Raleigh, NC 27603","renovation services, Cary, North Carolina",http://paragonbuildinggroup.com/
General Contractor, Cary,Ballard Construction,27513,(919) 678-8440,NC,1941 Evans Rd,"1941 Evans Rd, Cary, NC 27513","renovation services, Cary, North Carolina",http://ballardsports.com/
Electrician, Raleigh,Miller & Miller Electric Inc,27617,(919) 676-9292,NC,3121 Glen Royal Rd,"3121 Glen Royal Rd, Raleigh, NC 27617","renovation services, Cary, North Carolina",http://www.millerandmillerelectric.com/
Plumber, Raleigh,Pipetechs Plumbing,27617,(919) 293-1221,NC,6600 Mt Herman Rd,"6600 Mt Herman Rd, Raleigh, NC 27617","renovation services, Cary, North Carolina",http://www.pipetechsplumbing.com/
Contractor, Apex,Core Remodeling Group Inc,27539,(919) 608-3347,NC,1109 Classic Rd,"1109 Classic Rd, Apex, NC 27539","renovation services, Cary, North Carolina",http://www.coreremodeling.com/
Building Restoration Service, Raleigh,Relational Renovations,27609,(919) 373-3572,NC,4913 Professional Ct #6,"4913 Professional Ct #6, Raleigh, NC 27609","renovation services, Cary, North Carolina",http://relationalrenovations.com/
Siding Contractor, Raleigh,"Built Strong Renovations, LLC",27615,(919) 527-0034,NC,7413 Six Forks Rd,"7413 Six Forks Rd, Raleigh, NC 27615","renovation services, Cary, North Carolina",http://www.builtstrongrenovations.com/
Painter, Cary,Triangle Remodeling Services,27511,(919) 228-9498,NC,121 Town Creek Dr,"121 Town Creek Dr, Cary, NC 27511","renovation services, Cary, North Carolina",http://www.triangleremodeling.com/
Construction Company, Raleigh,Odell Building & Remodeling,27613,(919) 650-9224,NC,1B-4000 Cumming Cir,"1B-4000 Cumming Cir, Raleigh, NC 27613","renovation services, Cary, North Carolina",http://www.obrnc.com/
Carpenter, NC 27614,Chuck Shomo Renovation,,(919) 201-2035,,Raleigh,"Raleigh, NC 27614","renovation services, Cary, North Carolina",http://chuckshomorenovation.com/
Contractor, Apex,Core Remodeling Group Inc,27539,(919) 608-3347,NC,1109 Classic Rd,"1109 Classic Rd, Apex, NC 27539","renovation services, Cary, North Carolina",http://www.coreremodeling.com/
Siding Contractor, Raleigh,"Built Strong Renovations, LLC",27615,(919) 527-0034,NC,7413 Six Forks Rd,"7413 Six Forks Rd, Raleigh, NC 27615","renovation services, Cary, North Carolina",http://www.builtstrongrenovations.com/
Painter, Cary,Triangle Remodeling Services,27511,(919) 228-9498,NC,121 Town Creek Dr,"121 Town Creek Dr, Cary, NC 27511","renovation services, Cary, North Carolina",http://www.triangleremodeling.com/
Construction Company, Raleigh,Odell Building & Remodeling,27613,(919) 650-9224,NC,1B-4000 Cumming Cir,"1B-4000 Cumming Cir, Raleigh, NC 27613","renovation services, Cary, North Carolina",http://www.obrnc.com/
Carpenter, NC 27614,Chuck Shomo Renovation,,(919) 201-2035,,Raleigh,"Raleigh, NC 27614","renovation services, Cary, North Carolina",http://chuckshomorenovation.com/
Kitchen Remodeler, NC 27610,Renovatia,,(919) 441-2696,,Raleigh,"Raleigh, NC 27610","renovation services, Cary, North Carolina",http://www.renovatia.com/
General Contractor, Raleigh,Wood Wise Design & Remodeling,27617,(919) 783-9330,NC,3121 Glen Royal Rd # A,"3121 Glen Royal Rd # A, Raleigh, NC 27617","renovation services, Cary, North Carolina",http://www.woodwisedesign.com/
Kitchen Remodeler, Morrisville,Granite Transformations Raleigh-Durham,27560,(919) 466-9733,NC,115 Quail Fields Ct,"115 Quail Fields Ct, Morrisville, NC 27560","renovation services, Cary, North Carolina",http://www.granitetransformations.com/rdu
Kitchen Remodeler, Morrisville,Granite Transformations Raleigh-Durham,27560,(919) 466-9733,NC,115 Quail Fields Ct,"115 Quail Fields Ct, Morrisville, NC 27560","renovation services, Cary, North Carolina",http://www.granitetransformations.com/rdu
Kitchen Remodeler, Morrisville,Granite Transformations Raleigh-Durham,27560,(919) 466-9733,NC,115 Quail Fields Ct,"115 Quail Fields Ct, Morrisville, NC 27560","renovation services, Cary, North Carolina",http://www.granitetransformations.com/rdu
Kitchen Remodeler, Morrisville,Granite Transformations Raleigh-Durham,27560,(919) 466-9733,NC,115 Quail Fields Ct,"115 Quail Fields Ct, Morrisville, NC 27560","renovation services, Cary, North Carolina",http://www.granitetransformations.com/rdu
Kitchen Remodeler, Morrisville,Granite Transformations Raleigh-Durham,27560,(919) 466-9733,NC,115 Quail Fields Ct,"115 Quail Fields Ct, Morrisville, NC 27560","renovation services, Cary, North Carolina",http://www.granitetransformations.com/rdu
Kitchen Remodeler, Morrisville,Granite Transformations Raleigh-Durham,27560,(919) 466-9733,NC,115 Quail Fields Ct,"115 Quail Fields Ct, Morrisville, NC 27560","renovation services, Cary, North Carolina",http://www.granitetransformations.com/rdu
Kitchen Remodeler, Morrisville,Granite Transformations Raleigh-Durham,27560,(919) 466-9733,NC,115 Quail Fields Ct,"115 Quail Fields Ct, Morrisville, NC 27560","renovation services, Cary, North Carolina",http://www.granitetransformations.com/rdu
Kitchen Remodeler, Morrisville,Granite Transformations Raleigh-Durham,27560,(919) 466-9733,NC,115 Quail Fields Ct,"115 Quail Fields Ct, Morrisville, NC 27560","renovation services, Cary, North Carolina",http://www.granitetransformations.com/rdu
Kitchen Remodeler, Morrisville,Granite Transformations Raleigh-Durham,27560,(919) 466-9733,NC,115 Quail Fields Ct,"115 Quail Fields Ct, Morrisville, NC 27560","renovation services, Cary, North Carolina",http://www.granitetransformations.com/rdu
Kitchen Remodeler, Morrisville,Granite Transformations Raleigh-Durham,27560,(919) 466-9733,NC,115 Quail Fields Ct,"115 Quail Fields Ct, Morrisville, NC 27560","renovation services, Cary, North Carolina",http://www.granitetransformations.com/rdu
Kitchen Remodeler, Morrisville,Granite Transformations Raleigh-Durham,27560,(919) 466-9733,NC,115 Quail Fields Ct,"115 Quail Fields Ct, Morrisville, NC 27560","renovation services, Cary, North Carolina",http://www.granitetransformations.com/rdu
Kitchen Remodeler, Morrisville,Granite Transformations Raleigh-Durham,27560,(919) 466-9733,NC,115 Quail Fields Ct,"115 Quail Fields Ct, Morrisville, NC 27560","renovation services, Cary, North Carolina",http://www.granitetransformations.com/rdu
Kitchen Remodeler, Morrisville,Granite Transformations Raleigh-Durham,27560,(919) 466-9733,NC,115 Quail Fields Ct,"115 Quail Fields Ct, Morrisville, NC 27560","renovation services, Cary, North Carolina",http://www.granitetransformations.com/rdu
Building Restoration Service, CA 93591,R & B Construction,,(661) 400-0123,,Palmdale,"Palmdale, CA 93591","renovation services, Palmdale, California",http://www.homeimprovementantelopevalley.com/
General Contractor, Palmdale,"Economu Construction, Inc.",93550,(661) 265-9693,CA,35462 Sierra Hwy,"35462 Sierra Hwy, Palmdale, CA 93550","renovation services, Palmdale, California",http://www.economuconstruction.com/
Loan Agency, Palmdale,Springleaf Financial Services,93551,(661) 267-1157,CA,40008 10th St W Ste E,"40008 10th St W Ste E, Palmdale, CA 93551","renovation services, Palmdale, California",
Swimming Pool Repair Service, Palmdale,Barker's Pool Service & Repair,93550,(661) 810-5135,CA,38000 17th St E #21,"38000 17th St E #21, Palmdale, CA 93550","renovation services, Palmdale, California",http://barkerspoolsvc.com/services.php
Category,City,Company,Zipcode,Phone,State,Street,Address,SearchTerm,Website
General Contractor, VA 22302,Grimsley Renovations Inc.,,(202) 285-7189,,Alexandria,"Alexandria, VA 22302","renovation services, Alexandria, Virginia",http://www.grimsleyrenovations.com/
General Contractor, VA 22314,FSI Renovations,,(571) 223-5259,,Alexandria,"Alexandria, VA 22314","renovation services, Alexandria, Virginia",http://www.alexandriaremodelers.com/
General Contractor, VA 22314,FSI Renovations,,(571) 223-5259,,Alexandria,"Alexandria, VA 22314","renovation services, Alexandria, Virginia",http://www.alexandriaremodelers.com/
General Contractor, VA 22314,FSI Renovations,,(571) 223-5259,,Alexandria,"Alexandria, VA 22314","renovation services, Alexandria, Virginia",http://www.alexandriaremodelers.com/
Interior Designer, Alexandria,We-Remodel-It.com,22314,(703) 402-3194,VA,107 S West St,"107 S West St, Alexandria, VA 22314","renovation services, Alexandria, Virginia",http://www.we-remodel-it.com/
Construction Company, Alexandria,"Advanced Construction Group, LLC",22314,(703) 813-5554,VA,1112 N Fairfax St,"1112 N Fairfax St, Alexandria, VA 22314","renovation services, Alexandria, Virginia",http://www.advancedconstructgroup.com/
Handyman, Alexandria,House Doctors,22314,(703) 683-1000,VA,218 N Lee St #100,"218 N Lee St #100, Alexandria, VA 22314","renovation services, Alexandria, Virginia",http://www.housedoctors.com/
Contractor, Alexandria,"Foster Remodeling Solutions, Inc.",22314,(703) 436-2592,VA,111 S Alfred St,"111 S Alfred St, Alexandria, VA 22314","renovation services, Alexandria, Virginia",http://www.fosterremodeling.com/
General Contractor, Alexandria,Constructive Inc,22301,(703) 548-3808,VA,2101 Mt Vernon Ave # A,"2101 Mt Vernon Ave # A, Alexandria, VA 22301","renovation services, Alexandria, Virginia",http://www.constructiveinc.com/
General Contractor, Alexandria,DW Dively Construction Services,22301,(703) 299-8929,VA,2107 Mt Vernon Ave,"2107 Mt Vernon Ave, Alexandria, VA 22301","renovation services, Alexandria, Virginia",http://www.dwdconstruction.com/
,,,,,,,,,
,,,,,,,,,
,,,,,,,,,
,,,,,,,,,
,,,,,,,,,
,,,,,,,,,
,,,,,,,,,
,,,,,,,,,
,,,,,,,,,
,,,,,,,,,
,,,,,,,,,
,,,,,,,,,
,,,,,,,,,
,,,,,,,,,
,,,,,,,,,
,,,,,,,,,
,,,,,,,,,
,,,,,,,,,
,,,,,,,,,
,,,,,,,,,
,,,,,,,,,
,,,,,,,,,
,,,,,,,,,
,,,,,,,,,
,,,,,,,,,
,,,,,,,,,
,,,,,,,,,
,,,,,,,,,
,,,,,,,,,
,,,,,,,,,
,,,,,,,,,
,,,,,,,,,
,,,,,,,,,
,,,,,,,,,
,,,,,,,,,
,,,,,,,,,
,,,,,,,,,
,,,,,,,,,
,,,,,,,,,
,,,,,,,,,
,,,,,,,,,
,,,,,,,,,
,,,,,,,,,
,,,,,,,,,
,,,,,,,,,
,,,,,,,,,
,,,,,,,,,
,,,,,,,,,
,,,,,,,,,
,,,,,,,,,
,,,,,,,,,
,,,,,,,,,
,,,,,,,,,
,,,,,,,,,
,,,,,,,,,
,,,,,,,,,
,,,,,,,,,
,,,,,,,,,
,,,,,,,,,
,,,,,,,,,
,,,,,,,,,
,,,,,,,,,
,,,,,,,,,
,,,,,,,,,
,,,,,,,,,
,,,,,,,,,
,,,,,,,,,
,,,,,,,,,
,,,,,,,,,
,,,,,,,,,
,,,,,,,,,
,,,,,,,,,
,,,,,,,,,
,,,,,,,,,
,,,,,,,,,
,,,,,,,,,
,,,,,,,,,
,,,,,,,,,
,,,,,,,,,
,,,,,,,,,
,,,,,,,,,
,,,,,,,,,
,,,,,,,,,
,,,,,,,,,
,,,,,,,,,
,,,,,,,,,
,,,,,,,,,
,,,,,,,,,
,,,,,,,,,
,,,,,,,,,
Property Management Company, Tustin,Irvine Property Management,92780,+1 949-679-0440,CA,14701 Myford Rd,"14701 Myford Rd, Tustin, CA 92780, United States","property management, Irvine, California",http://www.irvinepropertymanagement.net/
Property Management Company, Irvine,Athena Property Management,92606,+1 949-398-8750,CA,16795 Von Karman Ave Suite 200,"16795 Von Karman Ave Suite 200, Irvine, CA 92606, United States","property management, Irvine, California",http://www.athena-pm.com/
Property Management Company, vonkarman Plaza,Keystone Pacific Property Management,Von,+1 949-833-2600,16775,Von Karman Plaza,"Von Karman Plaza, vonkarman Plaza, 16775 Von Karman Ave #100, Irvine, CA 92606, United States","property management, Irvine, California",http://www.keystonepacific.com/
Corporate Office, Irvine,PowerStone Property Management,92618,+1 949-716-3998,CA,9060 Irvine Center Dr #200,"9060 Irvine Center Dr #200, Irvine, CA 92618, United States","property management, Irvine, California",http://www.powerstonepm.com/#cid=glbc
Property Management Company, Irvine,Villageway Property Management,92618,+1 949-450-1515,CA,2 Venture #500,"2 Venture #500, Irvine, CA 92618, United States","property management, Irvine, California",http://villageway.com/
Property Management Company, Irvine,FirstService Residential,92618,+1 949-448-6000,CA,15241 Laguna Canyon Rd,"15241 Laguna Canyon Rd, Irvine, CA 92618, United States","property management, Irvine, California",http://www.fsr-california.com/Contents/Local/Orange-County.aspx
Property Management Company, Irvine,"Total Property Management, Inc.",92612,+1 800-660-6468,CA,2301 Dupont Dr #100,"2301 Dupont Dr #100, Irvine, CA 92612, United States","property management, Irvine, California",http://www.totalpm.com/
Property Management Company, Irvine,"Total Property Management, Inc.",92612,+1 800-660-6468,CA,2301 Dupont Dr #100,"2301 Dupont Dr #100, Irvine, CA 92612, United States","property management, Irvine, California",http://www.totalpm.com/
Property Management Company, Irvine,"Total Property Management, Inc.",92612,+1 800-660-6468,CA,2301 Dupont Dr #100,"2301 Dupont Dr #100, Irvine, CA 92612, United States","property management, Irvine, California",http://www.totalpm.com/
Property Management Company, Irvine,"Total Property Management, Inc.",92612,+1 800-660-6468,CA,2301 Dupont Dr #100,"2301 Dupont Dr #100, Irvine, CA 92612, United States","property management, Irvine, California",http://www.totalpm.com/
Property Management Company, Irvine,"Total Property Management, Inc.",92612,+1 800-660-6468,CA,2301 Dupont Dr #100,"2301 Dupont Dr #100, Irvine, CA 92612, United States","property management, Irvine, California",http://www.totalpm.com/
Property Management Company, Irvine,"Total Property Management, Inc.",92612,+1 800-660-6468,CA,2301 Dupont Dr #100,"2301 Dupont Dr #100, Irvine, CA 92612, United States","property management, Irvine, California",http://www.totalpm.com/
Property Management Company, Irvine,"Total Property Management, Inc.",92612,+1 800-660-6468,CA,2301 Dupont Dr #100,"2301 Dupont Dr #100, Irvine, CA 92612, United States","property management, Irvine, California",http://www.totalpm.com/
Property Management Company, Irvine,"Total Property Management, Inc.",92612,+1 800-660-6468,CA,2301 Dupont Dr #100,"2301 Dupont Dr #100, Irvine, CA 92612, United States","property management, Irvine, California",http://www.totalpm.com/
Property Management Company, Irvine,"Total Property Management, Inc.",92612,+1 800-660-6468,CA,2301 Dupont Dr #100,"2301 Dupont Dr #100, Irvine, CA 92612, United States","property management, Irvine, California",http://www.totalpm.com/
Property Management Company, Irvine,"Total Property Management, Inc.",92612,+1 800-660-6468,CA,2301 Dupont Dr #100,"2301 Dupont Dr #100, Irvine, CA 92612, United States","property management, Irvine, California",http://www.totalpm.com/
Property Management Company, Irvine,"Total Property Management, Inc.",92612,+1 800-660-6468,CA,2301 Dupont Dr #100,"2301 Dupont Dr #100, Irvine, CA 92612, United States","property management, Irvine, California",http://www.totalpm.com/
Property Management Company, Irvine,"Total Property Management, Inc.",92612,+1 800-660-6468,CA,2301 Dupont Dr #100,"2301 Dupont Dr #100, Irvine, CA 92612, United States","property management, Irvine, California",http://www.totalpm.com/
Property Management Company, Irvine,"Total Property Management, Inc.",92612,+1 800-660-6468,CA,2301 Dupont Dr #100,"2301 Dupont Dr #100, Irvine, CA 92612, United States","property management, Irvine, California",http://www.totalpm.com/
Property Management Company, Irvine,"Total Property Management, Inc.",92612,+1 800-660-6468,CA,2301 Dupont Dr #100,"2301 Dupont Dr #100, Irvine, CA 92612, United States","property management, Irvine, California",http://www.totalpm.com/
Property Management Company, St. Petersburg,Dean & DeWitt Property Management,33713,+1 727-820-0352,FL,2852 20th Ave N,"2852 20th Ave N, St. Petersburg, FL 33713, United States","property management, St. Petersburg, Florida",http://www.rentinstpete.com/
Property Management Company, St. Petersburg,All County® Suncoast Property Management,33710,+1 727-541-2578,FL,5922 9th Ave N,"5922 9th Ave N, St. Petersburg, FL 33710, United States","property management, St. Petersburg, Florida",http://allcountysuncoast.com/
Property Management Company, St. Petersburg,"Rex Rentals & Realty, Inc.",33713,+1 727-867-3767,FL,3110 1st Ave N #2n,"3110 1st Ave N #2n, St. Petersburg, FL 33713, United States","property management, St. Petersburg, Florida",http://www.rexrentals.com/
Real Estate Rental Agency, St. Petersburg,Rental Marketing Solutions,33713,+1 727-821-1999,FL,4700 9th Ave N,"4700 9th Ave N, St. Petersburg, FL 33713, United States","property management, St. Petersburg, Florida",http://www.rmselite.com/
Property Management Company, St. Petersburg,HHT Property Management,33701,+1 727-456-0413,FL,201 2nd Ave N,"201 2nd Ave N, St. Petersburg, FL 33701, United States","property management, St. Petersburg, Florida",http://www.hhtpropertymanagement.com/
Real Estate Agency, St. Petersburg,Tourtelot Property Management and Leasing,33710,+1 727-345-6006,FL,3000 66th St N,"3000 66th St N, St. Petersburg, FL 33710, United States","property management, St. Petersburg, Florida",http://tourtelotpm.com/
Real Estate Agency, St. Petersburg,Resource Property Management,33715,+1 727-864-0004,FL,5901 Sun Blvd #103,"5901 Sun Blvd #103, St. Petersburg, FL 33715, United States","property management, St. Petersburg, Florida",http://www.resourcepropertymgmt.com/
Property Management Company, St. Petersburg,Garco Property Management,33713,+1 727-328-9881,FL,3434 17th Ave N,"3434 17th Ave N, St. Petersburg, FL 33713, United States","property management, St. Petersburg, Florida",
Property Management Company, St. Petersburg,Terrier Management LLC,33701,+1 727-895-6090,FL,345 5th Ave N,"345 5th Ave N, St. Petersburg, FL 33701, United States","property management, St. Petersburg, Florida",http://www.terrierproperties.com/
Property Management Company, St. Petersburg,Rampart Properties,33702,,FL,9887 4th St N,"9887 4th St N, St. Petersburg, FL 33702, United States","property management, St. Petersburg, Florida",
Property Management Company, FL 33701,"Property Management Professionals of Florida, LLC",States,+1 727-851-9511,United,St. Petersburg,"St. Petersburg, FL 33701, United States","property management, St. Petersburg, Florida",http://www.residentialrentalsfl.com/
Property Management Company, St. Petersburg,Alliance Property Services Inc,33710,+1 727-578-2626,FL,5440 1st Ave N,"5440 1st Ave N, St. Petersburg, FL 33710, United States","property management, St. Petersburg, Florida",http://www.alliance-realtor.com/
, St. Petersburg,Compass Rental Management,33715,+1 727-866-7368,FL,5901 Sun Blvd,"5901 Sun Blvd, St. Petersburg, FL 33715, United States","property management, St. Petersburg, Florida",http://www.compassrentals.com/
Property Management Company, St. Petersburg,Affordable Realty,33712,+1 727-328-8070,FL,2900 18th Ave S,"2900 18th Ave S, St. Petersburg, FL 33712, United States","property management, St. Petersburg, Florida",http://www.affordablerealtyrental.com/
Real Estate Agency, St. Petersburg,Russell Property Group,33713,+1 727-323-4400,FL,2950 1st Ave N,"2950 1st Ave N, St. Petersburg, FL 33713, United States","property management, St. Petersburg, Florida",http://russellpg.com/
Property Management Company, St. Petersburg,Holladay Properties,33701,+1 727-894-1359,FL,601 7th St S,"601 7th St S, St. Petersburg, FL 33701, United States","property management, St. Petersburg, Florida",http://www.holladayproperties.com/
Condominium Rental Agency, St Pete Beach,Rent Solutions,33706,+1 727-420-6973,FL,263 Corey Ave,"263 Corey Ave, St Pete Beach, FL 33706, United States","property management, St. Petersburg, Florida",http://www.rentsolutions.com/
Property Management Company, St. Petersburg,Osprey Management,33701,+1 727-894-5200,FL,360 Central Ave,"360 Central Ave, St. Petersburg, FL 33701, United States","property management, St. Petersburg, Florida",
Property Management Company, St. Petersburg,FirstService Residential,33716,+1 727-299-9555,FL,2870 Scherer Dr #100,"2870 Scherer Dr #100, St. Petersburg, FL 33716, United States","property management, St. Petersburg, Florida",http://www.fsresidential.com/Florida
Property Management Company, St. Petersburg,Investors Choice Realty - St Petersburg Property Management,33712,+1 727-317-6999,FL,2932 Central Ave,"2932 Central Ave, St. Petersburg, FL 33712, United States","property management, St. Petersburg, Florida",http://investorschoicestpete.com/
Commercial Real Estate Agency, St. Petersburg,Pridgen Realty,33716,+1 727-577-5390,FL,9700 16th St N,"9700 16th St N, St. Petersburg, FL 33716, United States","property management, St. Petersburg, Florida",http://pridgenrealty.com/
Commercial Real Estate Agency, St. Petersburg,Plaza Tower and Courtyard Shops,33701,+1 727-821-4989,FL,111 2nd Ave NE,"111 2nd Ave NE, St. Petersburg, FL 33701, United States","property management, St. Petersburg, Florida",http://www.kalyvasgroupllc.com/
Property Management Company, St. Petersburg,Professional Bayway Management,33716,+1 727-866-3115,FL,970 Lake Carillon Dr # 102,"970 Lake Carillon Dr # 102, St. Petersburg, FL 33716, United States","property management, St. Petersburg, Florida",http://www.pbmfla.com/
Property Management Company, St. Petersburg,"Burton Carol Management, LLC",33702,+1 727-577-3730,FL,503 77th Ave N #106,"503 77th Ave N #106, St. Petersburg, FL 33702, United States","property management, St. Petersburg, Florida",http://www.burtoncarol.com/Home/Contact.aspx
Property Management Company, St. Petersburg,Ancher Property Management,33701,+1 727-822-0699,FL,932 Crescent Lake Dr N,"932 Crescent Lake Dr N, St. Petersburg, FL 33701, United States","property management, St. Petersburg, Florida",
Property Management Company, St. Petersburg,Rent a Home With Us - Property Management,33701,+1 727-914-7575,FL,100 Beach Dr NE #101,"100 Beach Dr NE #101, St. Petersburg, FL 33701, United States","property management, St. Petersburg, Florida",http://www.rentahomewithus.com/
Property Management Company, St. Petersburg,Rent Manage St Pete: Keller Williams Gulf Coast,33701,+1 727-515-0274,FL,70 Beach Dr NE,"70 Beach Dr NE, St. Petersburg, FL 33701, United States","property management, St. Petersburg, Florida",http://rentmanagestpete.com/
Commercial Real Estate Agency, St. Petersburg,Vector Commercial Real Estates Services,33701,+1 727-823-1230,FL,125 5th St S,"125 5th St S, St. Petersburg, FL 33701, United States","property management, St. Petersburg, Florida",http://www.vectorrealty.com/
Real Estate Agency, St. Petersburg,"MC Homes Realty, Inc.",33704,+1 727-432-2181,FL,2100 4th St N,"2100 4th St N, St. Petersburg, FL 33704, United States","property management, St. Petersburg, Florida",http://www.mchomesrealty.com/
Real Estate Agency, St. Petersburg,Coldwell Banker - St. Pete Northeast,33704,+1 727-822-9111,FL,3401 4th St N,"3401 4th St N, St. Petersburg, FL 33704, United States","property management, St. Petersburg, Florida",http://www.floridamoves.com/StPeteNe/?utm_source=BLM&utm_medium=organic&utm_campaign=StPeteNortheast
Property Management Company, St. Petersburg,Becky Saylor Property Manager LLC,33713,+1 727-498-8530,FL,4158 5th Ave N,"4158 5th Ave N, St. Petersburg, FL 33713, United States","property management, St. Petersburg, Florida",http://www.wemanagetampabay.com/
, St. Petersburg,Capalbo Rental & Management Corporation.,33711,+1 727-866-2494,FL,4700 34th St S,"4700 34th St S, St. Petersburg, FL 33711, United States","property management, St. Petersburg, Florida",http://capalborental.com/
Property Management Company, St. Petersburg,Cardinal Point Management,33716,+1 813-223-6540,FL,11300 4th St N #250,"11300 4th St N #250, St. Petersburg, FL 33716, United States","property management, St. Petersburg, Florida",http://www.cardinalpointmanagement.com/
Property Management Company, FL 33711,Edge Real Estate,States,+1 727-323-3343,United,St. Petersburg,"St. Petersburg, FL 33711, United States","property management, St. Petersburg, Florida",
Property Management Company, St. Petersburg,Professional Property Maintenance,33708,+1 727-367-7767,FL,5100 95th St N #6,"5100 95th St N #6, St. Petersburg, FL 33708, United States","property management, St. Petersburg, Florida",http://www.proproman.com/
Real Estate Agency, St. Petersburg,Coldwell Banker - St. Petersburg Central,33710,+1 727-381-2345,FL,3325 66th St N,"3325 66th St N, St. Petersburg, FL 33710, United States","property management, St. Petersburg, Florida",http://www.floridamoves.com/StPetersburgCentral/?utm_source=BLM&utm_medium=organic&utm_campaign=StPetersburgCentral
Property Management Company, St. Petersburg,C & S Community Management,33701,+1 727-456-0027,FL,111 2nd Ave NE #900,"111 2nd Ave NE #900, St. Petersburg, FL 33701, United States","property management, St. Petersburg, Florida",http://www.cscmsi.com/
Business Management Consultant, St. Petersburg,Southwind Hotels and Resorts,33710,+1 727-803-6926,FL,6295 Central Ave,"6295 Central Ave, St. Petersburg, FL 33710, United States","property management, St. Petersburg, Florida",http://www.southwindhospitality.com/
Real Estate Agency, St. Petersburg,Frank T Hurley Associates Inc,33706,+1 727-367-1949,FL,2506 Pass a Grille Way,"2506 Pass a Grille Way, St. Petersburg, FL 33706, United States","property management, St. Petersburg, Florida",http://www.hurley-associates.com/
Real Estate Agency, St. Petersburg,Echelon LLC,33716,+1 727-573-1806,FL,970 Lake Carillon Dr # 106,"970 Lake Carillon Dr # 106, St. Petersburg, FL 33716, United States","property management, St. Petersburg, Florida",http://www.echelonre.com/
Property Management Company, St. Petersburg,Rental Link,33701,+1 727-623-9944,FL,216 Mirror Lake Dr N,"216 Mirror Lake Dr N, St. Petersburg, FL 33701, United States","property management, St. Petersburg, Florida",http://www.rentallinkonline.com/
Property Management Company, Pinellas Park,Advanced Property Management,33781,+1 727-548-8550,FL,4970 Park Blvd N,"4970 Park Blvd N, Pinellas Park, FL 33781, United States","property management, St. Petersburg, Florida",http://www.advancedpropertymanagement.com/
Real Estate Agency, St. Petersburg,Re/Max Metro,33701,+1 727-896-1800,FL,150 2nd Ave N #100,"150 2nd Ave N #100, St. Petersburg, FL 33701, United States","property management, St. Petersburg, Florida",http://www.stpeterealty.net/
Property Management Company, St. Petersburg,Baypoint Commerce Center,33702,+1 727-576-6818,FL,877 Executive Center Dr W,"877 Executive Center Dr W, St. Petersburg, FL 33702, United States","property management, St. Petersburg, Florida",http://www.baypointcommerce.com/
Real Estate Agency, St. Petersburg,Smith & Associates Real Estate,33701,+1 727-342-3800,FL,1100 4th St N,"1100 4th St N, St. Petersburg, FL 33701, United States","property management, St. Petersburg, Florida",http://www.smithandassociates.com/
Property Management Company, St. Petersburg,Rigo Rentals & Sales,33701,+1 727-894-7446,FL,280 Beach Dr NE,"280 Beach Dr NE, St. Petersburg, FL 33701, United States","property management, St. Petersburg, Florida",http://www.shirleyrigo.com/
Real Estate Agency, Treasure Island,Sandcastle Realty Inc,33706,+1 727-367-1223,FL,201 108th Ave,"201 108th Ave, Treasure Island, FL 33706, United States","property management, St. Petersburg, Florida",http://sandcastlerealtyinc.com/
Apartment Building, St. Petersburg,The Beacon on Third,33701,+1 727-894-5454,FL,470 3rd St S #101,"470 3rd St S #101, St. Petersburg, FL 33701, United States","property management, St. Petersburg, Florida",http://www.thebeacononthird.com/
Apartment Building, St. Petersburg,Inlet Bay at Gateway,33716,+1 727-592-8210,FL,12000 4th St N,"12000 4th St N, St. Petersburg, FL 33716, United States","property management, St. Petersburg, Florida",http://www.inletbay.com/?PPC=LS
Apartment Rental Agency, St. Petersburg,Lakeshore Apartments,33710,+1 727-345-1407,FL,7045 30th Ave N #19,"7045 30th Ave N #19, St. Petersburg, FL 33710, United States","property management, St. Petersburg, Florida",http://hendricksapartments.com/
Property Management Company, St Pete Beach,Berkshire Hathaway Property Management,33706,+1 727-687-0555,FL,6800 Gulf Blvd,"6800 Gulf Blvd, St Pete Beach, FL 33706, United States","property management, St. Petersburg, Florida",http://jnix.bhhsfloridaproperties.com/
Property Management Company, St. Petersburg,Realty Management Enterprises,33710,+1 727-345-4584,FL,6228 4th Ave N,"6228 4th Ave N, St. Petersburg, FL 33710, United States","property management, St. Petersburg, Florida",
Property Management Company, St. Petersburg,Pelican Property Inspections,33702,+1 727-556-0542,FL,9723 Oak St NE,"9723 Oak St NE, St. Petersburg, FL 33702, United States","property management, St. Petersburg, Florida",http://www.pelicaninspections.com/
Apartment Building, St. Petersburg,Avesta Woodlawn Park Apartments,33713,+1 727-361-1422,FL,1646 18th Ave N,"1646 18th Ave N, St. Petersburg, FL 33713, United States","property management, St. Petersburg, Florida",http://www.avestawoodlawnpark.com/
Vacation Home Rental Agency, St Pete Beach,Resort Realty / Resort Rentals,33706,+1 727-363-3336,FL,8010 Blind Pass Rd,"8010 Blind Pass Rd, St Pete Beach, FL 33706, United States","property management, St. Petersburg, Florida",http://www.resortrentals.us/
Property Management Company, St. Petersburg,Rent a Home With Us - Property Management,33704,+1 727-828-8602,FL,2300 4th St N,"2300 4th St N, St. Petersburg, FL 33704, United States","property management, St. Petersburg, Florida",http://www.rentahomewithus.com/
Property Management Company, St Pete Beach,Brixmor LLC,33706,+1 727-363-8441,FL,4615 Gulf Blvd,"4615 Gulf Blvd, St Pete Beach, FL 33706, United States","property management, St. Petersburg, Florida",http://www.brixmor.com/
Apartment Building, Gulfport,Seaside Villas,33707,+1 727-341-0186,FL,3205 58th St S,"3205 58th St S, Gulfport, FL 33707, United States","property management, St. Petersburg, Florida",http://www.mckinley.com/seaside-villas
Real Estate Agency, Gulfport,Sail Away Realty,33707,+1 727-384-6776,FL,3037 Beach Blvd S,"3037 Beach Blvd S, Gulfport, FL 33707, United States","property management, St. Petersburg, Florida",http://www.sailawayrealty.net/
Property Management Company, St Pete Beach,Rent a Home With Us - Property Management,33706,+1 727-258-6779,FL,6800 Gulf Blvd,"6800 Gulf Blvd, St Pete Beach, FL 33706, United States","property management, St. Petersburg, Florida",http://www.rentahomewithus.com/
Business Management Consultant, St. Petersburg,Sky Hospitality LLC,33710,+1 727-576-5167,FL,5999 Central Ave #302,"5999 Central Ave #302, St. Petersburg, FL 33710, United States","property management, St. Petersburg, Florida",http://www.skyhospitality.com/
Property Management Company, St. Petersburg,Echelon Development LLC,33701,+1 727-803-8200,FL,235 3rd St S #300,"235 3rd St S #300, St. Petersburg, FL 33701, United States","property management, St. Petersburg, Florida",http://echelonre.com/
Real Estate Agency, St. Petersburg,KELLER WILLIAMS,33701,+1 727-238-7653,FL,70 Beach Dr NE,"70 Beach Dr NE, St. Petersburg, FL 33701, United States","property management, St. Petersburg, Florida",http://www.historicstpete.com/
Property Management Company, St. Petersburg,Parthenon Apartments,33710,+1 727-345-9100,FL,3720 76th St N,"3720 76th St N, St. Petersburg, FL 33710, United States","property management, St. Petersburg, Florida",
Real Estate Agency, St. Petersburg,Smith & Associates Real Estate,33701,+1 727-342-3800,FL,330 Beach Dr NE,"330 Beach Dr NE, St. Petersburg, FL 33701, United States","property management, St. Petersburg, Florida",http://www.smithandassociates.com/
, Treasure Island,Liberte Management Group,33706,+1 727-360-2006,FL,118 107th Ave,"118 107th Ave, Treasure Island, FL 33706, United States","property management, St. Petersburg, Florida",http://www.libertemanagement.com/
Property Management Company, FL 33701,Rental Link Llc,States,+1 727-822-6200,United,St. Petersburg,"St. Petersburg, FL 33701, United States","property management, St. Petersburg, Florida",http://www.rentallinkonline.com/
Property Management Company, Pinellas Park,Sembler Co Park Sixty Six,33781,+1 727-541-5674,FL,7450 66th St N,"7450 66th St N, Pinellas Park, FL 33781, United States","property management, St. Petersburg, Florida",
Real Estate Agency, Treasure Island,Re/Max:Keyvan Kohan,33706,+1 727-204-5001,FL,153 107th Ave,"153 107th Ave, Treasure Island, FL 33706, United States","property management, St. Petersburg, Florida",http://www.suncoasthome.com/
, Madeira Beach,Johns Pass Condos,33708,+1 727-394-0234,FL,12924 Gulf Blvd,"12924 Gulf Blvd, Madeira Beach, FL 33708, United States","property management, St. Petersburg, Florida",http://www.johnspasscondos.com/
Property Management Company, Seminole,Resource Property Management,33777,+1 727-581-2662,FL,7300 Park St,"7300 Park St, Seminole, FL 33777, United States","property management, St. Petersburg, Florida",http://www.resourcepropertymgmt.com/
Corporate Campus, St. Petersburg,Sembler Co,33707,+1 727-384-6000,FL,5858 Central Ave,"5858 Central Ave, St. Petersburg, FL 33707, United States","property management, St. Petersburg, Florida",http://www.sembler.com/
Insurance Agency, St. Petersburg,United Property & Casualty Insurance,33701,+1 727-895-7737,FL,800 2nd Ave S,"800 2nd Ave S, St. Petersburg, FL 33701, United States","property management, St. Petersburg, Florida",http://www.upcinsurance.com/
Real Estate Agency, St. Petersburg,United Dominion Realty Tr,33716,+1 727-576-4660,FL,12000 4th St N,"12000 4th St N, St. Petersburg, FL 33716, United States","property management, St. Petersburg, Florida",
Property Management Company, Tampa,Real Property Management Tampa St. Pete,33629,+1 813-445-4600,FL,3222 S Dale Mabry Hwy,"3222 S Dale Mabry Hwy, Tampa, FL 33629, United States","property management, St. Petersburg, Florida",http://www.tampa-st-pete.realpropertymgt.com/
Apartment Building, Pinellas Park,Sugar Mill Creek,33781,+1 727-546-0588,FL,8500 Belcher Rd,"8500 Belcher Rd, Pinellas Park, FL 33781, United States","property management, St. Petersburg, Florida",http://www.sugarmillcreekapts.com/
Property Management Company, Largo,All County First Choice Property Management,33773,+1 727-614-0076,FL,11701 Belcher Rd #101-A,"11701 Belcher Rd #101-A, Largo, FL 33773, United States","property management, St. Petersburg, Florida",http://www.allcountyfirstchoice.com/home
Non-Profit Organization, St. Petersburg,Community Associations Institute,33710,+1 727-345-0165,FL,6528 Central Ave,"6528 Central Ave, St. Petersburg, FL 33710, United States","property management, St. Petersburg, Florida",
, 7985 113th Street North,Sea Gull Realty,335,+1 727-596-1621,Suite,Seminole Mall,"Seminole Mall, 7985 113th Street North, Suite 335, Seminole, FL 33772, United States","property management, St. Petersburg, Florida",http://www.seagullrealty.com/
Property Management Company, Tampa,Hoffman Realty LLC,33609,+1 813-875-7474,FL,3900 W Dale Ave,"3900 W Dale Ave, Tampa, FL 33609, United States","property management, St. Petersburg, Florida",http://www.hoffmanrealty.com/
Property Management Company, Chandler,PRS Property Management,85226,+1 480-838-3500,AZ,4129 W Milky Way,"4129 W Milky Way, Chandler, AZ 85226, United States","property management, Chandler, Arizona",http://www.prsrentals.com/
Property Management Company, Chandler,Arizona Living Property Management,85225,+1 480-855-5134,AZ,845 E Warner Rd # 100,"845 E Warner Rd # 100, Chandler, AZ 85225, United States","property management, Chandler, Arizona",http://www.arizonalivingpm.com/
Property Management Company, Chandler,Desert Wide Properties Inc.,85224,+1 480-838-6631,AZ,3330 N Dobson Rd Suite 3,"3330 N Dobson Rd Suite 3, Chandler, AZ 85224, United States","property management, Chandler, Arizona",http://www.desertwide.com/
Property Management Company, Chandler,Marsh Management & Real Estate,85249,+1 480-345-1590,AZ,5980 S Cooper Rd #3,"5980 S Cooper Rd #3, Chandler, AZ 85249, United States","property management, Chandler, Arizona",http://marshmanagement.net/
Property Management Company, Chandler,Desert Wind Property Management,85225,+1 480-812-0123,AZ,1820 E Ray Rd,"1820 E Ray Rd, Chandler, AZ 85225, United States","property management, Chandler, Arizona",http://www.desertwindpm.com/
Property Management Company, Chandler,First Sonoran Property Management,85286,+1 602-910-6787,AZ,1490 S Price Rd #208,"1490 S Price Rd #208, Chandler, AZ 85286, United States","property management, Chandler, Arizona",
Property Management Company, AZ 85224,DDL Property Managment,States,+1 480-347-5186,United,Chandler,"Chandler, AZ 85224, United States","property management, Chandler, Arizona",http://www.ddlproperties.com/
Property Management Company, Chandler,Premier Community Management,85248,+1 480-704-2900,AZ,3930 S Alma School Rd,"3930 S Alma School Rd, Chandler, AZ 85248, United States","property management, Chandler, Arizona",http://www.premieraz.com/
Property Management Company, Chandler,Metro Property Services,85225,+1 480-967-7182,AZ,150 E Alamo Dr # 3,"150 E Alamo Dr # 3, Chandler, AZ 85225, United States","property management, Chandler, Arizona",http://www.metropropertyservicesaz.com/
Property Management Company, Chandler,R.S.V.P. Realty,85224,+1 480-838-3898,AZ,1405 N Dobson Rd,"1405 N Dobson Rd, Chandler, AZ 85224, United States","property management, Chandler, Arizona",http://www.rsvprealty.com/
Property Management Company, Chandler,Dwellworks Property Management,85225,+1 480-899-7222,AZ,25 S Arizona Pl # 400,"25 S Arizona Pl # 400, Chandler, AZ 85225, United States","property management, Chandler, Arizona",
Property Management Company, Chandler,Apex Property Management,85225,+1 480-782-5351,AZ,1210 N Leoma Ct,"1210 N Leoma Ct, Chandler, AZ 85225, United States","property management, Chandler, Arizona",
Property Management Company, Chandler,Spectrum Association Management,85286,+1 480-719-4524,AZ,1850 E Northrop Blvd #140,"1850 E Northrop Blvd #140, Chandler, AZ 85286, United States","property management, Chandler, Arizona",http://spectrumam.com/phoenix-hoa-management/
Real Estate Developer, Chandler,Home Invest : Murdock Dennis,86286,+1 480-786-5339,AZ,2450 S Arizona Ave #1,"2450 S Arizona Ave #1, Chandler, AZ 86286, United States","property management, Chandler, Arizona",http://www.homeinvest.org/
Property Management Company, Chandler,CB Richard Ellis,85226,+1 480-899-7681,AZ,3100 W Ray Rd # 100,"3100 W Ray Rd # 100, Chandler, AZ 85226, United States","property management, Chandler, Arizona",
Property Management Company, Chandler,The Spectrum Group at West USA Realty Revelation,85248,+1 480-382-0115,AZ,4050 S Arizona Ave,"4050 S Arizona Ave, Chandler, AZ 85248, United States","property management, Chandler, Arizona",http://www.spectrumgroupaz.com/
Property Management Company, Chandler,Arizona Advantage Properties,85248,+1 480-444-7234,AZ,3910 S Alma School Rd Ste 1,"3910 S Alma School Rd Ste 1, Chandler, AZ 85248, United States","property management, Chandler, Arizona",http://www.rentyourazhome.com/
Property Management Company, Gilbert,Mosaic Properties,85297,+1 480-588-9500,AZ,1482 E Williams Field Rd #104,"1482 E Williams Field Rd #104, Gilbert, AZ 85297, United States","property management, Chandler, Arizona",http://www.mosaicpropertiesaz.com/
