Category,City,Company,Zipcode,Phone,State,Street,Address,SearchTerm,Website
General Contractor, Fort Wayne,Renovation Planning & Management,46805,+1 260-480-0100,IN,3511 Eleanor Ave,"3511 Eleanor Ave, Fort Wayne, IN 46805, United States","renovation services, Fort Wayne, Indiana",
Construction Company, Fort Wayne,American Renovations Inc,46804,+1 260-459-9550,IN,4405 Engle Rd,"4405 Engle Rd, Fort Wayne, IN 46804, United States","renovation services, Fort Wayne, Indiana",http://www.americanrenovations.com/
Contractor, IN 46809,Premier Construction & Renovations LLC,States,+1 260-615-0132,United,Fort Wayne,"Fort Wayne, IN 46809, United States","renovation services, Fort Wayne, Indiana",http://premierconstructionfw.com/
General Contractor, Fort Wayne,Birkmeier Renovation Inc,46807,+1 260-745-1999,IN,4404 Beaver Ave,"4404 Beaver Ave, Fort Wayne, IN 46807, United States","renovation services, Fort Wayne, Indiana",
Bathroom Remodeler, IN 46825,Koch Renovations,States,+1 260-760-8005,United,Fort Wayne,"Fort Wayne, IN 46825, United States","renovation services, Fort Wayne, Indiana",http://kochrenovations.com/
General Contractor, Fort Wayne,Miracle Contracting,46805,+1 260-483-8108,IN,507 Constance Ave,"507 Constance Ave, Fort Wayne, IN 46805, United States","renovation services, Fort Wayne, Indiana",http://www.miraclecontracting.net/
General Contractor, Fort Wayne,Evergreen Remodeling Inc.,46815,+1 260-492-0159,IN,4006 Goeglein Rd,"4006 Goeglein Rd, Fort Wayne, IN 46815, United States","renovation services, Fort Wayne, Indiana",http://www.evergreen-remodeling.com/
General Contractor, Fort Wayne,E & R Contracting,46809,+1 260-747-5508,IN,4335 Earth Dr,"4335 Earth Dr, Fort Wayne, IN 46809, United States","renovation services, Fort Wayne, Indiana",http://www.ercontracting.net/
General Contractor, Fort Wayne,Mike's Home Improvement,46804,+1 260-416-2067,IN,6435 W Jefferson Blvd,"6435 W Jefferson Blvd, Fort Wayne, IN 46804, United States","renovation services, Fort Wayne, Indiana",
Janitorial Service, IN 46845,Pro Clean Building Services Inc.,States,+1 260-637-6200,United,Fort Wayne,"Fort Wayne, IN 46845, United States","renovation services, Fort Wayne, Indiana",http://procleanbuildingservice.com/janitorial-services/
General Contractor, Angola,Renovation Inc,46703,+1 260-665-2032,IN,419 N Wayne St,"419 N Wayne St, Angola, IN 46703, United States","renovation services, Fort Wayne, Indiana",
Roofing Contractor, New Haven,Summit City Renovations,46774,+1 260-438-2635,IN,14902 Doty Rd,"14902 Doty Rd, New Haven, IN 46774, United States","renovation services, Fort Wayne, Indiana",
General Contractor, Decatur,Kampman's Renovations LLC,46733,+1 260-701-9487,IN,387 Stevenson St,"387 Stevenson St, Decatur, IN 46733, United States","renovation services, Fort Wayne, Indiana",http://www.kampmansrenovations.com/
General Contractor, Goshen,Zehr Construction Inc,46528,+1 574-533-4677,IN,914 N 3rd St,"914 N 3rd St, Goshen, IN 46528, United States","renovation services, Fort Wayne, Indiana",http://www.zehrconstruction.com/
RV Repair Shop, Pierceton,Hancock RV Services,46562,+1 574-551-0135,IN,7389 E 250 S,"7389 E 250 S, Pierceton, IN 46562, United States","renovation services, Fort Wayne, Indiana",http://www.hancockrvrepair.com/
General Contractor, Fort Wayne,Renovation Planning & Management,46805,+1 260-480-0100,IN,3511 Eleanor Ave,"3511 Eleanor Ave, Fort Wayne, IN 46805, United States","renovation services, Fort Wayne, Indiana",
Construction Company, Fort Wayne,American Renovations Inc,46804,+1 260-459-9550,IN,4405 Engle Rd,"4405 Engle Rd, Fort Wayne, IN 46804, United States","renovation services, Fort Wayne, Indiana",http://www.americanrenovations.com/
Contractor, IN 46809,Premier Construction & Renovations LLC,States,+1 260-615-0132,United,Fort Wayne,"Fort Wayne, IN 46809, United States","renovation services, Fort Wayne, Indiana",http://premierconstructionfw.com/
General Contractor, Fort Wayne,Birkmeier Renovation Inc,46807,+1 260-745-1999,IN,4404 Beaver Ave,"4404 Beaver Ave, Fort Wayne, IN 46807, United States","renovation services, Fort Wayne, Indiana",
Bathroom Remodeler, IN 46825,Koch Renovations,States,+1 260-760-8005,United,Fort Wayne,"Fort Wayne, IN 46825, United States","renovation services, Fort Wayne, Indiana",http://kochrenovations.com/
General Contractor, Fort Wayne,Miracle Contracting,46805,+1 260-483-8108,IN,507 Constance Ave,"507 Constance Ave, Fort Wayne, IN 46805, United States","renovation services, Fort Wayne, Indiana",http://www.miraclecontracting.net/
General Contractor, Fort Wayne,Evergreen Remodeling Inc.,46815,+1 260-492-0159,IN,4006 Goeglein Rd,"4006 Goeglein Rd, Fort Wayne, IN 46815, United States","renovation services, Fort Wayne, Indiana",http://www.evergreen-remodeling.com/
General Contractor, Fort Wayne,E & R Contracting,46809,+1 260-747-5508,IN,4335 Earth Dr,"4335 Earth Dr, Fort Wayne, IN 46809, United States","renovation services, Fort Wayne, Indiana",http://www.ercontracting.net/
General Contractor, Fort Wayne,Mike's Home Improvement,46804,+1 260-416-2067,IN,6435 W Jefferson Blvd,"6435 W Jefferson Blvd, Fort Wayne, IN 46804, United States","renovation services, Fort Wayne, Indiana",
Janitorial Service, IN 46845,Pro Clean Building Services Inc.,States,+1 260-637-6200,United,Fort Wayne,"Fort Wayne, IN 46845, United States","renovation services, Fort Wayne, Indiana",http://procleanbuildingservice.com/janitorial-services/
General Contractor, Angola,Renovation Inc,46703,+1 260-665-2032,IN,419 N Wayne St,"419 N Wayne St, Angola, IN 46703, United States","renovation services, Fort Wayne, Indiana",
Roofing Contractor, New Haven,Summit City Renovations,46774,+1 260-438-2635,IN,14902 Doty Rd,"14902 Doty Rd, New Haven, IN 46774, United States","renovation services, Fort Wayne, Indiana",
General Contractor, Decatur,Kampman's Renovations LLC,46733,+1 260-701-9487,IN,387 Stevenson St,"387 Stevenson St, Decatur, IN 46733, United States","renovation services, Fort Wayne, Indiana",http://www.kampmansrenovations.com/
General Contractor, Goshen,Zehr Construction Inc,46528,+1 574-533-4677,IN,914 N 3rd St,"914 N 3rd St, Goshen, IN 46528, United States","renovation services, Fort Wayne, Indiana",http://www.zehrconstruction.com/
RV Repair Shop, Pierceton,Hancock RV Services,46562,+1 574-551-0135,IN,7389 E 250 S,"7389 E 250 S, Pierceton, IN 46562, United States","renovation services, Fort Wayne, Indiana",http://www.hancockrvrepair.com/
General Contractor, Fort Wayne,Renovation Planning & Management,46805,+1 260-480-0100,IN,3511 Eleanor Ave,"3511 Eleanor Ave, Fort Wayne, IN 46805, United States","renovation services, Fort Wayne, Indiana",
Construction Company, Fort Wayne,American Renovations Inc,46804,+1 260-459-9550,IN,4405 Engle Rd,"4405 Engle Rd, Fort Wayne, IN 46804, United States","renovation services, Fort Wayne, Indiana",http://www.americanrenovations.com/
Contractor, IN 46809,Premier Construction & Renovations LLC,States,+1 260-615-0132,United,Fort Wayne,"Fort Wayne, IN 46809, United States","renovation services, Fort Wayne, Indiana",http://premierconstructionfw.com/
General Contractor, Fort Wayne,Birkmeier Renovation Inc,46807,+1 260-745-1999,IN,4404 Beaver Ave,"4404 Beaver Ave, Fort Wayne, IN 46807, United States","renovation services, Fort Wayne, Indiana",
Bathroom Remodeler, IN 46825,Koch Renovations,States,+1 260-760-8005,United,Fort Wayne,"Fort Wayne, IN 46825, United States","renovation services, Fort Wayne, Indiana",http://kochrenovations.com/
General Contractor, Fort Wayne,Miracle Contracting,46805,+1 260-483-8108,IN,507 Constance Ave,"507 Constance Ave, Fort Wayne, IN 46805, United States","renovation services, Fort Wayne, Indiana",http://www.miraclecontracting.net/
General Contractor, Fort Wayne,Evergreen Remodeling Inc.,46815,+1 260-492-0159,IN,4006 Goeglein Rd,"4006 Goeglein Rd, Fort Wayne, IN 46815, United States","renovation services, Fort Wayne, Indiana",http://www.evergreen-remodeling.com/
General Contractor, Fort Wayne,E & R Contracting,46809,+1 260-747-5508,IN,4335 Earth Dr,"4335 Earth Dr, Fort Wayne, IN 46809, United States","renovation services, Fort Wayne, Indiana",http://www.ercontracting.net/
General Contractor, Fort Wayne,Mike's Home Improvement,46804,+1 260-416-2067,IN,6435 W Jefferson Blvd,"6435 W Jefferson Blvd, Fort Wayne, IN 46804, United States","renovation services, Fort Wayne, Indiana",
Janitorial Service, IN 46845,Pro Clean Building Services Inc.,States,+1 260-637-6200,United,Fort Wayne,"Fort Wayne, IN 46845, United States","renovation services, Fort Wayne, Indiana",http://procleanbuildingservice.com/janitorial-services/
General Contractor, Angola,Renovation Inc,46703,+1 260-665-2032,IN,419 N Wayne St,"419 N Wayne St, Angola, IN 46703, United States","renovation services, Fort Wayne, Indiana",
Roofing Contractor, New Haven,Summit City Renovations,46774,+1 260-438-2635,IN,14902 Doty Rd,"14902 Doty Rd, New Haven, IN 46774, United States","renovation services, Fort Wayne, Indiana",
General Contractor, Decatur,Kampman's Renovations LLC,46733,+1 260-701-9487,IN,387 Stevenson St,"387 Stevenson St, Decatur, IN 46733, United States","renovation services, Fort Wayne, Indiana",http://www.kampmansrenovations.com/
General Contractor, Goshen,Zehr Construction Inc,46528,+1 574-533-4677,IN,914 N 3rd St,"914 N 3rd St, Goshen, IN 46528, United States","renovation services, Fort Wayne, Indiana",http://www.zehrconstruction.com/
RV Repair Shop, Pierceton,Hancock RV Services,46562,+1 574-551-0135,IN,7389 E 250 S,"7389 E 250 S, Pierceton, IN 46562, United States","renovation services, Fort Wayne, Indiana",http://www.hancockrvrepair.com/
General Contractor, Fort Wayne,Renovation Planning & Management,46805,+1 260-480-0100,IN,3511 Eleanor Ave,"3511 Eleanor Ave, Fort Wayne, IN 46805, United States","renovation services, Fort Wayne, Indiana",
Construction Company, Fort Wayne,American Renovations Inc,46804,+1 260-459-9550,IN,4405 Engle Rd,"4405 Engle Rd, Fort Wayne, IN 46804, United States","renovation services, Fort Wayne, Indiana",http://www.americanrenovations.com/
Contractor, IN 46809,Premier Construction & Renovations LLC,States,+1 260-615-0132,United,Fort Wayne,"Fort Wayne, IN 46809, United States","renovation services, Fort Wayne, Indiana",http://premierconstructionfw.com/
General Contractor, Fort Wayne,Birkmeier Renovation Inc,46807,+1 260-745-1999,IN,4404 Beaver Ave,"4404 Beaver Ave, Fort Wayne, IN 46807, United States","renovation services, Fort Wayne, Indiana",
Bathroom Remodeler, IN 46825,Koch Renovations,States,+1 260-760-8005,United,Fort Wayne,"Fort Wayne, IN 46825, United States","renovation services, Fort Wayne, Indiana",http://kochrenovations.com/
General Contractor, Fort Wayne,Miracle Contracting,46805,+1 260-483-8108,IN,507 Constance Ave,"507 Constance Ave, Fort Wayne, IN 46805, United States","renovation services, Fort Wayne, Indiana",http://www.miraclecontracting.net/
General Contractor, Fort Wayne,Evergreen Remodeling Inc.,46815,+1 260-492-0159,IN,4006 Goeglein Rd,"4006 Goeglein Rd, Fort Wayne, IN 46815, United States","renovation services, Fort Wayne, Indiana",http://www.evergreen-remodeling.com/
General Contractor, Fort Wayne,E & R Contracting,46809,+1 260-747-5508,IN,4335 Earth Dr,"4335 Earth Dr, Fort Wayne, IN 46809, United States","renovation services, Fort Wayne, Indiana",http://www.ercontracting.net/
General Contractor, Fort Wayne,Mike's Home Improvement,46804,+1 260-416-2067,IN,6435 W Jefferson Blvd,"6435 W Jefferson Blvd, Fort Wayne, IN 46804, United States","renovation services, Fort Wayne, Indiana",
Janitorial Service, IN 46845,Pro Clean Building Services Inc.,States,+1 260-637-6200,United,Fort Wayne,"Fort Wayne, IN 46845, United States","renovation services, Fort Wayne, Indiana",http://procleanbuildingservice.com/janitorial-services/
General Contractor, Angola,Renovation Inc,46703,+1 260-665-2032,IN,419 N Wayne St,"419 N Wayne St, Angola, IN 46703, United States","renovation services, Fort Wayne, Indiana",
Roofing Contractor, New Haven,Summit City Renovations,46774,+1 260-438-2635,IN,14902 Doty Rd,"14902 Doty Rd, New Haven, IN 46774, United States","renovation services, Fort Wayne, Indiana",
General Contractor, Decatur,Kampman's Renovations LLC,46733,+1 260-701-9487,IN,387 Stevenson St,"387 Stevenson St, Decatur, IN 46733, United States","renovation services, Fort Wayne, Indiana",http://www.kampmansrenovations.com/
General Contractor, Goshen,Zehr Construction Inc,46528,+1 574-533-4677,IN,914 N 3rd St,"914 N 3rd St, Goshen, IN 46528, United States","renovation services, Fort Wayne, Indiana",http://www.zehrconstruction.com/
RV Repair Shop, Pierceton,Hancock RV Services,46562,+1 574-551-0135,IN,7389 E 250 S,"7389 E 250 S, Pierceton, IN 46562, United States","renovation services, Fort Wayne, Indiana",http://www.hancockrvrepair.com/
General Contractor, Buffalo,Empire Renovations,14223,+1 716-541-0477,NY,220 Wendel Ave,"220 Wendel Ave, Buffalo, NY 14223, United States","renovation services, Buffalo, New York",http://www.empirerenovations.com/
Kitchen Remodeler, Orchard Park,Creative Remodeling Services LLC,14127,+1 716-662-9277,NY,3614 N Buffalo Rd,"3614 N Buffalo Rd, Orchard Park, NY 14127, United States","renovation services, Buffalo, New York",http://www.creativeremodelingwny.com/
Home Builder, Lackawanna,Tkk Renovations,14218,+1 716-826-3973,NY,154 Point St,"154 Point St, Lackawanna, NY 14218, United States","renovation services, Buffalo, New York",
General Contractor, Buffalo,Construction and Service Solutions Corporation.,14206,+1 716-852-1219,NY,700 Howard St,"700 Howard St, Buffalo, NY 14206, United States","renovation services, Buffalo, New York",http://www.csscbuilds.com/
Contractor, Depew,Cortese Construction Services Corporation,14043,+1 716-683-2100,NY,2300 George Urban Blvd,"2300 George Urban Blvd, Depew, NY 14043, United States","renovation services, Buffalo, New York",http://www.cortese.net/
Environmental Consultant, Buffalo,Sienna Environmental Technologies LLC,14222,+1 716-332-3134,NY,350 Elmwood Ave,"350 Elmwood Ave, Buffalo, NY 14222, United States","renovation services, Buffalo, New York",http://www.siennaet.com/
Church, Buffalo,Renovation Church,14207,+1 716-819-4100,NY,567 Hertel Ave,"567 Hertel Ave, Buffalo, NY 14207, United States","renovation services, Buffalo, New York",http://therenovationchurch.com/
Construction Company, Welland,Steve Of All Skills Handyman & Renovations Services,L3B,+1 289-820-8496,ON,97 Garon Ave,"97 Garon Ave, Welland, ON L3B 1B7, Canada","renovation services, Buffalo, New York",
General Contractor, Buffalo,BRD Construction,14202,+1 716-847-0042,NY,82 Pearl St,"82 Pearl St, Buffalo, NY 14202, United States","renovation services, Buffalo, New York",http://www.brdconstruction.com/
Swimming Pool Contractor, Lancaster,Leisure Craft Pools,14086,+1 716-684-3100,NY,2 Lancaster Pkwy,"2 Lancaster Pkwy, Lancaster, NY 14086, United States","renovation services, Buffalo, New York",http://www.leisurecraftpools.com/
Construction Company, Welland,GLG Home Renovation Service,L3B,+1 905-735-8426,ON,294 Victory Av,"294 Victory Av, Welland, ON L3B 5S6, Canada","renovation services, Buffalo, New York",
Furniture Store, Buffalo,ROOM - a home store for michael P. design,14216,+1 716-939-2692,NY,1400 Hertel Ave,"1400 Hertel Ave, Buffalo, NY 14216, United States","renovation services, Buffalo, New York",http://www.room-buffalo.com/
General Contractor, NY 14120,Innovative Properties Of WNY,States,+1 716-531-2305,United,North Tonawanda,"North Tonawanda, NY 14120, United States","renovation services, Buffalo, New York",
Janitorial Service, NY 14204,Top of the Line Cleaning,States,+1 716-308-8069,United,Buffalo,"Buffalo, NY 14204, United States","renovation services, Buffalo, New York",
Cabinet Store, Buffalo,Artisan Kitchens and Baths,14226,+1 716-873-4100,NY,200 Amherst St,"200 Amherst St, Buffalo, NY 14226, United States","renovation services, Buffalo, New York",http://artisankitchensandbaths.com/
Bathroom Remodeler, Buffalo,Surface Magic llc,14222,+1 716-381-5607,NY,266 Elmwood Ave,"266 Elmwood Ave, Buffalo, NY 14222, United States","renovation services, Buffalo, New York",http://www.wnysurfacemagic.com/
Bathroom Remodeler, Buffalo,Bath Fitter of Buffalo,14221,+1 877-930-2284,NY,90 Curtwright Dr #3,"90 Curtwright Dr #3, Buffalo, NY 14221, United States","renovation services, Buffalo, New York",http://www.bathfitterofbuffalo.com/
Construction Company, Buffalo,"Creative Structures Services, Inc.",14214,+1 716-882-1226,NY,1659 Amherst St #100,"1659 Amherst St #100, Buffalo, NY 14214, United States","renovation services, Buffalo, New York",http://www.cssconstruction.biz/
General Contractor, East Amherst,Perfection Renovation Inc,14051,+1 716-601-4924,NY,8105 Old Post Cir,"8105 Old Post Cir, East Amherst, NY 14051, United States","renovation services, Buffalo, New York",
General Contractor, NY 14120,3 G Construction Inc of WNY,States,+1 716-262-9714,United,North Tonawanda,"North Tonawanda, NY 14120, United States","renovation services, Buffalo, New York",http://www.northtonawandahomeimprovement.com/
Structural Engineer, Buffalo,Siracuse Engineers,14202,+1 716-856-1894,NY,808 Main St,"808 Main St, Buffalo, NY 14202, United States","renovation services, Buffalo, New York",http://www.siracusengineers.com/
Swimming Pool Contractor, Lancaster,Beauty Pools Inc,14086,+1 716-683-9500,NY,2000 Commerce Pkwy,"2000 Commerce Pkwy, Lancaster, NY 14086, United States","renovation services, Buffalo, New York",http://www.beautypools.com/
Construction Company, Welland,Steve Of All Skills Handyman & Renovations Services,L3B,+1 289-820-8496,ON,97 Garon Ave,"97 Garon Ave, Welland, ON L3B 1B7, Canada","renovation services, Buffalo, New York",
Construction Company, Welland,GLG Home Renovation Service,L3B,+1 905-735-8426,ON,294 Victory Av,"294 Victory Av, Welland, ON L3B 5S6, Canada","renovation services, Buffalo, New York",
Swimming Pool Contractor, Lancaster,Mr. Pool Enterprises Limited,14086,+1 716-684-4695,NY,89 Brandel Ave,"89 Brandel Ave, Lancaster, NY 14086, United States","renovation services, Buffalo, New York",
Landscaper, NY 14304,SL Home Services,States,+1 716-243-0720,United,Niagara Falls,"Niagara Falls, NY 14304, United States","renovation services, Buffalo, New York",
Architect, Buffalo,Mach Architecture & Engrg,14221,+1 716-565-1349,NY,5500 Main St #347,"5500 Main St #347, Buffalo, NY 14221, United States","renovation services, Buffalo, New York",http://www.mach-arch.com/
Construction Company, Toronto,Ashton Renovations,M2J,+1 416-803-3324,ON,14 Black Willoway,"14 Black Willoway, Toronto, ON M2J 2A8, Canada","renovation services, Buffalo, New York",http://www.ashtonrenovations.com/
Contractor, NY 14132,Classic Renovations of Buffalo,States,+1 716-870-0999,United,Sanborn,"Sanborn, NY 14132, United States","renovation services, Buffalo, New York",http://www.classicrenovationsofbuffalo.com/
Construction Company, Welland,Glanfield Home Services,L3B,+1 905-892-1961,ON,565 Chantler Rd,"565 Chantler Rd, Welland, ON L3B 5N8, Canada","renovation services, Buffalo, New York",http://www.glanfieldhomes.com/
Construction Company, Toronto,Avonlea Kitchen & Bathroom Concepts,M4C,+1 416-422-5276,ON,1980 Danforth Ave,"1980 Danforth Ave, Toronto, ON M4C 1J6, Canada","renovation services, Buffalo, New York",http://www.avonlearenovations.com/
Construction Company, Toronto,Super Glow Renovations,M1R,+1 647-688-7716,ON,106 Wayne Av,"106 Wayne Av, Toronto, ON M1R 1Y7, Canada","renovation services, Buffalo, New York",
Bathroom Remodeler, Toronto,Ghannawi Bathroom Renovation,M3A,+1 647-988-9851,ON,20 Graydon Hall Dr,"20 Graydon Hall Dr, Toronto, ON M3A, Canada","renovation services, Buffalo, New York",http://ghannawi.ca/bathroom/
General Contractor, Toronto,Northern Edge Construction Services Ltd,M1J,+1 416-269-1900,ON,3785 Kingston Rd b3,"3785 Kingston Rd b3, Toronto, ON M1J 3M4, Canada","renovation services, Buffalo, New York",http://www.noredge.com/
Category,City,Company,Zipcode,Phone,State,Street,Address,SearchTerm,Website
,,,,,,,,,
General Contractor, Chula Vista,"J & W Renovations, Inc.",91914,+1 619-271-5864,CA,925 Hale Pl,"925 Hale Pl, Chula Vista, CA 91914, United States","renovation services, Chula Vista, California",
Granite Supplier, Chula Vista,Adda's Design & Renovation,91911,+1 858-831-8801,CA,2540 Main St,"2540 Main St, Chula Vista, CA 91911, United States","renovation services, Chula Vista, California",http://www.addaremodeling.com/
Construction Company, Chula Vista,M&R Renovations Inc.,91910,+1 619-271-4699,CA,231 Camino Vista Real,"231 Camino Vista Real, Chula Vista, CA 91910, United States","renovation services, Chula Vista, California",http://www.remodelingcontractorchulavista.com/#cid=glbc
General Contractor, Chula Vista,"J & W Renovations, Inc.",91914,+1 619-271-5864,CA,925 Hale Pl,"925 Hale Pl, Chula Vista, CA 91914, United States","renovation services, Chula Vista, California",
General Contractor, Chula Vista,"J & W Renovations, Inc.",91914,+1 619-271-5864,CA,925 Hale Pl,"925 Hale Pl, Chula Vista, CA 91914, United States","renovation services, Chula Vista, California",
General Contractor, Chula Vista,"J & W Renovations, Inc.",91914,+1 619-271-5864,CA,925 Hale Pl,"925 Hale Pl, Chula Vista, CA 91914, United States","renovation services, Chula Vista, California",
Private Hospital, Libertad,Renovate Medical Center,Tijuana,+52 664 682 3005,22400,Avenida Ferrocarril,"Avenida Ferrocarril, Libertad, 22400 Tijuana, B.C., Mexico","renovation services, Chula Vista, California",http://www.myrenovate.com/
,,,,,,,,,
,,,,,,,,,
,,,,,,,,,
,,,,,,,,,
,,,,,,,,,
,,,,,,,,,
,,,,,,,,,
,,,,,,,,,
,,,,,,,,,
,,,,,,,,,
,,,,,,,,,
,,,,,,,,,
,,,,,,,,,
,,,,,,,,,
,,,,,,,,,
,,,,,,,,,
,,,,,,,,,
,,,,,,,,,
,,,,,,,,,
,,,,,,,,,
,,,,,,,,,
,,,,,,,,,
,,,,,,,,,
,,,,,,,,,
,,,,,,,,,
,,,,,,,,,
,,,,,,,,,
,,,,,,,,,
,,,,,,,,,
,,,,,,,,,
,,,,,,,,,
,,,,,,,,,
,,,,,,,,,
,,,,,,,,,
,,,,,,,,,
,,,,,,,,,
,,,,,,,,,
,,,,,,,,,
,,,,,,,,,
,,,,,,,,,
,,,,,,,,,
,,,,,,,,,
,,,,,,,,,
,,,,,,,,,
,,,,,,,,,
,,,,,,,,,
Handyman, HI 96816,Oahu Handyman Home Repair,States,+1 808-688-6309,United,Honolulu,"Honolulu, HI 96816, United States","remodeling services, Honolulu, Hawai'i",http://remodelingoahu.com/
Handyman, HI 96816,Oahu Handyman Home Repair,States,+1 808-688-6309,United,Honolulu,"Honolulu, HI 96816, United States","remodeling services, Honolulu, Hawai'i",http://remodelingoahu.com/
Handyman, HI 96816,Oahu Handyman Home Repair,States,+1 808-688-6309,United,Honolulu,"Honolulu, HI 96816, United States","remodeling services, Honolulu, Hawai'i",http://remodelingoahu.com/
Handyman, HI 96816,Oahu Handyman Home Repair,States,+1 808-688-6309,United,Honolulu,"Honolulu, HI 96816, United States","remodeling services, Honolulu, Hawai'i",http://remodelingoahu.com/
Handyman, HI 96816,Oahu Handyman Home Repair,States,+1 808-688-6309,United,Honolulu,"Honolulu, HI 96816, United States","remodeling services, Honolulu, Hawai'i",http://remodelingoahu.com/
Handyman, HI 96816,Oahu Handyman Home Repair,States,+1 808-688-6309,United,Honolulu,"Honolulu, HI 96816, United States","remodeling services, Honolulu, Hawai'i",http://remodelingoahu.com/
Handyman, HI 96816,Oahu Handyman Home Repair,States,+1 808-688-6309,United,Honolulu,"Honolulu, HI 96816, United States","remodeling services, Honolulu, Hawai'i",http://remodelingoahu.com/
Handyman, HI 96816,Oahu Handyman Home Repair,States,+1 808-688-6309,United,Honolulu,"Honolulu, HI 96816, United States","remodeling services, Honolulu, Hawai'i",http://remodelingoahu.com/
Handyman, HI 96816,Oahu Handyman Home Repair,States,+1 808-688-6309,United,Honolulu,"Honolulu, HI 96816, United States","remodeling services, Honolulu, Hawai'i",http://remodelingoahu.com/
Handyman, HI 96816,Oahu Handyman Home Repair,States,+1 808-688-6309,United,Honolulu,"Honolulu, HI 96816, United States","remodeling services, Honolulu, Hawai'i",http://remodelingoahu.com/
Handyman, HI 96816,Oahu Handyman Home Repair,States,+1 808-688-6309,United,Honolulu,"Honolulu, HI 96816, United States","remodeling services, Honolulu, Hawai'i",http://remodelingoahu.com/
Handyman, HI 96816,Oahu Handyman Home Repair,States,+1 808-688-6309,United,Honolulu,"Honolulu, HI 96816, United States","remodeling services, Honolulu, Hawai'i",http://remodelingoahu.com/
Handyman, HI 96816,Oahu Handyman Home Repair,States,+1 808-688-6309,United,Honolulu,"Honolulu, HI 96816, United States","remodeling services, Honolulu, Hawai'i",http://remodelingoahu.com/
Handyman, HI 96816,Oahu Handyman Home Repair,States,+1 808-688-6309,United,Honolulu,"Honolulu, HI 96816, United States","remodeling services, Honolulu, Hawai'i",http://remodelingoahu.com/
Handyman, HI 96816,Oahu Handyman Home Repair,States,+1 808-688-6309,United,Honolulu,"Honolulu, HI 96816, United States","remodeling services, Honolulu, Hawai'i",http://remodelingoahu.com/
Handyman, HI 96816,Oahu Handyman Home Repair,States,+1 808-688-6309,United,Honolulu,"Honolulu, HI 96816, United States","remodeling services, Honolulu, Hawai'i",http://remodelingoahu.com/
Handyman, HI 96816,Oahu Handyman Home Repair,States,+1 808-688-6309,United,Honolulu,"Honolulu, HI 96816, United States","remodeling services, Honolulu, Hawai'i",http://remodelingoahu.com/
Handyman, HI 96816,Oahu Handyman Home Repair,States,+1 808-688-6309,United,Honolulu,"Honolulu, HI 96816, United States","remodeling services, Honolulu, Hawai'i",http://remodelingoahu.com/
Handyman, HI 96816,Oahu Handyman Home Repair,States,+1 808-688-6309,United,Honolulu,"Honolulu, HI 96816, United States","remodeling services, Honolulu, Hawai'i",http://remodelingoahu.com/
Handyman, HI 96816,Oahu Handyman Home Repair,States,+1 808-688-6309,United,Honolulu,"Honolulu, HI 96816, United States","remodeling services, Honolulu, Hawai'i",http://remodelingoahu.com/
,,,,,,,,,
,,,,,,,,,
,,,,,,,,,
,,,,,,,,,
,,,,,,,,,
,,,,,,,,,
,,,,,,,,,
,,,,,,,,,
,,,,,,,,,
,,,,,,,,,
,,,,,,,,,
,,,,,,,,,
,,,,,,,,,
,,,,,,,,,
,,,,,,,,,
,,,,,,,,,
,,,,,,,,,
,,,,,,,,,
,,,,,,,,,
,,,,,,,,,
,,,,,,,,,
,,,,,,,,,
,,,,,,,,,
,,,,,,,,,
,,,,,,,,,
,,,,,,,,,
,,,,,,,,,
,,,,,,,,,
,,,,,,,,,
,,,,,,,,,
,,,,,,,,,
,,,,,,,,,
,,,,,,,,,
,,,,,,,,,
,,,,,,,,,
,,,,,,,,,
,,,,,,,,,
,,,,,,,,,
,,,,,,,,,
,,,,,,,,,
,,,,,,,,,
,,,,,,,,,
,,,,,,,,,
,,,,,,,,,
,,,,,,,,,
,,,,,,,,,
,,,,,,,,,
,,,,,,,,,
,,,,,,,,,
,,,,,,,,,
,,,,,,,,,
,,,,,,,,,
,,,,,,,,,
,,,,,,,,,
,,,,,,,,,
,,,,,,,,,
,,,,,,,,,
,,,,,,,,,
,,,,,,,,,
,,,,,,,,,
,,,,,,,,,
,,,,,,,,,
,,,,,,,,,
,,,,,,,,,
,,,,,,,,,
,,,,,,,,,
,,,,,,,,,
,,,,,,,,,
,,,,,,,,,
,,,,,,,,,
,,,,,,,,,
,,,,,,,,,
,,,,,,,,,
,,,,,,,,,
,,,,,,,,,
,,,,,,,,,
,,,,,,,,,
,,,,,,,,,
,,,,,,,,,
,,,,,,,,,
,,,,,,,,,
,,,,,,,,,
,,,,,,,,,
,,,,,,,,,
,,,,,,,,,
,,,,,,,,,
,,,,,,,,,
,,,,,,,,,
,,,,,,,,,
,,,,,,,,,
,,,,,,,,,
,,,,,,,,,
,,,,,,,,,
,,,,,,,,,
,,,,,,,,,
,,,,,,,,,
,,,,,,,,,
,,,,,,,,,
,,,,,,,,,
,,,,,,,,,
,,,,,,,,,
,,,,,,,,,
,,,,,,,,,
,,,,,,,,,
,,,,,,,,,
,,,,,,,,,
,,,,,,,,,
,,,,,,,,,
,,,,,,,,,
,,,,,,,,,
,,,,,,,,,
,,,,,,,,,
,,,,,,,,,
,,,,,,,,,
,,,,,,,,,
,,,,,,,,,
,,,,,,,,,
,,,,,,,,,
,,,,,,,,,
,,,,,,,,,
,,,,,,,,,
,,,,,,,,,
,,,,,,,,,
,,,,,,,,,
,,,,,,,,,
,,,,,,,,,
,,,,,,,,,
,,,,,,,,,
,,,,,,,,,
,,,,,,,,,
,,,,,,,,,
,,,,,,,,,
,,,,,,,,,
,,,,,,,,,
,,,,,,,,,
,,,,,,,,,
,,,,,,,,,
,,,,,,,,,
,,,,,,,,,
,,,,,,,,,
,,,,,,,,,
,,,,,,,,,
,,,,,,,,,
,,,,,,,,,
,,,,,,,,,
,,,,,,,,,
,,,,,,,,,
,,,,,,,,,
,,,,,,,,,
,,,,,,,,,
,,,,,,,,,
,,,,,,,,,
,,,,,,,,,
,,,,,,,,,
,,,,,,,,,
,,,,,,,,,
,,,,,,,,,
,,,,,,,,,
,,,,,,,,,
,,,,,,,,,
,,,,,,,,,
,,,,,,,,,
,,,,,,,,,
,,,,,,,,,
,,,,,,,,,
,,,,,,,,,
,,,,,,,,,
,,,,,,,,,
,,,,,,,,,
,,,,,,,,,
,,,,,,,,,
,,,,,,,,,
,,,,,,,,,
,,,,,,,,,
,,,,,,,,,
,,,,,,,,,
,,,,,,,,,
,,,,,,,,,
,,,,,,,,,
,,,,,,,,,
,,,,,,,,,
,,,,,,,,,
,,,,,,,,,
,,,,,,,,,
,,,,,,,,,
,,,,,,,,,
,,,,,,,,,
,,,,,,,,,
,,,,,,,,,
,,,,,,,,,
,,,,,,,,,
,,,,,,,,,
,,,,,,,,,
,,,,,,,,,
,,,,,,,,,
,,,,,,,,,
,,,,,,,,,
,,,,,,,,,
,,,,,,,,,
,,,,,,,,,
,,,,,,,,,
,,,,,,,,,
,,,,,,,,,
,,,,,,,,,
,,,,,,,,,
,,,,,,,,,
,,,,,,,,,
,,,,,,,,,
,,,,,,,,,
,,