City,Zipcode,State,Address
,,,
Florham Park,7932,NJ,15 Columbia Turnpike
Florham Park,7932,NJ,5 Smithfield Ln
Florham Park,7932,NJ,20 Briarwood Rd
Florham Park,7932,NJ,61 Townsend Dr
Florham Park,7932,NJ,103 Edgewood Dr
Florham Park,7932,NJ,89 Cathedral Ave
Florham Park,7932,NJ,161 Rockwood Rd
Florham Park,7932,NJ,206 Brooklake Rd
,,,
,,,
,,,
,,,
,,,
Florham Park,7932,NJ,42 Brooklake Rd
Hanover,7981,NJ,22 Academy Dr E
Hanover,7981,NJ,301 Beaverbrook Terrace
Hanover,7981,NJ,27 Troy Hills Rd
Hanover,7981,NJ,29 Troy Hills Rd
Hanover,7981,NJ,112 Wilson Pl
Hanover,7981,NJ,510 Brook Hollow Dr
Hanover,7981,NJ,940 NJ-10
Hanover,7981,NJ,124 N Jefferson Rd
,,,
,,,
,,,
,,,
,,,
Morristown,7960,NJ,1 Griffin Ln
Morristown,7960,NJ,11 Griffin Ln
Morristown,7960,NJ,9 Griffin Ln
Morristown,7960,NJ,7 Griffin Ln
Morristown,7960,NJ,15 Griffin Ln
Morristown,7960,NJ,174 Blue Mill Rd
Harding Township,7935,NJ,78 Dicksons Mill Rd
New Vernon,7976,NJ,85 Pleasantville Rd
Morristown,7960,NJ,52 Blue Mill Rd
New Vernon,7976,NJ,24 Millbrook Rd
New Vernon,7920,NJ,27 Lees Hill Rd
Morristown,7960,NJ,44 Sand Spring Ln
Morristown,7960,NJ,34 Sand Spring Ln
,,,
,,,
Morristown,7960,NJ,15 Singing Wood Ln
,,,
,,,
,,,
Morristown,7960,NJ,545 James St
,,,
Morristown,7960,NJ,571 James St
Morristown,7960,NJ,571 James St
Morristown,7960,NJ,2 Tulip Ln
Kinnelon,7405,NJ,11 Manchester Ct
Kinnelon,7405,NJ,18 Wilshire Terrace
Kinnelon,7405,NJ,3 Valley Rd
Kinnelon,7405,NJ,17 Ricker Rd
Kinnelon,7405,NJ,156 Kinnelon Rd
Kinnelon,7405,NJ,252 Long Meadow Rd
Butler,7405,NJ,41 Cherry Tree Ln
Kinnelon,7405,NJ,450 Laurel Ln
Kinnelon,7405,NJ,1 Talbot Dr
Kinnelon,7405,NJ,1 Talbot Dr
Kinnelon,7405,NJ,1 Talbot Dr
Kinnelon,7405,NJ,1 Talbot Dr
Kinnelon,7405,NJ,21 Beechwood Ln
Kinnelon,7405,NJ,8 Stone House Rd
Kinnelon,7405,NJ,389 Kinnelon Rd
Kinnelon,7405,NJ,159 Miller Rd
Kinnelon,7405,NJ,15 Ridge Trail
Kinnelon,7405,NJ,146 Kiel Ave
Kinnelon,7405,NJ,137 Kinnelon Rd
Kinnelon,7405,NJ,6 Maple Lake Rd
Kinnelon,7405,NJ,53 Kiel Ave
Butler,7405,NJ,Kakeout Rd
Kinnelon,7405,NJ,9 Midland Terrace
Kinnelon,7405,NJ,7 Lakeside Trail
Kinnelon,7405,NJ,9 Standish Ln
Kinnelon,7405,NJ,15 Fiddlers Elbow Trail
Kinnelon,7405,NJ,282 Brook Valley Rd
Kinnelon,7405,NJ,81 Boonton Ave
Lincoln Park,7035,NJ,63 Voorhis Rd
Kinnelon,7405,NJ,68 Cutlass Rd
Riverdale,,,Lead Mine Hill Rd
Madison,7940,NJ,39 Shadylawn Dr
Madison,7940,NJ,60 Shadylawn Dr
Madison,7940,NJ,77 Fairwood Rd
Madison,7940,NJ,29 Crestwood Dr
Madison,7940,NJ,21 Crestwood Dr
Madison,7940,NJ,25 Beech Ave
Madison,7940,NJ,33 Beech Ave
Madison,7940,NJ,124 Hempstead Ct
Madison,7940,NJ,250 Plymouth Ct
Madison,7940,NJ,20 North St
Madison,7940,NJ,108 North St
Madison,7940,NJ,58 Canterbury Rd
Madison,7940,NJ,29 Canterbury Rd
Madison,7940,NJ,94 Ridgedale Ave
Madison,7940,NJ,1 Myrtle Ave
Madison,7940,NJ,27 Canterbury Rd
Madison,7940,NJ,21 Canterbury Rd
Madison,7940,NJ,10 Valevue Rd
Madison,7940,NJ,31 Longview Ave
Madison,7940,NJ,88 Rosedale Ave
Madison,7940,NJ,68 Knollwood Ave
Madison,7940,NJ,66 Rosedale Ave
Madison,7940,NJ,66 Greenwood Ave
Madison,7940,NJ,35 Park Ave
Madison,7940,NJ,71 Wayne Blvd
Madison,7940,NJ,9 North St
Madison,7940,NJ,7 Elm St
Madison,7940,NJ,35 West St
Madison,7940,NJ,23 Kinney St
Madison,7940,NJ,60 Park Ave
Madison,7940,NJ,46 Park Ave
Madison,7940,NJ,36 Main St
Madison,7940,NJ,54 Main St
Madison,7940,NJ,46 Cook Ave
Madison,7940,NJ,41 Ridgedale Ave
Madison,7940,NJ,75 Brittin St
Madison,7940,NJ,83 Brittin St
Madison,7940,NJ,28 Rosedale Ave
Madison,7940,NJ,6 Ashland Rd
Madison,7940,NJ,17 Niles Ave
Madison,7940,NJ,24 Brooklake Rd
Madison,7940,NJ,45 Niles Ave
Madison,7940,NJ,8 Delbarton Dr
Madison,7940,NJ,13 Cross St
Madison,7940,NJ,132 Kings Rd
Madison,7940,NJ,31 Academy Rd
Madison,7940,NJ,12 Woodcliff Dr
Madison,7940,NJ,60 Albright Cir
Madison,7940,NJ,120 Garfield Ave
Madison,7940,NJ,5 Highview Terrace
Madison,7940,NJ,15 Roscoe Ave
Madison,7940,NJ,9 Roscoe Ave
Madison,7940,NJ,3 Roscoe Ave
Madison,7940,NJ,1 Roscoe Ave
Madison,7940,NJ,12 Lathrop Ave
Madison,7940,NJ,10 Lathrop Ave
Madison,7940,NJ,8 James Pl
Madison,7940,NJ,9 Colonial Way
Madison,7940,NJ,64 Shunpike Rd
,,,
Madison,7940,NJ,21 Broadview Ave
Madison,7940,NJ,98 Woodland Rd
Madison,7940,NJ,14 Essex Pl
Madison,7940,NJ,1 Union Ave
Morris Plains,7950,NJ,68 W Hanover Ave
Morris Plains,7950,NJ,88 W Hanover Ave
Morris Plains,7950,NJ,25 Raymond Rd
Morris Plains,7950,NJ,3 Raymond Rd
Morris Plains,7950,NJ,1 Sanders St
Morris Plains,7950,NJ,140 Speedwell Ave
Morris Plains,7950,NJ,6 Sherman Ave
Morris Plains,7950,NJ,12 Mill Rd
Morris Plains,7950,NJ,102 Fairchild Ave
Morris Plains,7950,NJ,82 Burnham Rd
Morristown,7960,NJ,61 Lake Rd
Morristown,7960,NJ,385 Sussex Ave
Morristown,7960,NJ,182 Lake Rd
Morristown,7960,NJ,7 Gloucester Pl
Morristown,7960,NJ,52 Livingston Rd
Morristown,7960,NJ,46 Livingston Rd
Morristown,7960,NJ,3 2nd St
Morristown,7960,NJ,19 Harwich Rd
Morristown,7960,NJ,41 Starlight Dr
Morristown,7960,NJ,21 Sunderland Dr
Morristown,7960,NJ,52 Kahdena Rd
Morristown,7960,NJ,28 Knollwood Dr
Morristown,7960,NJ,18 Glimpsewood Ln
Morristown,7960,NJ,10 Jonathan Smith Rd
Morristown,7960,NJ,1 Dellwood Ave
Morristown,7960,NJ,37 Hillcrest Ave
Morristown,7960,NJ,10 Searing Ave
Morristown,7960,NJ,167 Western Ave
Morristown,7960,NJ,19 Midland Dr
Morristown,7960,NJ,6 E Lake Blvd
Morristown,7960,NJ,32 Ellsworth Ave
Morristown,7960,NJ,4 Dorothy Dr
Morristown,7960,NJ,9 Valleyview Rd
Morristown,7960,NJ,479 Western Ave
Morristown,7960,NJ,26 Rolling Hill Dr
Morristown,7960,NJ,444 Mt Kemble Ave
Morristown,7960,NJ,4 Harvey Ct
Morristown,7960,NJ,30 Molly Stark Dr
Morristown,7960,NJ,4 Skyline Dr
Morristown,7960,NJ,9 Sherwood Dr
Morristown,7960,NJ,53 Sherwood Dr
Morristown,7960,NJ,65 Spring Brook Rd
Morristown,7960,NJ,8 Armstrong Rd
Morristown,7960,NJ,103 Harter Rd
Morristown,7960,NJ,380 South St
Morristown,7960,NJ,3 Albert Ave
Morristown,7960,NJ,10 Cobblestone Ln
Morristown,7960,NJ,Woodland Ave & Kitchell Rd
Morristown,7960,NJ,70 Pippins Way
Morristown,7960,NJ,30 Cadence Ct
Morristown,7960,NJ,Woodland Ave
Morristown,7960,NJ,Degan Ln
Morristown,7960,NJ,28 Old Glen Rd
Morristown,7960,NJ,24 Old Glen Rd
Morristown,7960,NJ,31 Bradwahl Dr
Morristown,7960,NJ,15 Crescent Dr
Morristown,7960,NJ,1 Bishop Ct
Morristown,7960,NJ,16 Canfield Rd
Morristown,7960,NJ,25 Lidgerwood Pl
Morristown,7960,NJ,12 Normandy Pkwy
Morristown,7960,NJ,1 Whippany Rd
Morristown,7960,NJ,29 Normandy Heights Rd
Morristown,7960,NJ,34 Wyndmoor Dr
Morristown,7960,NJ,22 Chimney Ridge Dr
Morristown,7960,NJ,13 Terry Dr
Morristown,7960,NJ,1 Maxine Dr
Morristown,7960,NJ,8 Woodcrest Dr
Morristown,7960,NJ,11 Monroe St
Morristown,7960,NJ,9 Cedar St
Morristown,7960,NJ,15 Cedar St
Morristown,7960,NJ,2 Cory Rd
Morristown,7960,NJ,9-11 Emmet Ave
Morristown,7960,NJ,250 Martin Luther King Ave
Morristown,7960,NJ,22 Cleveland Ave
Morristown,7960,NJ,2 Cleveland Ave
Morristown,7960,NJ,18 Jersey Ave
Morristown,7960,NJ,14 Georgian Rd
Morristown,7960,NJ,28 Valley View Dr
Morristown,7960,NJ,35 Abbett Ave
Morristown,7960,NJ,33 Abbett Ave
Morristown,7960,NJ,33 Abbett Ave
Morristown,7960,NJ,24 Linden St
Morristown,7960,NJ,21 Liberty St
Morristown,7960,NJ,21 Logan Pl
Morristown,7960,NJ,25 Logan Pl
Morristown,7960,NJ,16 Speedwell Pl
Morristown,7960,NJ,14 Speedwell Pl
Morristown,7960,NJ,56 Sussex Ave
Morristown,7960,NJ,1 Shenandoah Pl
40 W Park Pl #511,,,40 Park LLC
Morristown,7960,NJ,233 South St
Morristown,7960,NJ,13 Green St
Morristown,7960,NJ,61 Mt Kemble Ave #402
Morris Plains,7950,NJ,Seasons Glen Dr
Morris Plains,7950,NJ,Jaime Ct
Parsippany-Troy Hills,7878,NJ,Hope Rd
Morris Plains,7950,NJ,Tabor Ave
Morris Plains,7950,NJ,Tabor Ave
Morris Plains,7950,NJ,7 Arundel Rd
Morris Plains,7950,NJ,13 Arundel Rd
Morris Plains,7950,NJ,19 Arundel Rd
Morris Plains,7950,NJ,25 Arundel Rd
Morris Plains,7950,NJ,31 Arundel Rd
Morris Plains,7950,NJ,4 J Rapps Ct
Morris Plains,7950,NJ,2 Arundel Rd
Morris Plains,7950,NJ,8 Arundel Rd
Morris Plains,7950,NJ,14 Arundel Rd
Morris Plains,7950,NJ,90 Arundel Rd
Troy Hills Shopping Center,,,Pathmark
Denville,7834,NJ,25 Scenic Dr
Parsippany-Troy Hills,7054,NJ,3 Sylvan Way
Parsippany-Troy Hills,7054,NJ,719 Littleton Rd
Parsippany-Troy Hills,7054,NJ,66 Belleville Rd
Parsippany-Troy Hills,7054,NJ,590 Allentown Rd
Parsippany-Troy Hills,7054,NJ,18 Atlantic Dr
Parsippany-Troy Hills,7054,NJ,3 Ionic Ct
Parsippany-Troy Hills,,,Intervale Rd
Parsippany-Troy Hills,7054,NJ,Percypeny Ln
Parsippany-Troy Hills,7054,NJ,394 Edwards Rd
Parsippany-Troy Hills,7054,NJ,384 Edwards Rd
Parsippany-Troy Hills,7054,NJ,43 Hawkins Ave
Parsippany-Troy Hills,7054,NJ,150 Smith Rd
Parsippany-Troy Hills,7054,NJ,150 Smith Rd
Parsippany-Troy Hills,7054,NJ,6 Eastmans Rd
Parsippany-Troy Hills,7054,NJ,36 Lord Stirling Dr
,,,
Parsippany-Troy Hills,7054,NJ,600 Edwards Rd
Parsippany-Troy Hills,7054,NJ,Edwards Rd
Clifton,7011,NJ,28 Lincoln Pl
Clifton,7011,NJ,201 E 9th St
Clifton,7011,NJ,26 Arlington Ave
,,,
Clifton,7011,NJ,87 Vreeland Ave
Clifton,7011,NJ,682 Paulison Ave
Clifton,7013,NJ,450 Clifton Blvd
Clifton,7013,NJ,80 Renaissance Dr
Clifton,7013,NJ,531 Van Houten Ave
Clifton,7012,NJ,620 Bloomfield Ave
Clifton,7012,NJ,676 Passaic Ave
Hawthorne,7506,NJ,26 Westervelt Ave
Hawthorne,7506,NJ,22 Westervelt Ave
Hawthorne,7506,NJ,10 N 9th St
,,,
,,,
,,,
Hawthorne,7506,NJ,148 Passaic Ave
Hawthorne,7506,NJ,178 Lincoln Ave
,,,
Hawthorne,7506,NJ,65 Wagner Pl
Hawthorne,7506,NJ,84 Hawthorne Ave
Hawthorne,7506,NJ,64 Hawthorne Ave
Hawthorne,7506,NJ,58 Hawthorne Ave
Hawthorne,7506,NJ,184 Elberon Ave
Hawthorne,7506,NJ,213 Wagaraw Rd
Hawthorne,7506,NJ,195 Elberon Ave
Hawthorne,7506,NJ,174 Maitland Ave
Hawthorne,7506,NJ,179 Franklin Ave
Hawthorne,7506,NJ,34 South Ave
Hawthorne,7506,NJ,88 May St
,,,
Hawthorne,7506,NJ,168 Westervelt Ave
Hawthorne,7506,NJ,64 Outlook Ave
Hawthorne,7506,NJ,24 N 19th St
Hawthorne,7506,NJ,120 E Prospect St
Hawthorne,7506,NJ,116 Mazur Pl
Hawthorne,7506,NJ,53 Metro Vista Dr
Hawthorne,7506,NJ,30 Lynack Rd
Hawthorne,7506,NJ,26 Brookside Ave
Hawthorne,7506,NJ,156 McKinley Ave
Hawthorne,7506,NJ,200 May St
Hawthorne,7506,NJ,104 Diamond
