City,Zipcode,State,Address
,,,
,,,
Hawthorne,7506,NJ,360 N 4th Ave
Hawthorne,7506,NJ,14 Hutchinson Ave
Hawthorne,7506,NJ,32 Alexandria Ave
Hawthorne,7506,NJ,198 N 4th Ave
Hawthorne,7506,NJ,186 N 4th Ave
Hawthorne,7506,NJ,176 3rd Ave
Hawthorne,7506,NJ,780 Lafayette Ave
Hawthorne,7506,NJ,65 N Watchung Dr
Hawthorne,7506,NJ,95 Watchung Dr
Hawthorne,7506,NJ,182 Pasadena Pl
Hawthorne,7506,NJ,196 Mountain Ave
Hawthorne,7506,NJ,26 Ridge Rd
Hawthorne,7506,NJ,48 Faber Dr
Hawthorne,7506,NJ,259 Sunrise Dr
Hawthorne,7506,NJ,909 Lafayette Ave
Hawthorne,7506,NJ,10 Garden Ave
Hawthorne,7506,NJ,39 Braen Ave
Hawthorne,7506,NJ,27 Orchard Pl
Hawthorne,7506,NJ,141 Hillcrest Ave
Hawthorne,7506,NJ,80 Fairview Ave
Hawthorne,7506,NJ,54 Highview Ave
Hawthorne,7506,NJ,548 Goffle Hill Rd
Hawthorne,7506,NJ,32 Emeline Dr
Hawthorne,7506,NJ,14 Woodland Ave
Hawthorne,7506,NJ,483 Goffle Hill Rd
Hawthorne,7506,NJ,30 Sicomac Rd
Hawthorne,7506,NJ,13 Clara Ave
Little Falls,7424,NJ,480 Main St
Little Falls,7424,NJ,48 Dewey Ave
Little Falls,7424,NJ,28 Paterson Ave
Little Falls,7424,NJ,58 Cedar Grove Rd
Little Falls,7424,NJ,15 Hemlock Rd
,,,
Clifton,7013,NJ,800 US-46
Ringwood,7456,NJ,35 Seminole Dr
Ringwood,7456,NJ,454 Conklintown Rd
Ringwood,7456,NJ,159 Skyline Lake Dr
Ringwood,7456,NJ,231 Lakeview Ave
Ringwood,7456,NJ,71 Maple Rd
,,,
Ringwood,7456,NJ,148 James Dr
,,,
Ringwood,7456,NJ,201 Cupsaw Dr
Ringwood,7456,NJ,64 Windbeam Loop
Totowa,7512,NJ,247 Union Blvd
Totowa,7512,NJ,2 Cambridge Rd
Totowa,7512,NJ,289 Union Blvd
Totowa,7512,NJ,37 Bogert St
Ringwood,7456,NJ,14 Hillside Rd
Wanaque,7465,NJ,Conklintown Rd
Wanaque,7465,NJ,Stephens Lake Rd
Wanaque,7465,NJ,12 Mountain Lakes Dr
Wanaque,7465,NJ,14 Mountain Lakes Dr
Wanaque,7465,NJ,16 Mountain Lakes Dr
Wanaque,7465,NJ,18 Mountain Lakes Dr
Wanaque,7465,NJ,20 Mountain Lakes Dr
Wanaque,7465,NJ,22 Mountain Lakes Dr
Wanaque,7465,NJ,24 Mountain Lakes Dr
Wanaque,7465,NJ,26 Mountain Lakes Dr
Wanaque,7465,NJ,28 Mountain Lakes Dr
Wanaque,7465,NJ,30 Mountain Lakes Dr
Wanaque,7465,NJ,32 Mountain Lakes Dr
,,,
,,,
,,,
,,,
,,,
,,,
,,,
,,,
,,,
,,,
,,,
,,,
,,,
,,,
,,,
,,,
,,,
,,,
,,,
,,,
Wanaque,7465,NJ,541 Ringwood Ave
Wanaque,7420,NJ,20 Makemoney Ave
Wanaque,7420,NJ,1121 Ringwood Ave
Wayne,7470,NJ,Fairfield Rd & US-46
Wayne,7470,NJ,Fairfield Rd
Wayne,7470,NJ,81 Mountainview Blvd
Wayne,7470,NJ,73 River Rd
Wayne,7470,NJ,439 Parish Dr
Wayne,7470,NJ,16 Winonah Ave
,,,
Wayne,7470,NJ,63 Normandy Dr
Wayne,7470,NJ,6 Hillside Terrace
Wayne,7470,NJ,43 Alpine Dr
Wayne,7470,NJ,115 Lake Dr E
Wayne,7470,NJ,82 Michael Dr
Wayne,7470,NJ,57 Sylvan Terrace
Wayne,7470,NJ,8 Lyle Ave
Wayne,7470,NJ,735 Black Oak Ridge Rd
Wayne,7470,NJ,220 Hamburg Turnpike
Wayne,7470,NJ,40 Tanager Ct
Wayne,7470,NJ,90 Eider Ct
Wayne,7470,NJ,944 Hamburg Turnpike
Wayne,7470,NJ,Hazen Ct
Wayne,7470,NJ,422 Brittany Dr
Wayne,7470,NJ,902 Burgundy Way
Wayne,7470,NJ,1109 Brittany Dr
Wayne,7470,NJ,1599 Hamburg Turnpike
Wayne,7470,NJ,35 Lake Rd
Wayne,7470,NJ,Westview Rd
Wayne,7470,NJ,542 Berdan Ave
Wayne,7470,NJ,100 Tower Rd
Wayne,7470,NJ,51 Moiyas Rd
Wayne,7470,NJ,2 Moiyas Rd
Wayne,7470,NJ,Terhune Dr
Bedminster Township,7921,NJ,6 Dorset Ln
Bedminster Township,7921,NJ,77 Mayfield Rd
Bedminster Township,7921,NJ,6 Brigade Ct
Bernardsville,7924,NJ,67 5 Ballantine Rd
Bernardsville,7924,NJ,70 Washington Corner Rd
Bernardsville,7924,NJ,31 Roebling Rd
Bernardsville,7924,NJ,435 Mine Brook Rd
Bernardsville,7924,NJ,175 Round Top Rd
Bernardsville,7924,NJ,101 Round Top Rd
Bernardsville,7924,NJ,30 Childs Rd
Bernardsville,7924,NJ,10 Anderson Hill Rd
,,,
Bernardsville,7924,NJ,145 Morristown Rd
Bound Brook,8805,NJ,50 Van Keuren Ave
Bound Brook,8805,NJ,519 Wheatland Ave
Bound Brook,8805,NJ,115 Hamilton St
Bound Brook,8805,NJ,220 John St
Branchburg,8876,NJ,110 Lamington Rd
Somerville,8876,NJ,361 Vanderveer Ave
Somerville,8876,NJ,361 Vanderveer Ave
Somerville,8876,NJ,3121 US-22
Branchburg,,,River Rd
,,,
Branchburg,8876,NJ,170 Station Rd
,,,
,,,
Somerville,8876,NJ,22 Arapaho Trail
Somerville,8876,NJ,5 Ramapo Trail
Somerville,8876,NJ,1 Ramapo Trail
Somerville,8876,NJ,10 Ramapo Trail
Somerville,8876,NJ,16 Cedar Grove Rd
Branchburg,,,River Rd
Somerville,8876,NJ,73 Bernard St
Somerville,8876,NJ,1031 US-202
Somerville,8876,NJ,55 Robbins Rd
Branchburg,8876,NJ,1024 US-202
Branchburg,8876,NJ,1090 US-202
Somerville,8876,NJ,5 Oak Tavern Cir
,,,
Branchburg,8876,NJ,145 Chubb Way
Branchburg,8853,NJ,765 Vanessa Ln
Branchburg,8853,NJ,4 Richfield Ct
Bridgewater,8807,NJ,Old York Rd
Bridgewater,8807,NJ,123 Chestnut St
Bridgewater,8807,NJ,180 Linden St
Bridgewater,8807,NJ,9 Charlotte Dr
Bridgewater,8807,NJ,82 Williamson Ct
Bridgewater,8807,NJ,1250 US-22
Bridgewater,8807,NJ,191 Foothill Rd
Bridgewater,8807,NJ,601 Bridgewater Ave
Bridgewater,8807,NJ,456 Van Holten Rd
Bridgewater,8807,NJ,767 Old Farm Rd
Bridgewater,8807,NJ,55 Corporate Dr
Bridgewater,8807,NJ,3 Drysdale Ln
Bridgewater,8807,NJ,515 Mercer St
Franklin Township,8873,NJ,Broad St
,,,
Franklin Township,8873,NJ,Broad St
Bridgewater,8807,NJ,19 Arthur Rd
Bridgewater,8836,NJ,799 Miller Ln
Bridgewater,8836,NJ,Stangle Rd
Princeton,8540,NJ,4469 NJ-27
Princeton,8540,NJ,Old Rd
Franklin Township,8873,NJ,675 Canal Rd
Franklin Township,8873,NJ,2 Van Cleef Rd
Franklin Township,8873,NJ,2 Van Cleef Rd
Franklin Township,8873,NJ,114 Van Cleef Rd
Franklin Township,8873,NJ,2150 Amwell Rd
Franklin Township,8873,NJ,1575 Rte 27
Franklin Township,8873,NJ,21 Clyde Rd
,,,
Franklin Township,8873,NJ,1135 Easton Ave
Franklin Township,8873,NJ,25 Almond Dr
Franklin Township,8873,NJ,435 Demott Ln
Franklin Township,8873,NJ,1848 Easton Ave
Franklin Township,8873,NJ,300 Davidson Ave
Franklin Township,8873,NJ,80 Saratoga Ct
Franklin Township,8873,NJ,111 Adams St
Warren,7059,NJ,Dock Watch Hollow Rd
Warren,7920,NJ,190 Mountainview Rd
Warren,7059,NJ,9 Ridge Rd
Warren,7059,NJ,4 Cambridge Dr
Warren,7059,NJ,7 Mountain Trail
Warren,7059,NJ,6 Mountain Trail
Warren,7059,NJ,28 Ellsworth Dr
Warren,7059,NJ,163 Washington Valley Rd
,,,
Warren,7059,NJ,Rutgers Rd
Warren,7059,NJ,Newark Ave
Watchung,7069,NJ,333 Stirling Rd
Watchung,7069,NJ,88 Century Ln
Watchung,7069,NJ,1640 US-22
Watchung,7069,NJ,1660 US-22
Watchung,7069,NJ,33 Bonnie Burn Rd
Watchung,7069,NJ,62 Canterbury Ln
Watchung,7069,NJ,1081 Johnston Dr
Watchung,7069,NJ,584 Ridge Rd
Berkeley Heights,7922,NJ,20 Shady Grove Ln
Berkeley Heights,7922,NJ,134 Rutgers Ave
Berkeley Heights,7922,NJ,159 Emerson Ln
Berkeley Heights,7922,NJ,169 Emerson Ln
Berkeley Heights,7922,NJ,149 Emerson Ln
Berkeley Heights,7922,NJ,187 Emerson Ln
New Providence,7974,NJ,600 Mountain Ave
Clark,7066,NJ,53 Sweetbriar Dr
,,,
Clark,7066,NJ,97 Acorn Dr
Clark,7066,NJ,105 Victoria Dr
Clark,7066,NJ,79 Skyline Dr
Clark,7066,NJ,23 Doris Way
Clark,7066,NJ,70 Hutchinson St
Clark,7066,NJ,55 Frances Dr
Clark,7066,NJ,330 Westfield Ave
Clark,7066,NJ,324 Westfield Ave
Clark,7066,NJ,61 School St
Clark,7066,NJ,7 Riverside Dr
Clark,7066,NJ,23 Plymouth Rd
Clark,7066,NJ,35 Prescott Turn
Clark,7066,NJ,25 Harrison St
Clark,7066,NJ,8 Harold Ave
Clark,7066,NJ,132 Lincoln Blvd
Clark,7066,NJ,18 Lupine Way
Clark,7066,NJ,237 Valley Rd
Clark,7066,NJ,180 Liberty St
Clark,7066,NJ,49 Brant Ave #1
Clark,7066,NJ,49 Brant Ave #2
Clark,7066,NJ,3 Oak St
Clark,7066,NJ,65 Colonial Dr
Clark,7066,NJ,57 Colonial Dr
Clark,7066,NJ,1725 Westover Rd
Clark,7066,NJ,15 James Ave
Clark,7066,NJ,44 Coldevin Rd
Clark,7066,NJ,31 Coldevin Rd
Cranford,7016,NJ,33 Canterbury Pl
Cranford,7016,NJ,25 Central Ave
Cranford,7016,NJ,20 Holly St
Cranford,7016,NJ,211 N Balmiere Rd
Cranford,7016,NJ,18 Brookdale Rd
Cranford,7016,NJ,53 Richmond Ave
Cranford,7016,NJ,181 Locust Dr
Cranford,7016,NJ,208 Orange Ave
Cranford,7016,NJ,101 Cranford Ave
Cranford,7016,NJ,190 N Ave E #1a
Cranford,7016,NJ,14 Johnson Ave
,,,
Cranford,7016,NJ,9 Marsh St
Cranford,7016,NJ,14 Connecticut St
Cranford,7016,NJ,153 Denman Rd
Cranford,7016,NJ,113 High St
Cranford,7016,NJ,15 Pine St
Cranford,7016,NJ,123 Elm St
Cranford,7016,NJ,80 Centennial Ave
Cranford,7016,NJ,16 Hollywood Ave
Cranford,7016,NJ,122 Thomas St
Cranford,7016,NJ,146 Severin Ct
Cranford,7016,NJ,13 Meeker Ave
Cranford,7016,NJ,16 Crane Pkwy
,,,
Cranford,7016,NJ,621 Lexington Ave
Cranford,7016,NJ,4 McClellan St
Cranford,7016,NJ,16 Mohawk Dr
Fanwood,7023,NJ,Midway Ave
Garwood,7027,NJ,317 Cedar St
Garwood,7027,NJ,304 Walnut St
Garwood,7027,NJ,421 3rd Ave
Garwood,7027,NJ,329 3rd Ave
Garwood,7027,NJ,5 Cedar St
Garwood,7027,NJ,210 3rd Ave
Garwood,7027,NJ,210 North Ave
Garwood,7027,NJ,33 2nd Ave
Garwood,7027,NJ,117 Anchor Pl
Garwood,7027,NJ,667 Willow Ave
Garwood,7027,NJ,613 Willow Ave
Garwood,7027,NJ,523 Willow Ave
Garwood,7027,NJ,506 Myrtle Ave
Garwood,7027,NJ,502 Spruce Ave
Garwood,7027,NJ,524 Spruce Ave
Garwood,7027,NJ,430 Myrtle Ave
Garwood,7027,NJ,445 Myrtle Ave
Garwood,7027,NJ,404 Center St
Garwood,7027,NJ,327 Spruce Ave
Garwood,7027,NJ,131 Willow Ave
Garwood,7027,NJ,201 Spruce Ave
Garwood,7027,NJ,257 Locust Ave
Garwood,7027,NJ,445 Beech Ave
Garwood,7027,NJ,710 Center St
Garwood,7027,NJ,309 Pine Ave
Garwood,7027,NJ,312 Hazel Ave
Garwood,7027,NJ,358 Hazel Ave
Garwood,7027,NJ,431 Hazel Ave
,,,
,,,
,,,
Kenilworth,7033,NJ,418 N 15th St
Kenilworth,7033,NJ,400 N 15th St
Kenilworth,7033,NJ,325 N 18th St
Kenilworth,7033,NJ,235 N 22nd St
Kenilworth,7033,NJ,210 N 10th St
Kenilworth,7033,NJ,328 Monroe Ave
Kenilworth,7033,NJ,240 N 13th St
Kenilworth,7033,NJ,208 N 15th St
Kenilworth,7033,NJ,212 N 16th St
Kenilworth,7033,NJ,215 N 17th St
,,,
,,,
,,,
,,,
,,,
,,,
Kenilworth,7033,NJ,71 Pembrook Dr
Kenilworth,7033,NJ,3 Brasser Ln
,,,
,,,
,,,
,,,
,,,
,,,
,,,
,,,
Kenilworth,7033,NJ,307 Boulevard
Kenilworth,7033,NJ,316 Roosevelt Ln
Kenilworth,7033,NJ,58 Locust Dr
Kenilworth,7033,NJ,339 Coolidge Dr
,,,
,,,
,,,
Kenilworth,7033,NJ,363 Boulevard
,,,
,,,
,,,
,,,
Kenilworth,7033,NJ,735 Kingston Ave
,,,
,,,
,,,
,,,
,,,
,,,
Kenilworth,7033,NJ,644 Passaic Ave
,,,
,,,
Kenilworth,7033,NJ,584 Passaic Ave
,,,
,,,
Kenilworth,7033,NJ,540 Quinton Ave
Kenilworth,7033,NJ,532 Summit Ave
Kenilworth,7033,NJ,1 Red Maple Ln
Kenilworth,7033,NJ,614 Bloomingdale Ave
,,,
Kenilworth,7033,NJ,680 Trenton Ave
,,,
,,,
,,,
,,,
,,,
Kenilworth,7033,NJ,365 Faitoute Ave
,,,
Mountainside,7092,NJ,271 Appletree Ln
Mountainside,7092,NJ,1132 Corrinne Terrace
Mountainside,7092,NJ,863 Mountain Ave
Mountainside,7092,NJ,1048 US-22
,,,
,,,
,,,
,,,
Scotch Plains,7076,NJ,1807 Mountain Ave
,,,
,,,
,,,
Scotch Plains,7076,NJ,537 Dona Ln
,,,
,,,
Scotch Plains,7076,NJ,2232 Mountain Ave
,,,
Scotch Plains,7076,NJ,2256 Sunrise Ct
,,,
,,,
Scotch Plains,7076,NJ,441 Jerusalem Rd
Scotch Plains,7076,NJ,2666 Sky Top Dr
Scotch Plains,7076,NJ,2521 Smith St
,,,
,,,
,,,
Scotch Plains,7076,NJ,1301 Graymill Dr
Scotch Plains,7076,NJ,1955 Wood Rd
,,,
Scotch Plains,7076,NJ,2090 Raritan Rd
,,,
Scotch Plains,7076,NJ,14 Clydesdale Rd
Scotch Plains,7076,NJ,8 Round Hill Rd
Scotch Plains,7076,NJ,917 Raritan Rd
Scotch Plains,7076,NJ,871 Raritan Rd
Springfield Township,7081,NJ,92 Millburn Ave
,,,
Springfield Township,7081,NJ,552 Morris Ave
,,,
,,,
Springfield Township,7081,NJ,82 Colfax Rd
,,,
,,,
,,,
,,,
,,,
,,,
,,,
,,,
,,,
,,,
Springfield Township,7081,NJ,25 Tulip Rd
,,,
Springfield Township,7081,NJ,184 Tooker Ave
,,,
,,,
Springfield Township,7081,NJ,38 Clinton Ave
,,,
,,,
Springfield Township,7081,NJ,116 Linden Ave
Springfield Township,7081,NJ,50 Garden Oval
,,,
Springfield Township,7081,NJ,71 Morris Ave
,,,
,,,
,,,
,,,
,,,
,,,
,,,
,,,
,,,
,,,
,,,
,,,
,,,
,,,
,,,
,,,
,,,
,,,
,,,
Springfield Township,7081,NJ,26 Henshaw Ave
Springfield Township,7081,NJ,72 Warwick Cir
Springfield Township,7081,NJ,172 Shunpike Rd
,,,
,,,
Springfield Township,7081,NJ,294 Mountain Ave
,,,
Springfield Township,7081,NJ,48 Warwick Cir
Springfield Township,7081,NJ,36 Gail Ct
Springfield Township,7081,NJ,35 Gail Ct
Springfield Township,7081,NJ,5 Laurel Dr
Springfield Township,7081,NJ,84 Kew Dr
Springfield Township,7081,NJ,366 Mountain Ave
Springfield Township,7081,NJ,33 Kew Dr
Springfield Township,7081,NJ,353 Mountain Ave
Springfield Township,7081,NJ,98 Pitt Rd
Springfield Township,7081,NJ,164 Pitt Rd
Springfield Township,7081,NJ,264 S Springfield Ave
Springfield Township,7081,NJ,10 Cambridge Terrace
Springfield Township,7081,NJ,83 Pitt Rd
Springfield Township,7081,NJ,254 Northview Terrace
Springfield Township,7081,NJ,395 Meisel Ave
Springfield Township,7081,NJ,42 Redwood Rd
Springfield Township,7081,NJ,37 Hemlock Terrace
Springfield Township,7081,NJ,37 Sycamore Terrace
Springfield Township,7081,NJ,1 Dogwood Terrace
Springfield Township,7081,NJ,34 Cottler Ave
Springfield Township,7081,NJ,14 Cottler Ave
Springfield Township,7081,NJ,300 Milltown Rd
Springfield Township,7081,NJ,45 Christy Ln
Springfield Township,7081,NJ,43 Evergreen Ave
Springfield Township,7081,NJ,8 Surrey Ln
Springfield Township,7081,NJ,80 Twin Oaks Oval
Springfield Township,7081,NJ,21 Janet Ln
Springfield Township,7081,NJ,9 Cayuga Ct
Springfield Township,7081,NJ,510 Ashwood Rd
Springfield Township,7081,NJ,505 Ashwood Rd
Springfield Township,7081,NJ,37 Skylark Rd
,,,
Springfield Township,7081,NJ,32 Kipling Ave
Springfield Township,7081,NJ,746 S Springfield Ave
Springfield Township,7081,NJ,236 Hillside Ave
Springfield Township,7081,NJ,240 Hillside Ave
Springfield Township,7081,NJ,631 Mountain Ave
Springfield Township,7081,NJ,54 Ruby St
,,,
,,,
Springfield Township,7081,NJ,573 Mountain Ave
Springfield Township,7081,NJ,68 Diven St
Springfield Township,7081,NJ,82 Hillside Ave
,,,
,,,
Springfield Township,7081,NJ,15 New Brook Ln
Springfield Township,7081,NJ,31 Littlebrook Rd
Springfield Township,7081,NJ,199 Summit Rd
Springfield Township,7081,NJ,101 High Point Dr
Springfield Township,7081,NJ,71 High Point Dr
Springfield Township,7081,NJ,17 Juniper Way
Springfield Township,7081,NJ,6 Outlook Way
Springfield Township,7081,NJ,12 Fernhill Rd
Springfield Township,7081,NJ,92 Irwin St
Springfield Township,7081,NJ,124 Briar Hills Cir
Springfield Township,7081,NJ,91 Briar Hills Cir
Springfield Township,7081,NJ,108 Madison Terrace
Springfield Township,7081,NJ,93 Remer Ave
Springfield Township,7081,NJ,117 Mapes Ave
Springfield Township,7081,NJ,83 Kipling Ave
,,,"Dr. Robert A. Sussman, MD"
Springfield Township,7081,NJ,26 Remer Ave
Springfield Township,7081,NJ,8 Gregory Rd
Springfield Township,7081,NJ,6 Ronald Terrace
Springfield Township,7081,NJ,251 Hillside Ave
Springfield Township,7081,NJ,183 Lelak Ave
Springfield Township,7081,NJ,154 Lelak Ave
,,,
,,,
Springfield Township,7081,NJ,955 S Springfield Ave
Springfield Township,7081,NJ,955 S Springfield Ave
Springfield Township,7081,NJ,955 S Springfield Ave
Summit,7901,NJ,31 Hartley Rd
,,,
Summit,7901,NJ,12 Deforest Ave
Summit,7901,NJ,1 Deforest Ave
Summit,7901,NJ,71 Union Pl
Summit,7901,NJ,97 Blackburn Rd
Summit,7901,NJ,5 Crestwood Ln
,,,
Summit,7901,NJ,44 Beauvoir Ave
,,,
Summit,7901,NJ,54 Springfield Ave
Summit,7901,NJ,117 Orchard St
Summit,7901,NJ,12 Hughes Pl
Summit,7901,NJ,3 Tanglewood Dr
Summit,7901,NJ,76 Dale Dr
Union,7083,NJ,112 Mary Alice Ct
Union,7083,NJ,706 Green Ln
Union,7083,NJ,770 Green Ln
Union,7083,NJ,819 Bishop St
Union,7083,NJ,840 Hueston St
Union,7083,NJ,768 Vivian Terrace
Union,7083,NJ,23 Vivian Terrace
Union,7083,NJ,627 Palisade Rd
,,,
,,,
,,,
Union,7083,NJ,364 Summit Rd
Union,7083,NJ,634 Summit Rd
Union,7083,NJ,422 Durling Rd
Union,7083,NJ,461 Conant Ave
Union,7083,NJ,427 Ramsey Cir
Union,7083,NJ,1004 Woodland Ave
Union,7083,NJ,1017 Lowden Ave
Union,7083,NJ,327 Clermont Terrace
Union,7083,NJ,1141 Magie Ave
Union,7083,NJ,341 Roseland Pl
Union,7083,NJ,1187 Magie Ave
Union,7083,NJ,985 Arnet Ave
Union,7083,NJ,953 Potter Ave
Union,7083,NJ,961 Potter Ave
Union,7083,NJ,985 Potter Ave
Union,7083,NJ,1192 Morris Ave
Union,7083,NJ,795 Colonial Arms Rd
Union,7083,NJ,786 Nixon Rd
,,,
,,,
Union,7083,NJ,724 Colonial Arms Rd
,,,
Union,7083,NJ,723 Colonial Arms Rd
Union,7083,NJ,707 Colonial Arms Rd
Union,7083,NJ,424 Huntington Rd
Union,7083,NJ,394 Martin Rd
,,,
Union,7083,NJ,863 Galloping Hill Rd
,,,
Union,7083,NJ,870 Randolph Pl
Union,7083,NJ,513 Scotland Rd
,,,La Lanterna di Vittorio
Union,7083,NJ,502 Scotland Rd
Union,7083,NJ,563 Salem Rd
,,,
,,,
,,,
,,,
,,,
,,,
,,,
,,,
Union,7083,NJ,220 Connecticut Rd
Union,7083,NJ,875 Prospect St
Union,7083,NJ,134 Walton Ave
Union,7083,NJ,389 Mercer Ave
Union,7083,NJ,255 Tucker Ave #103
Union,7083,NJ,255 Tucker Ave #123
Union,7083,NJ,255 Tucker Ave #133
Union,7083,NJ,255 Tucker Ave #224
Union,7083,NJ,255 Tucker Ave #233
Union,7083,NJ,255 Tucker Ave #241
Union,7083,NJ,255 Tucker Ave #305
,,,
Union,7083,NJ,266 Chestnut St
Union,7083,NJ,344 Whitewood Rd
Union,7083,NJ,320 Whitewood Rd
Union,7083,NJ,310 Whitewood Rd
,,,
,,,
,,,
,,,
,,,
,,,
,,,
,,,
,,,
,,,
,,,
,,,
,,,
,,,
,,,
,,,
Union,7083,NJ,560 Yorktown Rd
Union,7083,NJ,565 Schuyler Way
,,,
Union,7083,NJ,334 Meade Terrace
,,,
Union,7083,NJ,356 Durham Ct
Union,7083,NJ,414 Wayne Terrace
,,,
Union,7083,NJ,653 Lexington Rd
Union,7083,NJ,682 Winchester Ave
Union,7083,NJ,678 Winchester Ave
Union,7083,NJ,306 Minute Arms Rd
Union,7083,NJ,334 Minute Arms Rd
Union,7083,NJ,701 Colonial Ave
Union,7083,NJ,338 Broadwell Ave
Union,7083,NJ,360 Broadwell Ave
,,,
Union,7083,NJ,319 Broadwell Ave
Union,7083,NJ,312 Sherwood Rd
Union,7083,NJ,330 Sherwood Rd
,,,
Union,7083,NJ,321 Sherwood Rd
Union,7083,NJ,836 Salem Rd
Union,7083,NJ,373 Sherwood Rd
Union,7083,NJ,906 Lorraine Ave
,,,
,,,
Union,7083,NJ,864 Colonial Ave
Union,7083,NJ,876 Colonial Ave
Union,7083,NJ,721 Suburban Rd
Union,7083,NJ,741 Midland Blvd
Union,7083,NJ,1226 Wildwood Terrace
Union,7083,NJ,1256 Magnolia Pl
,,,
Union,7083,NJ,1083 Potter Ave
Union,7083,NJ,1019 Salem Rd
Union,7083,NJ,1235 Morris Ave
Union,7083,NJ,1207 Robert St
Union,7083,NJ,1495 Joanna Way
Union,7083,NJ,1395 Gustav Ave
Union,7083,NJ,1383 Gustav Ave
Union,7083,NJ,1228 Roger Ave
Union,7083,NJ,1236 Roger Ave
Union,7083,NJ,Gray Ave
Union,7083,NJ,1381 Cornell Pl
,,,
,,,
,,,
Union,7083,NJ,1314 Marcella Dr
Union,7083,NJ,1290 Marcella Dr
Union,7083,NJ,1159 Erhardt St
Union,7083,NJ,1185 Harmony Rd
Union,7083,NJ,1944 Patton Rd
Union,7083,NJ,1064 Reeves Terrace
Union,7083,NJ,1065 Sayre Rd S
Union,7083,NJ,1029 Sayre Rd S
,,,
,,,
,,,
,,,
,,,
,,,
,,,
,,,
,,,
,,,
,,,
Union,7083,NJ,1129 Cranbrook Rd
,,,
,,,
,,,
,,,
,,,
,,,
,,,
,,,
Union,7083,NJ,1247 Erhardt St
Union,7083,NJ,1221 Highland Ave
Union,7083,NJ,1436 Arsdale Terrace
Union,7083,NJ,16 Richard Terrace
Union,7083,NJ,15 Richard Terrace
Union,7083,NJ,1523 Rose Terrace
Union,7083,NJ,85 Richard Terrace
Union,7083,NJ,31 Portland Rd
Union,7083,NJ,1481 Carlsen Dr
Union,7083,NJ,1459 Carlsen Dr
Union,7083,NJ,1451 Carlsen Dr
Union,7083,NJ,1590 Gregory Ave
Union,7083,NJ,1771 Oak Hill Dr
Union,7083,NJ,1776 Union Ave
,,,
,,,
Union,7083,NJ,1871 Quaker Way
,,,
,,,
Union,7083,NJ,1806 Quaker Way
Union,7083,NJ,1237 Grandview Ave
Union,7083,NJ,1953 Haines Ave
Union,7083,NJ,1261 Harding Ave
,,,
Union,7083,NJ,1213 Coolidge Ave
Union,7083,NJ,1212 Victor Ave
Union,7083,NJ,1259 Victor Ave
,,,
,,,
,,,
Union,7083,NJ,1846 Vauxhall Rd
Union,7083,NJ,1038 Harding Ave
Union,7083,NJ,1034 Grandview Ave
Union,7083,NJ,587 Andress Terrace
Union,7083,NJ,481 Crawford Terrace
,,,
Union,7083,NJ,591 Golf Terrace
Union,7083,NJ,475 Carpenter Pl
,,,
Union,7083,NJ,599 Chestnut St
Union,7083,NJ,239 Colonial Ave
Union,7083,NJ,241 Woodmont Rd
Union,7083,NJ,216 Lincoln Ave
Union,7083,NJ,268 Lincoln Ave
Union,7083,NJ,418 Rosetta Pl
,,,
Union,7083,NJ,413 Rosetta Pl
,,,
,,,
Union,7083,NJ,586 Carlyle Pl
Union,7083,NJ,562 Lillian Terrace
,,,
Union,7083,NJ,359 Craw
