City,Zipcode,State,Address
,,,
Verona,7044,NJ,2 Claridge Dr #5bw
Verona,7044,NJ,2 Claridge Dr #5ge
Verona,7044,NJ,2 Claridge Dr #6be
Verona,7044,NJ,2 Claridge Dr #6hw
,,,
Verona,7044,NJ,2 Claridge Dr #7dw
Verona,7044,NJ,2 Claridge Dr #7ke
Verona,7044,NJ,2 Claridge Dr #7kw
Verona,7044,NJ,2 Claridge Dr #8fw
Verona,7044,NJ,2 Claridge Dr #8gw
,,,
,,,
Verona,7044,NJ,2 Claridge Dr #9hw
Verona,7044,NJ,2 Claridge Dr #10ce
,,,
,,,
,,,
Verona,7044,NJ,2 Claridge Dr #11fe
Verona,7044,NJ,2 Claridge Dr #11jw
,,,
,,,
,,,
,,,
,,,
,,,
,,,
Verona,7044,NJ,349 Bloomfield Ave
Verona,7044,NJ,349 Bloomfield Ave
,,,
Butler,7405,NJ,95 Bartholdi Ave
Butler,7405,NJ,97 Bartholdi Ave
Butler,7405,NJ,36 Brook St
Denville,7834,NJ,156 Casterline Rd
Denville,7834,NJ,503 Openaki Rd
30 Estling Lake Rd,,,Estling Village
,,,
Denville,7834,NJ,26 Thurmont Rd
Denville,7834,NJ,E Main St
Denville,7834,NJ,33 Meadow St
Denville,7834,NJ,307 Palmer Rd
Denville,7834,NJ,349 Franklin Rd
,,,
Denville,7834,NJ,53 Seneca Trail
Denville,7834,NJ,3 Longview Trail E
