City,NoOfReviews,CompanyName,AverageReview,URL,Zipcode,Phone,State,Address,row
,,,,,,,,,1
,,,,,,,,,2
Bloomfield,,,,,07003,,NJ,483 Beardsley Ave,25
,,,,,,,,,50
,,,,,,,,,55
,,,,,,,,,92
,,,,,,,,,157
Bloomfield,,,,,07003,,NJ,42 Edison St,158
Bloomfield,,,,,07003,,NJ,51 Lewis St,183
,,,,,,,,,186
Bloomfield,,,,,07003,,NJ,6 Lincoln St,189
Bloomfield,,,,,07003,,NJ,11 Clarendon Pl,204
Bloomfield,,,,,07003,,NJ,63 Orchard St,205
Bloomfield,,,,,07003,,NJ,43 Montgomery St,206
Bloomfield,,,,,07003,,NJ,18 John St #2b,207
Bloomfield,,,,,07003,,NJ,30 John St #1d,208
Bloomfield,,,,,07003,,NJ,101 Orchard St,209
Bloomfield,,,,,07003,,NJ,30 Benson St,210
Bloomfield,,,,,07003,,NJ,162 State St,211
Bloomfield,,,,,07003,,NJ,2 Almira St,212
Bloomfield,,,,,07003,,NJ,25 New St,213
Bloomfield,,,,,07003,,NJ,227 Spruce St,218
Bloomfield,,,,,07003,,NJ,360 Hoover Ave #111,257
Clifton,,,,,07013,,NJ,95 Maplewood Rd,280
Springfield Township,,,,,07081,,NJ,56 Marcy Ave,281
Millburn,,,,,07041,,NJ,130 Spring St,282
,,,,,,,,,283
Summit,,,,,07901,,NJ,838 Broad St,332
,,,,,,,,,333
Brick,,,,,08723,,NJ,88 Maplewood Dr,334
,,,,,,,,,335
Millburn,,,,,07041,,NJ,24 Rector St,336
,,,,,,,,,337
,,,,,,,,,342
City of Orange,,,,,07050,,NJ,10 Main St,343
,,,,,,,,,344
,,,,,,,,,345
,,,,,,,,,346
Springfield Township,,,,,07081,,NJ,67 Eton Pl,347
Bloomfield,,,,,07003,,NJ,15 Philips St,348
Montclair,,,,,07042,,NJ,68 Bell St,349
Bloomfield,,,,,07003,,NJ,18 Barnett St,478
,,,,,,,,,515
,,,,,,,,,516
,,,,,,,,,517
,,,,,,,,,518
,,,,,,,,,519
Nutley,,,,,07110,,NJ,42 Crestwood Ave,520
Passaic,,,,,07055,,NJ,3 Ball Ave,585
,,,,,,,,,594
Passaic,,,,,07055,,NJ,289 Elmwood Ave,605
,,,,,,,,,606
,,,,,,,,,645
,,,,,,,,,648
,,,,,,,,,649
,,,,,,,,,652
,,,,,,,,,673
,,,,,,,,,684
,,,,,,,,,685
,,,,,,,,,686
,,,,,,,,,687
,,,,,,,,,688
,,,,,,,,,787
,,,,,,,,,792
,,,,,,,,,807
,,,,,,,,,808
,,,,,,,,,809
,,,,,,,,,810
,,,,,,,,,811
,,,,,,,,,812
,,,,,,,,,937
Morris Plains,,,,,07950,,NJ,25 Mill Run Ct,1070
,,,,,,,,,1133
,,,,,,,,,1222
,,,,,,,,,1485
,,,,,,,,,1492
,,,,,,,,,1493
,,,,,,,,,1494
,,,,,,,,,1495
,,,,,,,,,1496
,,,,,,,,,1497
,,,,,,,,,1498
,,,,,,,,,1499
,,,,,,,,,1500
,,,,,,,,,1501
,,,,,,,,,1510
,,,,,,,,,1521
,,,,,,,,,1522
,,,,,,,,,1527
,,,,,,,,,1528
,,,,,,,,,1529
,,,,,,,,,1534
Woodbridge Township,,,,,07067,,NJ,2 Claridge Pl #12ge,1535
Woodbridge Township,,,,,07067,,NJ,2 Claridge Pl #12ke,1536
,,,,,,,,,1537
,,,,,,,,,1538
,,,,,,,,,1539
,,,,,,,,,1540
,,,,,,,,,1545
,,,,,,,,,1557
,,,,,,,,,1568
,,,,,,,,,1573
,,,,,,,,,1574
,,,,,,,,,1575
,,,,,,,,,1576
,,,,,,,,,1577
,,,,,,,,,1578
,,,,,,,,,1579
,,,,,,,,,1580
,,,,,,,,,1581
,,,,,,,,,1582
,,,,,,,,,1583
,,,,,,,,,1584
,,,,,,,,,1585
,,,,,,,,,1586
,,,,,,,,,1587
,,,,,,,,,1588
,,,,,,,,,1589
,,,,,,,,,1590
,,,,,,,,,1591
,,,,,,,,,1592
,,,,,,,,,1593
,,,,,,,,,1594
,,,,,,,,,1595
,,,,,,,,,1596
,,,,,,,,,1597
,,,,,,,,,1598
,,,,,,,,,1599
,,,,,,,,,1600
,,,,,,,,,1601
,,,,,,,,,1602
,,,,,,,,,1603
,,,,,,,,,1604
,,,,,,,,,1605
,,,,,,,,,1606
,,,,,,,,,1607
,,,,,,,,,1608
,,,,,,,,,1609
,,,,,,,,,1610
,,,,,,,,,1611
,,,,,,,,,1612
,,,,,,,,,1613
,,,,,,,,,1614
,,,,,,,,,1615
,,,,,,,,,1616
,,,,,,,,,1633
,,,,,,,,,1634
,,,,,,,,,1635
,,,,,,,,,1636
,,,,,,,,,1637
,,,,,,,,,1656
,,,,,,,,,1657
,,,,,,,,,1658
,,,,,,,,,1659
,,,,,,,,,1660
,,,,,,,,,1687
,,,,,,,,,1688
,,,,,,,,,1691
,,,,,,,,,1692
,,,,,,,,,1693
,,,,,,,,,1696
,,,,,,,,,1882
,,,,,,,,,2138
,,,,,,,,,2149
,,,,,,,,,2170
,,,,,,,,,2171
,,,,,,,,,2172
,,,,,,,,,2177
,,,,,,,,,2200
,,,,,,,,,2223
,,,,,,,,,2224
,,,,,,,,,2225
,,,,,,,,,2240
,,,,,,,,,2241
,,,,,,,,,2250
,,,,,,,,,2251
,,,,,,,,,2252
,,,,,,,,,2253
,,,,,,,,,2254
,,,,,,,,,2255
,,,,,,,,,2256
,,,,,,,,,2257
,,,,,,,,,2258
,,,,,,,,,2259
,,,,,,,,,2260
,,,,,,,,,2261
,,,,,,,,,2262
,,,,,,,,,2263
,,,,,,,,AVE Union,2264
,,,,,,,,,2265
,,,,,,,,,2266
,,,,,,,,,2267
Maplewood,,,,,07040,,NJ,88 Parker Ave,2268
Maplewood,,,,,07040,,NJ,36 Parker Ave,2269
Maplewood,,,,,07040,,NJ,124 Parker Ave,2270
Maplewood,,,,,07040,,NJ,165 Parker Ave,2271
Maplewood,,,,,07040,,NJ,125 Parker Ave,2272
,,,,,,,,,2273
,,,,,,,,,2274
Roselle,,,,,07203,,NJ,14 9th Ave,2275
,,,,,,,,,2276
,,,,,,,,,2277
Roselle,,,,,07203,,NJ,68 9th Ave,2278
Roselle,,,,,07203,,NJ,63 9th Ave,2279
,,,,,,,,,2296
,,,,,,,,,2305
,,,,,,,,,2322
,,,,,,,,,2323
,,,,,,,,,2388
Rahway,,,,,07065,,NJ,148 James Terrace,2401
,,,,,,,,,2404
Westfield,,,,,07090,,NJ,221 Virginia St,2407
Westfield,,,,,07090,,NJ,130 Boynton Ct,2408
,,,,,,,,,2410
,,,,,,,,,2411
,,,,,,,,,2446
,,,,,,,,Westfield Leader,2447
,,,,,,,,,2448
,,,,,,,,,2449
,,,,,,,,Allstate Insurance: Ron Bansky,2450
,,,,,,,,,2451
,,,,,,,,,2452
,,,,,,,,,2453
,,,,,,,,,2454
,,,,,,,,,2455
,,,,,,,,,2456
,,,,,,,,,2457
,,,,,,,,,2458
,,,,,,,,,2459
,,,,,,,,,2460
,,,,,,,,,2461
,,,,,,,,,2462
,,,,,,,,,2463
,,,,,,,,,2464
,,,,,,,,,2465
,,,,,,,,,2484
