City,NoOfReviews,CompanyName,AverageReview,URL,Zipcode,Phone,State,Address,row
,,,,,,,,,1537
,,,,,,,,,1538
,,,,,,,,,1561
,,,,,,,,,1586
,,,,,,,,,1591
,,,,,,,,,1628
,,,,,,,,,1693
,,,,,,,,,1694
,,,,,,,,,1719
,,,,,,,,,1722
,,,,,,,,,1725
,,,,,,,,,1740
,,,,,,,,,1741
,,,,,,,,,1742
,,,,,,,,,1743
,,,,,,,,,1744
,,,,,,,,,1745
,,,,,,,,,1746
,,,,,,,,,1747
,,,,,,,,,1748
,,,,,,,,,1749
,,,,,,,,,1754
,,,,,,,,,1793
,,,,,,,,,1816
,,,,,,,,,1817
,,,,,,,,,1818
,,,,,,,,,1819
,,,,,,,,,1868
,,,,,,,,,1869
,,,,,,,,,1870
,,,,,,,,,1871
,,,,,,,,,1872
,,,,,,,,,1873
,,,,,,,,,1878
,,,,,,,,,1879
,,,,,,,,,1880
,,,,,,,,,1881
,,,,,,,,,1882
,,,,,,,,,1883
,,,,,,,,,1884
,,,,,,,,,1885
,,,,,,,,,2014
,,,,,,,,,2051
,,,,,,,,,2052
,,,,,,,,,2053
,,,,,,,,,2054
,,,,,,,,,2055
,,,,,,,,,2056
,,,,,,,,,2121
,,,,,,,,,2130
,,,,,,,,,2141
,,,,,,,,,2142
,,,,,,,,,2181
,,,,,,,,,2184
,,,,,,,,,2185
,,,,,,,,,2188
,,,,,,,,,2209
,,,,,,,,,2220
,,,,,,,,,2221
,,,,,,,,,2222
,,,,,,,,,2223
,,,,,,,,,2224
,,,,,,,,,2323
,,,,,,,,,2328
,,,,,,,,,2343
,,,,,,,,,2344
,,,,,,,,,2345
,,,,,,,,,2346
,,,,,,,,,2347
,,,,,,,,,2348
,,,,,,,,,2473
City,NoOfReviews,CompanyName,AverageReview,URL,Zipcode,Phone,State,Address,row
,,,,,,,,,1537
Linden,,,,,07036,,NJ,349 U.S. 9,1538
Clark,,,,,07066,,NJ,33 Meadow Rd,1561
Kenilworth,,,,,07033,,NJ,Park Dr,1586
,,,,,,,,,1591
,,,,,,,,,1628
Burlington,,,,,08016,,NJ,545 James St,1693
Burlington,,,,,08016,,NJ,545 James St,1694
,,,,,,,,,1719
,,,,,,,,,1722
,,,,,,,,,1725
,,,,,,,,,1740
,,,,,,,,,1741
,,,,,,,,,1742
,,,,,,,,,1743
,,,,,,,,,1744
,,,,,,,,,1745
,,,,,,,,,1746
,,,,,,,,,1747
Millburn,,,,,07041,,NJ,7 Lakeside Dr,1748
Millburn,,,,,07041,,NJ,7 Lakeside Dr,1749
,,,,,,,,,1754
,,,,,,,,,1793
Summit,,,,,07901,,NJ,7 Elm St,1816
,,,,,,,,,1817
Clinton Township,,,,,08801,,NJ,35 West St,1818
Roselle,,,,,07203,,NJ,23 Kennedy Dr,1819
,,,,,,,,,1868
,,,,,,,,,1869
,,,,,,,,,1870
,,,,,,,,,1871
,,,,,,,,,1872
,,,,,,,,,1873
,,,,,,,,,1878
Springfield Township,,,,,07081,,NJ,64 Shunpike Rd,1879
Springfield Township,,,,,07081,,NJ,64 Shunpike Rd,1880
,,,,,,,,,1881
Maplewood,,,,,07040,,NJ,21 Broadview Ave,1882
Maplewood,,,,,07040,,NJ,21 Broadview Ave,1883
,,,,,,,,,1884
,,,,,,,,,1885
Newark,,,,,07112,,NJ,34 Wyndmoor Ave,2014
,,,,,,,,,2051
,,,,,,,,,2052
,,,,,,,,,2053
Irvington,,,,,07111,,NJ,21 Liberty St,2054
Irvington,,,,,07111,,NJ,21 Liberty St,2055
,,,,,,,,,2056
,,,,,,,,,2121
,,,,,,,,,2130
,,,,,,,,,2141
Irvington,,,,,07111,,NJ,28 Lincoln Pl,2142
Springfield Township,,,,,07081,,NJ,64 Hawthorne Ave,2181
Springfield Township,,,,,07081,,NJ,58 Hawthorne Ave,2184
,,,,,,,,P.S. 184 Flushing Manor,2185
,,,,,,,,,2188
,,,,,,,,,2209
Springfield Township,,,,,07081,,NJ,104 Diamond Rd,2220
Springfield Township,,,,,07081,,NJ,104 Diamond Rd,2221
,,,,,,,,,2222
,,,,,,,,,2223
,,,,,,,,Royale,2224
,,,,,,,,,2323
Alexandria,,,,,08867,,NJ,32 Alexandria Dr,2328
Springfield Township,,,,,07081,,NJ,196 Mountain Ave,2343
Springfield Township,,,,,07081,,NJ,196 Mountain Ave,2344
High Bridge,,,,,08829,,NJ,26 Ridge Rd,2345
High Bridge,,,,,08829,,NJ,26 Ridge Rd,2346
,,,,,,,,Farber Morton MD,2347
,,,,,,,,Farber Morton MD,2348
Westfield,,,,,07090,,NJ,Fairfield Cir,2473
