Category,City,Company,Zipcode,Phone,State,Street,Address,Website
,,,,,,,,
Category,City,Company,Zipcode,Phone,State,Street,Address,Website
Construction Company, New York,Plaza Construction,10018,+1 212-849-4800,NY,1065 Ave of the Americas #7,"1065 Ave of the Americas #7, New York, NY 10018, United States",http://www.plazaconstruction.com/
Construction Company, New York,"Gotham Construction Company, LLC",10018,+1 212-599-0520,NY,1010 Avenue of the Americas #4,"1010 Avenue of the Americas #4, New York, NY 10018, United States",http://www.gothamconstruction.com/
General Contractor, New York,Plaza Construction Corporation,10018,+1 212-647-0304,NY,400 12th Ave,"400 12th Ave, New York, NY 10018, United States",http://www.plazaconstruction.com/
Construction Company, New York,Gotham Construction,10036,+1 212-754-1115,NY,217 W 47th St,"217 W 47th St, New York, NY 10036, United States",http://www.gothamconstruction.com/
Construction Company, New York,Gotham Construction,10029,+1 212-369-3530,NY,1214 5th Ave,"1214 5th Ave, New York, NY 10029, United States",http://www.gothamconstruction.com/
General Contractor, New York,Gotham Construction,10128,+1 212-289-0754,NY,1844 2nd Ave,"1844 2nd Ave, New York, NY 10128, United States",http://www.gothamconstruction.com/
Construction Company, New York,IBEX Construction,10004,+1 646-366-6200,NY,1 Whitehall St,"1 Whitehall St, New York, NY 10004, United States",http://www.ibexconstruction.com/
General Contractor, New York,ACC Construction Corporation,10016,+1 212-686-9331,NY,6 E 32nd St #7,"6 E 32nd St #7, New York, NY 10016, United States",http://www.acc-construction.com/
General Contractor, New York,Titanium Construction Corporation,10001,+1 212-986-4753,NY,247 W 30th St # 6W,"247 W 30th St # 6W, New York, NY 10001, United States",http://www.titaniumcs.com/
General Contractor, New York,Holt Construction Corporation,10001,+1 212-391-0424,NY,875 Ave of the Americas # 1001,"875 Ave of the Americas # 1001, New York, NY 10001, United States",http://holtcc.com/
General Contractor, New York,Duce Construction Corporation,10027,+1 212-316-2400,NY,412 W 127th St,"412 W 127th St, New York, NY 10027, United States",http://www.ducecc.com/
Construction Company, New York,Building & Construction Trades,10010,+1 212-627-3580,NY,71 W 23rd St #501,"71 W 23rd St #501, New York, NY 10010, United States",
Construction Company, New York,Henegan Construction Co Inc,10001,+1 212-947-6441,NY,250 W 30th St,"250 W 30th St, New York, NY 10001, United States",http://www.henegan.com/
General Contractor, New York,JRM Construction,10018,+1 212-545-0500,NY,242 W 36th St,"242 W 36th St, New York, NY 10018, United States",http://www.jrmcm.com/
Construction Company, New York,Turner Construction Co,10004,+1 212-809-2447,NY,109 Governors Is,"109 Governors Is, New York, NY 10004, United States",http://www.turnerconstruction.com/
Construction Company, New York,Turner Construction Co,Square,+1 212-229-6388,Washington,United States,"United States, New York, Washington Square Village, 1",http://www.turnerconstruction.com/
General Contractor, New York,Excel Interior Construction,10018,+1 212-627-6319,NY,307 W 38th St #1501,"307 W 38th St #1501, New York, NY 10018, United States",http://www.excelinteriorny.com/
Construction Company, Queens,New York City School Construction,11101,+1 718-472-8000,NY,3030 Thomson Ave,"3030 Thomson Ave, Queens, NY 11101, United States",http://www.nycsca.org/
Construction Company, New York,Certified of NY Inc,10019,+1 212-397-1945,NY,623 W 51st St,"623 W 51st St, New York, NY 10019, United States",http://www.certifiedconstruction.com/
Category,City,Company,Zipcode,Phone,State,Street,Address,Website
Construction Company, New York,Certified of NY Inc,10019,+1 212-397-1945,NY,623 W 51st St,"623 W 51st St, New York, NY 10019, United States",http://www.certifiedconstruction.com/
Category,City,Company,Zipcode,Phone,State,Street,Address,Website
General Contractor, Chicago,Novak Construction,60618,+1 773-278-1100,IL,3423 N Drake Ave,"3423 N Drake Ave, Chicago, IL 60618, United States",http://www.novakconstruction.com/
Category,City,Company,Zipcode,Phone,State,Street,Address,Website
Construction Company, New York,Certified of NY Inc,10019,+1 212-397-1945,NY,623 W 51st St,"623 W 51st St, New York, NY 10019, United States",http://www.certifiedconstruction.com/
Category,City,Company,Zipcode,Phone,State,Street,Address,Website
General Contractor, Chicago,Novak Construction,60618,+1 773-278-1100,IL,3423 N Drake Ave,"3423 N Drake Ave, Chicago, IL 60618, United States",http://www.novakconstruction.com/
Category,City,Company,Zipcode,Phone,State,Street,Address,Website
Construction Company, Suite 220,"Clark Construction Group, LLC Houston Office",P,+1 713-636-3705,William,5353 West Alabama,"5353 West Alabama, Suite 220, William P Hobby Airport, Houston, TX 77056, United States",http://www.clarkconstruction.com/locations/houston
Category,City,Company,Zipcode,Phone,State,Street,Address,Website
Construction Company, NY 10014,Turner Construction Co,States,+1 212-229-6000,United,New York,"New York, NY 10014, United States",http://www.turnerconstruction.com/
Category,City,Company,Zipcode,Phone,State,Street,Address,Website
Construction Company, New York,Certified of NY Inc,10019,+1 212-397-1945,NY,623 W 51st St,"623 W 51st St, New York, NY 10019, United States",http://www.certifiedconstruction.com/
Category,City,Company,Zipcode,Phone,State,Street,Address,Website
Construction Company, New York,Certified of NY Inc,10019,+1 212-397-1945,NY,623 W 51st St,"623 W 51st St, New York, NY 10019, United States",http://www.certifiedconstruction.com/
Category,City,Company,Zipcode,Phone,State,Street,Address,Website
,,,,,,,,
