City,NoOfReviews,CompanyName,AverageReview,URL,Zipcode,Phone,State,Address
 FL 33317,,West Broward Property Management Inc,,westbrowardcommunitymanagement.com, 33312,(954) 581-8686, United States,"820 S State Road 7 , Fort Lauderdale"
 Fort Lauderdale,,"Home Solutions Property Management, Inc.",,rentsoon.com, FL 33315,(954) 545-3027, United States,"4837 N Dixie Hwy, Fort Lauderdale"
 Fort Lauderdale,,Fort Lauderdale Property Management,,, FL 33301,(954) 372-7501, United States,"Tower 101, 101 NE 3rd Ave #1500"
 Lauderdale Lakes,,Phoenix Management Services Inc,,phoenixfla.com, FL 33319,(954) 640-7070, United States,"4800 FL-7, Lauderdale Lakes"
Fort Lauderdale,6 reviews,Eastside Management,3.2,, FL 33307,(954) 835-5978, United States,"Fort Lauderdale, FL 33307"
 Fort Lauderdale,,Swing Property Management Services,,swing-property-management.com, FL 33301,(954) 636-4824, United States,"445 E Las Olas Blvd, Fort Lauderdale"
 Fort Lauderdale,,Elegant Homes Realty,,eleganthomesprop.com, FL 33309,(954) 772-7158, United States,"1001 W Cypress Creek Rd, Fort Lauderdale"
 Fort Lauderdale,,Property Management Pros.com (South Florida),,fortlauderdalepropertymanagementpros.com, FL 33309,(561) 463-3399, United States,"1451 W Cypress Creek Rd #300, Fort Lauderdale"
 Fort Lauderdale,,Fitzgerald Property Management,,fitzgeraldgroup.com, FL 33316,(954) 760-4360, United States,"1800 Eller Dr #222, Fort Lauderdale"
 Plantation,,"TDSunshine Property Management, LLC",,tdsunshine.com, FL 33317,(954) 585-0228, United States,"330 S State Rd 7 #500, Plantation"
 Fort Lauderdale,,"Allied Property Management Group, Inc.",,alliedpmg.com, FL 33316,(305) 600-1403, United States,"150 Davie Blvd #300, Fort Lauderdale"
 Fort Lauderdale,,JCG Property Management LLC,,fortlauderdalepropertymanagement.com, FL 33304,(954) 562-8210, United States,"2455 Sunrise Blvd #801, Fort Lauderdale"
 Fort Lauderdale,,Stiles Property Management,,stiles.com, FL 33301,(954) 525-9316, United States,"401 SE 4th Ave Las Olas Pl # 1170, Fort Lauderdale"
 Fort Lauderdale,,MG Property Management,,mg-mgt.com, FL 33306,(954) 530-4912, United States,"3049 N Federal Hwy, Fort Lauderdale"
 Fort Lauderdale,6 reviews,Greystar South Florida Office,3.2,greystar.com, FL 33301,(954) 627-1673, United States,"101 NE 3rd Ave Suite 1810, Fort Lauderdale"
 Fort Lauderdale,,Florida Professional Property,,floridaprofessionalpropertymanagement.com, FL 33306,(954) 567-9111, United States,"2737 E Open Park 203, Fort Lauderdale"
 Fort Lauderdale,,Personal Property Management,,, FL 33309,(954) 970-0799, United States,"1500 W Cypress Creek Rd # 108, Fort Lauderdale"
 Fort Lauderdale,11 reviews,Smart Move Crew Accommodations,4.3,smartmovecrew.com, FL 33316,(954) 525-9559, United States,"716 SE 17th St, Fort Lauderdale"
 Fort Lauderdale,,Blue Crest Management LLC,,bluecrestmanagement.com, FL 33312,(954) 745-0899, United States,"2962 SW 26th Terrace, Fort Lauderdale"
 Fort Lauderdale,,Exclusive Property Management,,exclusivepm.net, FL 33309,(954) 969-1330, United States,"2945 W Cypress Creek Rd #201, Fort Lauderdale"
 Fort Lauderdale,,Mac Vacation Rental Services LLC,,fortlauderdalevacationproperties.com, FL 33301,(954) 903-3107, United States,"511 SE 5th Ave #1222, Fort Lauderdale"
 Fort Lauderdale,,Broward Properties Inc,,, FL 33316,(954) 523-6423, United States,"2014 S Andrews Ave, Fort Lauderdale"
 Fort Lauderdale,,Berger Commercial Realty Corporation,,bergercommercial.com, FL 33316,(954) 358-0900, United States,"1600 SE 17th St, Fort Lauderdale"
 Fort Lauderdale,,Rockbridge - Ft Lauderdale Office,,therockbridgegroup.com, FL 33312,(954) 378-2346, United States,"4101 Ravenswood Rd #320, Fort Lauderdale"
 Fort Lauderdale,6 reviews,Real Estate Management Advisors LLC,3.2,reinfo411.com, FL 33309,(561) 221-0900, United States,"1001 W Cypress Creek Rd #406, Fort Lauderdale"
 Fort Lauderdale,,1 Stop Realty & Property Management,,, FL 33308,(954) 533-9351, United States,"2465 E Commercial Blvd, Fort Lauderdale"
 Fort Lauderdale,,Transwestern,,transwestern.net, FL 33301,(954) 607-1083City,NoOfReviews,CompanyName,AverageReview,URL,Zipcode,Phone,State,Address
 Inglewood,,All Of Us property Management,,allofuspropertymanagement.com, CA 90301,(310) 396-8888, United States,"335 E Manchester Blvd #200, Inglewood"
 Inglewood,28 reviews,Elly Nesis Company Inc.,3.7,ellynesis.com, CA 90301,(310) 396-4443, United States,"226 S Glasgow Ave, Inglewood"
 Inglewood,,SIC Inc Property Management,,, CA 90305,(323) 750-4445, United States,"2701 W Manchester Blvd, Inglewood"
 Inglewood,,M G Connections Property Management,,mgcpm.com, CA 90305,(323) 758-2433, United States,"2322 W 78th Pl, Inglewood"
 Inglewood,,New Castle Management Group,,newcastlemanagementonline.com, CA 90302,(310) 362-6164, United States,"515 N La Brea Ave, Inglewood"
Inglewood,,Royce Property Management,,roycemanagement.com, CA 90301,(310) 337-0723, United States,"Inglewood, CA 90301"
 Inglewood,,New Wave Property,,newwaveproperty.net, CA 90301,(310) 215-0065, United States,"401 E Hillcrest Blvd # K, Inglewood"
 Los Angeles,,BRE,,breproperties.com, CA 90045,(310) 568-9482, United States,"5700 W Centinela Ave, Los Angeles"
 Inglewood,,Rader Co,,theradercompany.com, CA 90301,(310) 337-7075, United States,"828 W Hillcrest Blvd # A, Inglewood"
 Culver City,,Property Management Associates,,wemanageproperties.com, CA 90230,(323) 295-2000, United States,"6011 Bristol Pkwy, Culver City"
 Inglewood,,Morales Property Management,,, CA 90301,(310) 330-0158, United States,"337 W Queen St, Inglewood"
 Inglewood,28 reviews,110th S La Brea Place Building,3.7,, CA 90301,(310) 674-8593, United States,"110 La Brea Ave # 265, Inglewood"
 Inglewood,,Kanmco,,, CA 90309,(310) 671-2928, United States,"PO Box 4418, Inglewood"
 Inglewood,,Lou Ann Investments LP,,, CA 90302,(310) 673-2559, United States,"509 Centinela Ave # 101, Inglewood"
 Los Angeles,,M G Connection Property Management,,mgcpm.com, CA 90047,(323) 758-2433, United States,"8505 Western Ave, Los Angeles"
 Los Angeles,,Hines,,hines.com, CA 90045,(310) 342-9893, United States,"Los Angeles International Airport, 6033 W Century Blvd # 110"
 Culver City,,Transwestern,,transwestern.net, CA 90230,(310) 645-7038, United States,"300 Corporate Pointe # 350, Culver City"
 Los Angeles,,FirstService Residential,,fsr-california.com, CA 90045,(310) 574-7426, United States,"6080 Center Dr #210, Los Angeles"
 Inglewood,,LA Affordable Rentals,,, CA 90302,(888) 430-8971, United States,"815 N La Brea Ave, Inglewood"
 Lennox,,Premier Properties,,, CA 90304,(310) 674-4455, United States,"4533 W Imperial Hwy, Lennox"
 Los Angeles,,"Lockhart Group, LLC",,eclproperties.com, CA 90056,(323) 945-4818, United States,"4859 W Slauson Ave, Los Angeles"
 Inglewood,28 reviews,International Business Centers: LAX Commercial Real Esate,3.7,laxre.com, CA 90301,(310) 645-6077, United States,"440 Hindry Ave, Inglewood"
 Los Angeles,,Prologis,,prologis.com, CA 90045,(310) 641-2100, United States,"11099 S La Cienega Blvd # 150, Los Angeles"
 Los Angeles,,The Festival Companies,,festivalcos.com, CA 90045,(310) 337-2955, United States,"9841 Airport Blvd # 700, Los Angeles"
 Los Angeles,,IRC & Associates,,, CA 90045,(310) 348-1177, United States,"5227 Knowlton St # A, Los Angeles"
 Inglewood,,"Greystone Management Group, Inc.",,gmgapts.com, CA 90305,(310) 412-1029, United States,"3120 Hollypark Dr, Inglewood"
 Los Angeles,,"Property Management Personnel, Inc.",,pmpincusa.com, CA 90045,(310) 258-0400, United States,"6733 S Sepulveda Blvd #170, Los Angeles"
 Los Angeles,,All County Beach Cities Property Management,,allcountybeachcities.com, CA 90045,(310) 216-4400, United States,"8929 S Sepulveda Blvd #206, Los Angeles"
 Hawthorne,27 reviews,JRealty Property Management,5.0,jrealty.org, CA 90250,(888) 868-6156, United States,"13234 Prairie Ave, Hawthorne"
 Culver City,,Sherwood Management Co Inc,,, CA 90230,(310) 665-2100, United States,"5700 Hannum Ave # 200, Culver City"
 Inglewood,,Team Equity LA Property Management,,teamequityla.com, CA 90305,(323) 750-3690, United States,"8467 S Van Ness Ave, Inglewood"
 Los Angeles,28 reviews,International Realty & Investments,3.7,intlrealtyinvestment.com, CA 90047,(323) 754-2818, United States,"11215 Western Ave, Los Angeles"
 Los Angeles,,Minority Apartment Owners Association,,intlrealtyinvestment.com, CA 90047,(323) 754-4334, United States,"11215 Western Ave, Los Angeles"
 Hawthorne,,M&M Property Management,,propertymm.com, CA 90250,(310) 679-8686, United States,"14131 Hawthorne Boulevard, Hawthorne"
 Lawndale,24 reviews,Jenkins Property Management,1.5,jenkinspropertymanagement.com, CA 90260,(310) 219-3840, United States,"14511 Hawthorne Blvd, Lawndale"
 Gardena,7 reviews,Swami International,3.0,swamiint.com, CA 90249,(310) 769-6669, United States,"2030 W Rosecrans Ave, Gardena"
 Los Angeles,15 reviews,EGL Properties Inc.,3.9,eglproperties.com, CA 90025,(310) 481-0922, United States,"1543 Pontius Ave, Los Angeles"
 Pasadena,86 reviews,Beven & Brock Property Management,4.5,bevenandbrock.com, CA 91101,(626) 795-3282, United States,"99 S Lake Ave #100, Pasadena"
 Culver City,27 reviews,Power Property Management,5.0,powerpropertymanagement.com, CA 90230,(310) 593-3955, United States,"11295 W Washington Blvd, Culver City"
 Hawthorne,,Jamison Management Co,,jamico.com, CA 90250,(310) 644-1332, United States,"14310 Yukon Ave, Hawthorne"
 Los Angeles,,Pacific Shore Property Management,,pspmla.com, CA 90064,(310) 839-8970, United States,"2214 Artemis Place, Los Angeles"
 Lomita,28 reviews,Penmar Management,3.7,penmarmanagement.com, CA 90717,(310) 326-3424, United States,"24020 Narbonne Ave, Lomita"
 Torrance,16 reviews,Mabry Management Inc.,2.8,mabrymgmt.com, CA 90505,(310) 373-9382, United States,"23717 Hawthorne Blvd #300, Torrance"
 Manhattan Beach,15 reviews,"First Light Property Management, Inc",4.6,firstlightpropertymanagement.com, CA 90266,(888) 773-7573, United States,"1001 Manhattan Beach Blvd, Manhattan Beach"
 Torrance,24 reviews,Nationwide Property Management Inc,1.5,nwpmgt.com, CA 90503,(310) 543-9729, United States,"3737 Torrance Blvd, Torrance"
 Los Angeles,20 reviews,Stern Property Management,3.6,sternmanagement.com, CA 90036,(323) 525-1501, United States,"5979 W 3rd St #2, Los Angeles"
 Santa Monica,8 reviews,Westside Property Management Inc.,4.4,westsidepropertymanagement.com, CA 90403,(310) 310-8063, United States,"2116 Wilshire Blvd #211, Santa Monica"
 Woodland Hills,86 reviews,NorthOak Property Management,4.5,northoak.com, CA 91364,(818) 715-0575, United States,"20501 Ventura Blvd, Woodland Hills"
 Los Angeles,27 reviews,Topa Management Company,5.0,topamanagement.com, CA 90067,(310) 203-9199, United States,"1800 Avenue of the Stars #1400, Los Angeles"
 Los Angeles,,"MCM Property Management, Inc.",,mcmprop.com, CA 90066,(323) 951-1432, United States,"11260 Westminster Ave, Los Angeles"
 Manhattan Beach,,Management Consultants,,tmcproperty.com, CA 90266,(310) 546-7777, United States,"952 Manhattan Beach Blvd #250, Manhattan Beach"
Los Angeles,28 reviews,Southland Property Management,3.7,southlandpropertymanagement.com, CA,(310) 651-8740, United States,"Los Angeles, CA"
 Burbank,16 reviews,Integrity Property Management,2.8,integritymgnt.com, CA 91502,(818) 557-0001, United States,"710 S Victory Blvd # 200, Burbank"
 Lawndale,15 reviews,"R.E.M.S, Inc., Real Estate Management Services",4.6,wemanageproperty.com, CA 90260,(310) 793-9500, United States,"15900 Hawthorne Blvd #203, Lawndale"
 Los Angeles,24 reviews,Commercial Property Management Inc,1.5,cpmusa.com, CA 90020,(213) 739-2000, United States,"3251 W 6th St #109, Los Angeles"
 Burbank,20 reviews,Pineridge Property Inc,3.6,pineridgeprop.com, CA 91505,(818) 848-5545, United States,"4116 W Magnolia Blvd # 207, Burbank"
 Los Angeles,8 reviews,ISM Management Company,4.4,ismrem.com, CA 90025,(310) 473-2406, United States,"1516 S Bundy Dr #300, Los Angeles"
 Los Angeles,86 reviews,Ironstone Property Management Inc,4.5,ironstoneprop.com, CA 90028,(323) 465-6131, United States,"Crossroads of the World, 6671 Sunset Blvd"
 Los Angeles,14 reviews,TDI Properties - Los Angeles Property Management,3.5,tdipropertiesinc.com, CA 90010,(213) 389-9277, United States,"3325 Wilshire Blvd Suite 350, Los Angeles"
 Los Angeles,,Moss & Co,,mosscompany.com, CA 90025,(310) 826-8347, United States,"1342 Wellesley Ave, Los Angeles"
 Long Beach,7 reviews,"Pabst, Kinney & Associates, Inc.",3.0,pabstkinney.com, CA 90803,(562) 439-2147, United States,"248 Redondo Ave, Long Beach"
 Los Angeles,28 reviews,Duke Property Management,3.7,dukepm.com, CA 90035,(310) 657-4256, United States,"1040 S. Robertson Blvd, Suite B."
 Woodland Hills,16 reviews,Tandem Property Management,2.8,tandemlyons.com, CA 91367,(818) 883-4202, United States,"6453 Independence Ave, Woodland Hills"
 Glendale,15 reviews,Gaska Inc,4.6,gaskainc.com, CA 91210,(818) 956-7599, United States,"100 W Broadway #950, Glendale"
 Torrance,24 reviews,Babcock Associates,1.5,babcockmgmt.com, CA 90503,(310) 212-6660, United States,"2515 Sonoma St, Torrance"
 Los Angeles,20 reviews,"Kingstone Properties, Inc.",3.6,kingstoneproperties.com, CA 90010,(310) 363-0100, United States,"4221 Wilshire Blvd, Los Angeles"
 Woodland Hills,8 reviews,Westcom Property Services,4.4,westcommgmt.com, CA 91364,(818) 587-9500, United States,"20631 Ventura Fwy, Woodland Hills"
 Burbank,86 reviews,"Jonan Property Services, Inc.",4.5,jonanpropertyservices.com, CA 91502,(818) 846-2188, United States,"348 E Olive Ave, Burbank"
 Northridge,14 reviews,A & O Properties Management,3.5,ao-properties.com, CA 91324,(818) 886-4471, United States,"9003 Reseda Blvd # 202, Northridge"
 Los Angeles,,Morlin Asset Management,,morlinmgmt.com, CA 90071,(213) 622-4442, United States,"444 S Flower St # 500, Los Angeles"
 Manhattan Beach,7 reviews,OCG Properties,3.0,ocgproperties.com, CA 90266,(424) 757-4680, United States,"1500 Rosecrans Ave #500, Manhattan Beach"
 Beverly Hills,23 reviews,The Eberly Company,4.4,eberlyco.com, CA 90211,(323) 937-6468, United States,"8383 Wilshire Blvd #906, Beverly Hills"
Los Angeles,16 reviews,Triumph Management,2.8,, CA 90020,(213) 365-1656, United States,"Los Angeles, CA 90020"
 Gardena,15 reviews,De Miranda Management,4.6,demiranda.com, CA 90247,(310) 532-6369, United States,"1251 W Redondo Beach Blvd # 1, Gardena"
 Los Angeles,24 reviews,Mosaic Student Communities,1.5,livewithmosaic.com, CA 90007,(323) 733-2258, United States,"2905 Vermont Ave #204, Los Angeles"
 Long Beach,20 reviews,Beach Front Property Management,3.6,bfpminc.com, CA 90807,(562) 981-7777, United States,"3711 Long Beach Blvd # 814, Long Beach"
 Sherman Oaks,8 reviews,City Wide Apartment Management,4.4,, CA 91403,(818) 981-1885, United States,"15335 Morrison St #104, Sherman Oaks"
 Playa Del Rey,86 reviews,Westview Real Estate Inc.,4.5,inglewoodrealestateagency.com, CA 90293,(424) 223-5527, United States,"8055 W Manchester Ave, Suite # 715"
 Burbank,14 reviews,Bur-Cal Management,3.5,burcalapts.com, CA 91502,(818) 845-7495, United States,"101 S 1st St #400, Burbank"
 Hawthorne,,R 3 Properties LLC,,, CA 90250,(310) 970-9440, United States,"13405 Inglewood Ave, Hawthorne"
 Beverly Hills,7 reviews,James Engel,3.0,gemanage.com, CA 90210,(310) 985-0985, United States,"439 N Canon Dr Ste 300, Beverly Hills"
 Los Angeles,23 reviews,Melco Properties,4.4,, CA 90028,(323) 466-3526, United States,"1626 Wilcox Ave, Los Angeles"
 Long Beach,16 reviews,International Realty,2.8,intlrealtyinvestment.com, CA 90807,(562) 427-8626, United States,"1100 E Wardlow Rd, Long Beach"
 Los Angeles,15 reviews,Edgemont Apartments,4.6,actionapartments.com, CA 90027,(323) 644-2660, United States,"1725 N Edgemont St, Los Angeles"
 Hawthorne,24 reviews,Greystone Management Group,1.5,, CA 90250,(310) 644-2151, United States,"13622 Chadron Ave, Hawthorne"
 Redondo Beach,20 reviews,TR Wealth Management Inc.,3.6,trapartments.com, CA 90277,(310) 316-1014, United States,"1924 S Pacific Coast Hwy, Redondo Beach"
 Sherman Oaks,8 reviews,Jones & Jones Management Group,4.4,jjmginc.com, CA 91423,(818) 990-9995, United States,"12954 Riverside Dr, Sherman Oaks"
 Gardena,86 reviews,Overton Moore Properties,4.5,omprop.com, CA 90248,(310) 323-9100, United States,"19300 S Hamilton Ave # 200, Gardena"
 Beverly Hills,14 reviews,StarPoint Properties,3.5,starpointproperties.com, CA 90210,(310) 247-0550, United States,"450 N Roxbury Dr # 1050, Beverly Hills"
 El Segundo,,CBRE El Segundo,,cbre.us, CA 90245,(310) 363-4900, United States,"2221 Rosecrans Ave #100, El Segundo"
 Los Angeles,7 reviews,Thomas Safran & Associates,3.0,tsahousing.com, CA 90049,(310) 820-4888, United States,"11812 San Vicente Blvd # 600, Los Angeles"
 Los Angeles,8 reviews,William Holdings Prop Management,4.2,williamholdings.com, CA 90046,(323) 851-1115, United States,"7510 Sunset Blvd, Los Angeles"
 Los Angeles,16 reviews,Apartment Associaton of Greater Los Angeles,2.8,aagla.org, CA 90005,(213) 384-4131, United States,"621 S Westmoreland Ave, Los Angeles"
 Los Angeles,15 reviews,Transwestern,4.6,transwestern.net, CA 90017,(213) 624-5700, United States,"601 S Figueroa St #2750, Los Angeles"
 Los Angeles,24 reviews,Century West Properties,1.5,rentcwp.com, CA 90025,(310) 899-9580, United States,"12327 Santa Monica Blvd #101, Los Angeles"
 Santa Monica,20 reviews,Watt Commercial Properties,3.6,wattcompanies.com, CA 90405,(310) 314-2430, United States,"2716 Ocean Park Blvd # 3040, Santa Monica"
 Los Angeles,8 reviews,Botach Management,4.4,botachproperties.com, CA 90019,(323) 933-3971, United States,"5011 W Pico Blvd, Los Angeles"
 Los Angeles,86 reviews,MGConnection Property Management,4.5,, CA 90043,(323) 299-0754, United States,"4428 W Slauson Ave #13, Los Angeles"
 Long Beach,14 reviews,Jenkins Property Management,3.5,jenkinspropertymanagement.com, CA 90804,(562) 498-9508, United States,"1130 Newport Ave # 110, Long Beach"
 Los Angeles,,Centers Business Management,,cbm1.com, CA 90025,(310) 575-1517, United States,"1517 S Sepulveda Blvd, Los Angeles"
 Los Angeles,7 reviews,Charles Dunn Company,3.0,charlesdunn.com, CA 90017,(213) 481-1800, United States,"Pacific Financial Center, 800 W 6th St"
 Los Angeles,8 reviews,TenTen Wilshire,3.9,1010wilshire.com, CA 90017,(877) 338-1010, United States,"1010 Wilshire Blvd, Los Angeles"
 Bellflower,16 reviews,Swami Int,2.8,swamirentals.com, CA 90706,(562) 866-7100, United States,"15719 Eucalyptus Ave # 1, Bellflower"
 Los Angeles,15 reviews,Westwood Apartments,4.6,wemanageproperties.com, CA 90034,(310) 287-0474, United States,"3712 Westwood Blvd, Los Angeles"
Torrance,24 reviews,First Light Property Management,1.5,firstlightpropertymanagement.com, CA,(888) 773-7573, United States,"Torrance, CA"
 Playa Del Rey,20 reviews,Falmouth Court Apartments,3.6,wemanageproperties.com, CA 90293,(310) 577-5251, United States,"8674 Falmouth Ave, Playa Del Rey"
 Pacific Palisades,8 reviews,Westside Property Management,4.4,westsidepropertymanagement.com, CA 90272,(800) 551-1586, United States,"17352 Sunset Blvd, Pacific Palisades"
 Los Angeles,20 reviews,"MCM Property Management, Inc.",3.6,mcmprop.com, CA 90048,(323) 951-0400, United States,"6399 Wilshire Blvd #803, Los Angeles"
 El Segundo,14 reviews,Newmark Grubb Knight Frank,3.5,ngkf.com, CA 90245,(310) 491-2000, United States,"2321 Rosecrans Ave #4200, El Segundo"
 Torrance,,Faith Realty,,faithrealtysocal.com, CA 90503,(310) 328-6688, United States,"2515 W Carson St Suite 101, Torrance"
 Hawthorne,7 reviews,Jamison Management Co,3.0,jamico.com, CA 90250,(310) 798-9154, United States,"13930 Chadron Ave #205, Hawthorne"
Santa Monica,8 reviews,"First Light Property Management, Inc",3.9,firstlightpropertymanagement.com, CA,(888) 773-7573, United States,"Santa Monica, CA"
 Venice,16 reviews,Abbot Lofts,2.8,wemanageproperties.com, CA 90291,(310) 310-3520, United States,"1645 Abbot Kinney Blvd, Venice"
 Calabasas,15 reviews,Westside Property Management Inc.,4.6,westsidepropertymanagement.com, CA 91302,(310) 310-8063, United States,"5023 Parkway Calabasas, Calabasas"
 Hollywood,24 reviews,"MCM Property Management, Inc.",1.5,mcmprop.com, CA 90028,(323) 951-1433, United States,"1546 Cassil Pl, Hollywood"
 Culver City,20 reviews,JRealty Property Management,3.6,jrealty.org, CA 90230,(888) 868-6156, United States,"10736 Jefferson Blvd, Culver City"
 North Hollywood,8 reviews,Ramona Apartments,4.4,integritymgnt.com, CA 91605,(818) 765-1005, United States,"7745 Laurel Canyon Blvd, North Hollywood"
 Gardena,20 reviews,JRealty Property Management,3.6,jrealty.org, CA 90248,(888) 868-6156, United States,"621 W Rosecrans Ave, Gardena"
 Redondo Beach,14 reviews,Jamison Management Company,3.5,jamico.com, CA 90277,(310) 798-9154, United States,"107 W Torrance Blvd #104, Redondo Beach"
 Sherman Oaks,,Moss & Company,,mosscompany.com, CA 91423,(818) 501-8710, United States,"14440 Dickens St, Sherman Oaks"
 Manhattan Beach,7 reviews,JRealty Property Management,3.0,jrealty.org, CA 90266,(888) 868-6156, United States,"2711 N Sepulveda Blvd, Manhattan Beach"
 Sherman Oaks,8 reviews,Moss & Company,3.9,, CA 90403,, United States,"15300 Ventura Blvd #405, Sherman Oaks"
 Los Angeles,16 reviews,Miller & Desatnik Realty Corporation,2.8,mdrents.com, CA 90034,(310) 202-9166, United States,"3627 Motor Ave, Los Angeles"
 Glendale,15 reviews,"Morlin Asset Management, LP",4.6,morlinmgmt.com, CA 91203,(213) 622-4442, United States,"701 N Brand Blvd, Glendale"
 Pasadena,24 reviews,Pasadena Tri City Ventures,1.5,morlinmgmt.com, CA 91101,(626) 795-7757, United States,"150 S Los Robles Ave # 470, Pasadena"
 Los Angeles,20 reviews,Transwestern,3.6,transwestern.net, CA 90036,(323) 857-6990, United States,"5055 Wilshire Blvd # 204, Los Angeles"
 Los Angeles,8 reviews,Transwestern,4.4,transwestern.net, CA 90025,(310) 893-1700, United States,"11111 Santa Monica Blvd # 100, Los Angeles"
 Beverly Hills,20 reviews,Transwestern,3.6,transwestern.net, CA 90210,(310) 734-2010, United States,"9355 Wilshire Blvd # 200, Beverly Hills"
 Los Angeles,14 reviews,BRE,3.5,essexapartmenthomes.com, CA 90036,(323) 937-0306, United States,"5600 Wilshire Blvd, Los Angeles"
 Los Angeles,,Transwestern,,, CA 90036,(323) 939-0300, United States,"5750 Wilshire Blvd # 525, Los Angeles"
 North Hollywood,7 reviews,Essex Property Trust Inc,3.0,essexapartmenthomes.com, CA 91601,(818) 762-0408, United States,"11021 McCormick St, North Hollywood"
 Woodland Hills,8 reviews,Essex Property Trust Inc,3.9,essexpropertytrust.com, CA 91367,(818) 227-2100, United States,"22120 Clarendon St #200, Woodland Hills"
 Los Angeles,16 reviews,GHP Management Corporation,2.8,ghpmgmt.com, CA 90017,(213) 213-0190, United States,"1082 W 7th St, Los Angeles"
 Cerritos,15 reviews,Prologis,4.6,prologis.com, CA 90703,(949) 251-6100, United States,"1777 Center Ct Dr N # 100, Cerritos"
 Antioch,,"Select 1 Realty, Property Management",,select1realty.com, CA 94509,(925) 706-9000, United States,"1500 A St, Antioch"
 Antioch,,"E.E.N. Property Management, Inc.",,eenpropertymanagementinc.com, CA 94509,(925) 778-3366, United States,"1000 Apollo Ct, Antioch"
 Antioch,,Property Upsurge Inc,,managebuilding.com, CA 94509,(925) 363-5328, United States,"100 E 18th St, Antioch"
 Antioch,,Bob Gunson Real Estate,,bobgunson.com, CA 94509,(925) 778-6000, United States,"320 E 18th St, Antioch"
 Antioch,,Aloha Property Management,,, CA 94509,(925) 432-1728, United States,"2006 A St #200, Antioch"
 Antioch,,First Realty Pryor & Associates,,markpryor.com, CA 94509,(925) 754-7000, United States,"2321 Buchanan Rd, Antioch"
 Antioch,,Anctioch Property Management,,, CA 94509,(925) 778-1793, United States,"2201 W 10th St, Antioch"
 Antioch,,Waypoint Homes,,waypointhomes.com, CA 94531,(844) 641-4663, United States,"3397 Deer Valley Rd, Antioch"
 Antioch,12 reviews,Twin Creek Apartments,2.4,twincreeksapts.com, CA 94509,(866) 865-2269, United States,"1111 James Donlon Blvd, Antioch"
Pittsburg,,Bruce Croskey Real Estate,,homesbycroskey.com, CA,(800) 985-8923, United States,"Pittsburg, CA"
Pittsburg,,Bruce Croskey Real Estate,,homesbycroskey.com, CA,(925) 219-8488, United States,"Pittsburg, CA"
 Pittsburg,,New Way Management Services,,newwaymgmt.com, CA 94565,(925) 522-5410, United States,"158 E 3rd St, Pittsburg"
Oakley,,A. Meadows Property Management,,, CA,(925) 625-7975, United States,"Oakley, CA"
 Antioch,,Windermere/Signature Collection,,, CA 94531,(925) 778-9445, United States,"5087 Lone Tree Way, Antioch"
 Pittsburg,,Property Upsurge,,propertyupsurge.com, CA 94565,(925) 363-5328, United States,"501 Railroad Ave, Pittsburg"
 Walnut Creek,,Spm Properties Inc,,spmproperties.com, CA 94596,(925) 930-7760, United States,"1330 N Broadway # C, Walnut Creek"
 Brentwood,,Best Property Management Inc,,bestproperty4u.com, CA 94513,(925) 392-2411, United States,"191 Sand Creek Rd # 100, Brentwood"
 Walnut Creek,,"Irvin Real Estate, Inc.",,mattirvin.com, CA 94597,(925) 472-6534, United States,"1255 Treat Blvd #300, Walnut Creek"
 Clayton,8 reviews,Golden Gate Real Estate & Management,4.9,goldengateteam.com, CA 94517,(925) 672-4062, United States,"8040 Kelok Way, Clayton"
 San Ramon,,Castle Management,,castlemanagement.com, CA 94583,(925) 328-1240, United States,"12885 Alcosta Blvd, San Ramon"
 Pleasant Hill,,Stokley Properties Inc,,stokleyproperties.net, CA 94523,(925) 658-1415, United States,"2300 Contra Costa Blvd, Pleasant Hill"
 Brentwood,,Marples Property Management,,marplespropertymanagement.com, CA 94513,(925) 699-5550, United States,"8340 Brentwood Blvd, Brentwood"
 Pleasant Hill,,Cardoza Properties Inc,,cardozainc.com, CA 94523,(925) 691-0800, United States,"101 Ellinwood Dr, Pleasant Hill"
 Concord,,Real Property Management Select,,propertymanagementselect.com, CA 94520,(925) 326-6060, United States,"2280 Diamond Blvd #150, Concord"
 Brentwood,,WR Properties,,wrpropertiesbayarea.com, CA 94513,(925) 634-3100, United States,"9040 Brentwood Blvd #B, Brentwood"
 Walnut Creek,,Rpm Rent Solutions,,realpropertymgt.com, CA 94597,(925) 262-8145, United States,"2950 Buskirk Ave, Walnut Creek"
 San Ramon,,Park Place Property Management,,parkplpm.com, CA 94583,(925) 824-4817, United States,"2682 Bishop Dr Suite 101, San Ramon"
 Danville,,Metro Property Management Co,,metrorentals.net, CA 94526,(925) 556-1976, United States,"313 Sycamore Valley Rd W, Danville"
 Concord,8 reviews,Contra Costa Properties,4.9,, CA 94518,(925) 687-0111, United States,"950 Detroit Ave, Concord"
 Walnut Creek,,Creekside Terrace Apartments,,fpimgt.com, CA 94596,(925) 939-1850, United States,"1390 Creekside Dr, Walnut Creek"
 Walnut Creek,,Creekside Terrace Apartments,,fpimgt.com, CA 94596,(925) 939-1850, United States,"1390 Creekside Dr, Walnut Creek"
 Pleasant Hill,,Strain Co,,propertymanagersinc.com, CA 94523,(925) 932-1700, United States,"140 Mayhew Way # 1003, Pleasant Hill"
 Pleasant Hill,,Property Manager,,, CA 94523,(925) 798-2000, United States,"563 Contra Costa Blvd, Pleasant Hill"
 Lincoln,,"Property Management, Inc.",,pmi4lincoln.com, NE 68510,(402) 489-3344, United States,"Esquare plaza, 237 S 70th St #104"
 Lincoln,,Best Choice Realty,,lincolnsbestchoice.com, NE 68506,(402) 477-4126, United States,"5025 Glade St, Lincoln"
 Lincoln,,Commercial Investment Properties,,rentcip.com, NE 68512,(402) 434-7368, United States,"8525 Executive Woods Dr, Lincoln"
 Lincoln,13 reviews,Tri-Win Properties,1.5,triwinproperties.com, NE 68510,(402) 438-0946, United States,"2008 O St, Lincoln"
 Lincoln,28 reviews,"Century Sales & Management, LLC",2.9,gocentury.com, NE 68506,(402) 437-8321, United States,"2855 S 70th St #200, Lincoln"
 Lincoln,,Perry Reid Properties,,perryreid.com, NE 68526,(402) 488-1666, United States,"9200 Andermatt Dr, Lincoln"
 Lincoln,,Eden Management Services Inc,,edenlincoln.com, NE 68506,(402) 489-2333, United States,"4535 Normal Blvd, Lincoln"
 Lincoln,6 reviews,Nebraska Real Estate Investment Solutions,2.0,nebraskaris.com, NE 68516,(402) 435-5000, United States,"6121 S 58th St, Lincoln"
 Lincoln,,R D Hinkley & Associates Inc,,rdhinkley.com, NE 68504,(402) 466-1686, United States,"2734 N 48th St, Lincoln"
 Lincoln,,NAI FMA Realty,,naifmarealty.com, NE 68508,(402) 441-5800, United States,"Wells Fargo Bank, 1248 O St #550"
 Lincoln,,Rental Real Estate,,rentalre.com, NE 68506,(402) 489-6345, United States,"1845 S 48th St, Lincoln"
 Lincoln,,Concorde Management & Development Inc,,concordemgmt.com, NE 68508,(402) 476-0086, United States,"1225 L Steet Suite 501, Lincoln"
 Lincoln,,Kabredlo's Property Management,,, NE 68512,, United States,"4401 S 27th St, Lincoln"
 Broken Arrow,,The Property Manager,,thepropertymanager.com, OK 74011,(918) 258-8500, United States,"6503 S Elm Pl, Broken Arrow"
 Tulsa,,"ONEprop, inc.",,oneproptulsa.com, OK 74133,(800) 634-0663, United States,"7112 S Mingo Rd, Tulsa"
 Broken Arrow,,The Property Manager,,thepropertymanager.com, OK 74012,(918) 258-8500, United States,"2001 West Washington, Broken Arrow"
 Tulsa,,John Hausam Realtors,,johnhausam.com, OK 74133,(918) 299-4200, United States,"8988 S Sheridan Rd #J, Tulsa"
 Broken Arrow,,"Advance Property Management & Leasing, LLC.",,, OK 74012,(918) 277-2027, United States,"1175 S Aspen Ave, Broken Arrow"
 Broken Arrow,,Hickory Grove,,hickorygroveapts.net, OK 74012,(918) 258-3055, United States,"1101 W Houston St, Broken Arrow"
 Broken Arrow,5 reviews,Greens At Broken Arrow II,3.8,, OK 74012,(918) 994-6250, United States,"2101 E Omaha St, Broken Arrow"
 Broken Arrow,,McGraw Realtors,,mcgrawrealtors.com, OK 74012,(918) 592-6000, United States,"308 N Aspen Ave, Broken Arrow"
 Tulsa,8 reviews,"Home Finders Leasing and Management, Inc.",4.9,homes-tulsa.com, OK 74145,(918) 665-0212, United States,"5321 S Sheridan Rd #30, Tulsa"
 Broken Arrow,,Cornell Properties LLC,,, OK 74012,(918) 251-9354, United States,"817 S Elm Pl #105, Broken Arrow"
Broken Arrow,,Asset Management Services,,, OK 74011,(918) 251-8107, United States,"Broken Arrow, OK 74011"
 Broken Arrow,10 reviews,The Greens @ Broken Arrow,2.2,lindseymanagement.com, OK 74012,(918) 355-0802, United States,"1441 E Omaha St, Broken Arrow"
 Broken Arrow,,Indian Springs Apartments,,ross-management.com, OK 74011,(918) 455-1600, United States,"2177 W Jasper St, Broken Arrow"
 Tulsa,,John Hausam Property Management and Leasing,,, OK 74133,(918) 492-8700, United States,"8988 S Sheridan Rd, Tulsa"
 Tulsa,11 reviews,Vicki Berg Property Manager Incorporated,4.1,vickiberg.com, OK 74135,(918) 664-5756, United States,"5153 E 51st St #112, Tulsa"
Tulsa,,The RaderGroup Property Management and Leasing Company,,cbtulsa.com, OK,(918) 392-3660, United States,"Tulsa, OK"
 Tulsa,5 reviews,"Properties Plus, Inc.",3.8,propertiesplus.com, OK 74136,(918) 488-8880, United States,"7040 S Yale Ave #100, Tulsa"
 Jenks,,Tulsa Property Managers,,tulsapropertymanagers.com, OK 74037,(918) 895-9727, United States,"416 E B St, Jenks"
 Tulsa,8 reviews,John Hausam Realtors,4.9,johnhausam.com, OK 74133,(918) 492-8700, United States,"8988 S Sheridan Suite J, Tulsa"
 Tulsa,,American Residential Group,,argtulsa.com, OK 74105,(918) 748-8636, United States,"2624 E 21st St, Tulsa"
 Tulsa,,McGraw Property Management & Leasing,,mcgrawpropertymanagement.com, OK 74105,(918) 592-6000, United States,"4105 S Rockford Ave, Tulsa"
 Tulsa,10 reviews,Case & Associates,2.2,caseusa.com, OK 74135,(918) 492-1983, United States,"4200 E Skelly Dr #800, Tulsa"
 Tulsa,,Leinbach Co,,leinbach.com, OK 74105,(918) 743-2100, United States,"2240 E 49th St #100, Tulsa"
 Tulsa,,Chinowth & Cohen Realtors,,cctulsa.com, OK 74105,(918) 392-9900, United States,"1441 E 41st St, Tulsa"
 Tulsa,11 reviews,Chinowth & Cohen Realtors LLC,4.1,cctulsa.com, OK 74137,(918) 392-0900, United States,"3912 E 91st St, Tulsa"
 Tulsa,,Jeff Boone Homeselling Team Chinowth & Cohen Realtors,,greatertulsarealestate.com, OK 74133,(918) 406-5685, United States,"9110 S Sheridan Rd, Tulsa"
 Tulsa,5 reviews,Robbie Scott Property Management Leasing & Sales llc,3.8,robbiescottleasing.com, OK 74135,(918) 764-9522, United States,"5401 S Harvard Ave #105, Tulsa"
 Tulsa,,Cb Richards Ellis Oklahoma,,cbre.us, OK 74119,(918) 665-3830, United States,"1401 South Boulder Ave W, Tulsa"
 Jenks,8 reviews,John Hausam Realtors,4.9,johnhausam.com, OK 74037,(918) 492-2000, United States,"1104 W. Main St, Homes For Sale Jenks | Jenks Homes | Jenks Houses"
 Tulsa,,"Mike Polsgrove, McGraw Realtors",,mikepolsgrove.com, OK 74136,(918) 592-6000, United States,"5711 E 71st St Suite 100, Tulsa"
 Tulsa,,McGraw Davisson Stewart Realtors,,mcgrawrealtors.com, OK 74135,(918) 746-4604, United States,"4612 S Harvard Ave, Tulsa"
Tulsa,10 reviews,"Advance Property Management & Leasing, LLC.",2.2,, OK 74133,(918) 286-1587, United States,"Tulsa, OK 74133"
 Tulsa,,Mc Graw Realtors,,mcgrawrealtors.com, OK 74133,(918) 592-6000, United States,"8040 S Sheridan Rd, Tulsa"
 Mesa,36 reviews,Bennett Property Management,2.2,bennett2rentit.com, AZ 85210,(480) 969-1818, United States,"101 E 1st Ave Ste. 105, Mesa"
 Mesa,60 reviews,Real Property Management East Valley,3.6,rpmeastvalley.com, AZ 85203,(480) 981-7000, United States,"950 E Brown Rd, Mesa"
 Mesa,11 reviews,"East Valley Property Management, LLC",2.6,myevpm.com, AZ 85204,(480) 926-9001, United States,"1855 E Southern Ave #112, Mesa"
 Mesa,75 reviews,On Q Property Management,4.7,onqpm.com, AZ 85206,(480) 518-9910, United States,"4555 E Inverness Ave #101, Mesa"
 Mesa,13 reviews,TCT Property Management Services,1.7,tctproperties.com, AZ 85209,(480) 632-4222, United States,"2500 S Power Road, Suite 121"
 Gilbert,,Mesa Verde Property Management,,mesaverderentals.com, AZ 85234,(480) 539-5700, United States,"935 N Tucana Ln, Gilbert"
 Mesa,11 reviews,Red Hawk Property Management,4.5,redhawkpm.com, AZ 85204,(480) 396-9766, United States,"1555 S Gilbert Rd #108, Mesa"
 Mesa,,"Farnsworth-Ricks Management & Realty, Inc.",,farnsworth-ricks.com, AZ 85205,(480) 924-1300, United States,"6001 E University Dr, Mesa"
 Mesa,,"RMB Properties, LLC",,rmbprop.com, AZ 85203,(480) 329-1122, United States,"2158 N Gilbert Rd #114, Mesa"
 Mesa,15 reviews,"Mark Brower Properties, LLC",4.6,markrent.com, AZ 85206,(480) 336-2556, United States,"4838 E Baseline Rd #104, Mesa"
 Mesa,8 reviews,Valley Executives,3.8,vepmaz.com, AZ 85202,(480) 756-4281, United States,"#184, 1255 W Baseline Rd"
 Phoenix,14 reviews,Home Lovers II LLC,3.6,homelovers.com, AZ 85040,(602) 792-5333, United States,"4001 E Broadway Rd, Phoenix"
 Mesa,11 reviews,Mi Casa Property Management,2.6,, AZ 85213,(480) 969-4180, United States,"2135 N University Green Apartment # 119, Mesa"
 Mesa,33 reviews,Rentals America,5.0,rentalsamerica.com, AZ 85215,(480) 374-5500, United States,"4711 E Falcon Dr, Mesa"
 Mesa,13 reviews,Beehive Property Managment,1.7,beehiveproperties.com, AZ 85204,(480) 981-1430, United States,"1855 E Southern Ave, Mesa"
 Gilbert,25 reviews,Invitation Homes,2.1,invitationhomes.com, AZ 85233,(480) 499-3800, United States,"1325 N Fiesta Blvd Suite 103, Gilbert"
 Mesa,11 reviews,Snow Property Services,4.5,snowpropertyservices.com, AZ 85212,(480) 635-1133, United States,"4135 S Power Rd, Mesa"
Mesa,,1-WORLD Property Management & Realty,,, AZ 85216,(480) 540-9000, United States,"Mesa, AZ 85216"
Mesa,11 reviews,Caballero Property Management Inc,1.8,caballeroaz.com, AZ 85275,(480) 813-1900, United States,"Mesa, AZ 85275"
 Mesa,15 reviews,Ogden & Company,4.6,ogdenre.com, AZ 85203,(480) 396-4567, United States,"1901 E University Dr # 440, Mesa"
 Mesa,6 reviews,"Tri-City Property Management Services, Inc.",2.8,tcpm.net, AZ 85204,(480) 844-2224, United States,"760 S Stapley Dr, Mesa"
 Mesa,14 reviews,Hometrend Property Management & Real Estate,3.6,hometrendrentals.com, AZ 85204,(480) 832-6757, United States,"1819 E Southern Ave, Mesa"
 Mesa,11 reviews,R.A.N Realty & Property Management,2.6,ranazrealty.com, AZ 85213,(480) 844-0600, United States,"116 N Lindsay Rd # 14, Mesa"
 Mesa,9 reviews,Sundial Real Estate,3.3,sundialrealestateaz.com, AZ 85201,(480) 966-2170, United States,"263 W 3rd Pl, Mesa"
 Mesa,19 reviews,Brown Community Management,2.2,brownmanagement.com, AZ 85209,(480) 539-1396, United States,"7255 E Hampton Ave #101, Mesa"
 Mesa,25 reviews,Cornerstone Property Services,2.1,cornerstoneazhomes.com, AZ 85204,(480) 282-5800, United States,"1616 S Stapley Dr, Mesa"
 Mesa,11 reviews,Prime Time Properties Management and Real Estate,4.5,, AZ 85209,(480) 833-7228, United States,"7227 E Baseline Rd #114, Mesa"
 Mesa,17 reviews,Farnsworth Realty & Management,3.2,farnsworthrealty.com, AZ 85206,(480) 830-9945, United States,"460 S Greenfield Rd #5, Mesa"
 Mesa,9 reviews,Apartment Hunters,1.7,ah-az.com, AZ 85210,(480) 969-2400, United States,"1660 S Alma School Rd # 205, Mesa"
 Mesa,5 reviews,Cluff Property Management,4.3,, AZ 85204,(480) 252-4576, United States,"119 S Stapley Dr, Mesa"
 Mesa,6 reviews,Celtic Property Management,2.8,celticpropertymanagement.com, AZ 85201,(480) 596-3350, United States,"950 W Main St, Mesa"
 Chandler,63 reviews,Desert Wide Properties Inc.,2.8,desertwide.com, AZ 85224,(480) 838-6631, United States,"3330 N Dobson Rd Suite 3, Chandler"
 Gilbert,5 reviews,Arrow Property Management,3.2,arrowaz.managebuilding.com, AZ 85234,(480) 625-3347, United States,"1400 N Gilbert Rd g2, Gilbert"
 Mesa,16 reviews,Gentry Property Management,3.1,gentrypm.com, AZ 85215,(480) 654-3655, United States,"2812 N Norwalk Ste #103, Mesa"
 Mesa,19 reviews,Denman Realty Group LLC,2.2,denmanrealty.com, AZ 85203,(480) 834-1525, United States,"1555 E University Dr, Mesa"
 Mesa,25 reviews,NTH Property Management,2.1,nthpropmgt.com, AZ 85201,(480) 649-3531, United States,"827 N Country Club Dr # 3, Mesa"
 Gilbert,68 reviews,Brewer and Stratton Property Management,4.8,brewerstrattonpm.com, AZ 85233,(480) 219-2111, United States,"1757 E Baseline Rd, Gilbert"
 Gilbert,20 reviews,Action Property Management,2.7,actionpm.com, AZ 85233,(480) 491-3600, United States,"725 W Elliot Rd # 102, Gilbert"
 Mesa,9 reviews,"Showtime Realty Professionals, LLC",1.7,showtimerealtyaz.com, AZ 85204,(480) 201-5623, United States,"2454 E Southern Ave, Mesa"
 Mesa,5 reviews,One-World Property Management,4.3,, AZ 85205,(480) 966-6000, United States,"236 N 61st Way, Mesa"
 Gilbert,11 reviews,Heywood Community Management,3.9,heywoodrealty.com, AZ 85233,(480) 820-1519, United States,"42 S Hamilton Pl Suite 101, Gilbert"
 Mesa,16 reviews,Caldwell Property Solutions,5.0,caldwellaz.com, AZ 85209,(480) 834-9200, United States,"2500 South Power Road, 218"
 Tempe,5 reviews,Gerson Realty and Management,3.2,gersonrealty.com, AZ 85282,(480) 921-3332, United States,"2409 S Rural Rd, Tempe"
 Mesa,16 reviews,Arizona Property Management and Investments Mesa,3.1,azezrentals.net, AZ 85206,(480) 355-1429, United States,"4856 E Baseline Rd #104, Mesa"
 Tempe,9 reviews,American Associates,2.9,rentarizonahome.com, AZ 85282,(480) 966-9030, United States,"2310 S McClintock Dr, Tempe"
 Tempe,25 reviews,Valley King Properties,2.1,valleyking.com, AZ 85282,(480) 756-2330, United States,"1831 E Southern Ave, Tempe"
 Mesa,7 reviews,TransCity Property Management,4.0,rentahomeaz.com, AZ 85215,(480) 641-8830, United States,"2812 N Norwalk #116, Mesa"
 Mesa,20 reviews,Red Mountain Management,2.7,rmmaz.com, AZ 85213,(480) 641-6300, United States,"2135 N University Green Apartment # 117, Mesa"
 Mesa,9 reviews,GPR Investments,1.7,gprmanagement.com, AZ 85206,(480) 818-6638, United States,"5235 E Southern Ave, Mesa"
 Chandler,19 reviews,Marsh Management & Real Estate,2.0,marshmanagement.net, AZ 85224,(480) 345-1590, United States,"1256 W Chandler Blvd # 22, Chandler"
 Mesa,11 reviews,Diamond Asset Management & Realty,3.9,managementmesa.com, AZ 85208,(480) 999-0902, United States,"518 S Essex Ln, Mesa"
 Mesa,16 reviews,Preferred Communities,5.0,gothoa.com, AZ 85203,(480) 649-2017, United States,"1134 E University Dr #114, Mesa"
 Chandler,5 reviews,Metro Property Services,3.2,metropropertyservicesaz.com, AZ 85225,(480) 967-7182, United States,"150 E Alamo Dr # 3, Chandler"
 Scottsdale,7 reviews,KRK Realty and Management,4.8,krkrealty.com, AZ 85257,(480) 361-5202, United States,"8010 E McDowell Rd #111, Scottsdale"
 Mesa,9 reviews,MEB Management,2.9,, AZ 85202,(480) 964-4444, United States,"1033 S Longmore, Mesa"
 Mesa,25 reviews,"Power Realty Group, LLC",2.1,azprg.com, AZ 85207,(480) 422-5410, United States,"STE 151-2, 7165 E University Dr"
Mesa,7 reviews,Bullseye Property Management,4.0,mesaazpropertymanager.com, AZ,(480) 582-0061, United States,"Mesa, AZ"
 Tempe,22 reviews,AZ Prime Property Management | Keller Williams Realty Phoenix,4.8,azprimepropertymanagement.com, AZ 85282,(480) 449-6632, United States,"3920 S Rural Rd #110, Tempe"
 Mesa,9 reviews,VHM Management & Realty,1.7,vhmanagement.com, AZ 85206,(480) 659-8814, United States,"6640 E Baseline Rd, Mesa"
 Mesa,19 reviews,Beehive Property Managment,2.0,beehiveproperties.com, AZ 85204,(480) 964-5121, United States,"1911 S Lindsay Rd, Mesa"
 Mesa,11 reviews,The Oaks Apartments,3.9,theoaks-apts.com, AZ 85201,(480) 621-6340, United States,"526 W Rio Salado Pkwy, Mesa"
Gilbert,5 reviews,Rosenbaum Realty Group,4.2,rosenbaumrealtygroup.com, AZ,(480) 588-1333, United States,"Gilbert, AZ"
 Mesa,5 reviews,Dana Realty and Management,3.2,danaram.com, AZ 85203,(480) 478-0513, United States,"1550 E University Dr, Mesa"
 Mesa,7 reviews,Innovated Property Management,4.8,, AZ 85212,(480) 983-1010, United States,"6927 E Parkway Norte, Mesa"
 Tempe,5 reviews,Trestle Management,2.8,trestlemanagement.com, AZ 85282,(480) 422-0888, United States,"4025 S McClintock Dr #208, Tempe"
 Mesa,25 reviews,Di Cor Property Services,2.1,, AZ 85275,(480) 969-5175, United States,"PO Box 31568, Mesa"
 Tempe,7 reviews,"Show Appeal Realty - HomeInvest Time, LLC Property Management",4.0,homeinvest.org, AZ 85283,(480) 786-5339, United States,"1212 E Baseline Rd, Tempe"
 Gilbert,39 reviews,Austin Fleck Property Management,4.3,austinfleck.com, AZ 85296,(480) 207-2088, United States,"690 E Warner Rd #153, Gilbert"
 Mesa,9 reviews,Southwest Resource Management,1.7,, AZ 85202,(480) 491-0200, United States,"2050 W Guadalupe Rd # 5, Mesa"
 Mesa,19 reviews,Sandstone Apartments,2.0,, AZ 85202,(480) 827-0173, United States,"1727 W Emelita Ave, Mesa"
 Mesa,11 reviews,Farnsworth Retirement Apartments,3.9,farnsworthrealty.com, AZ 85205,(480) 641-4400, United States,"33 N 58th St, Mesa"
 Gilbert,5 reviews,City Property Management,4.2,cityproperty.com, AZ 85295,(480) 988-2086, United States,"1811 S Martingale Rd, Gilbert"
 Chandler,27 reviews,PRS Property Management,2.6,prsrentals.com, AZ 85226,(480) 838-3500, United States,"4129 W Milky Way, Chandler"
 Apache Junction,7 reviews,Pedersen Real Estate & Property Managment,4.8,pre-pm.com, AZ 85120,(480) 289-9821, United States,"105 S Delaware Dr #5, Apache Junction"
 Mesa,11 reviews,Superstition Villas,2.2,, AZ 85204,(480) 892-2468, United States,"2055 E Hampton Ave, Mesa"
 Gilbert,21 reviews,Mosaic Properties,4.2,mosaicpropertiesaz.com, AZ 85297,(480) 588-9500, United States,"225 E Germann Rd #270, Gilbert"
 Mesa,7 reviews,East Valley Home Management Services LLC.,4.0,evhms.com, AZ 85209,(480) 720-1224, United States,"1917 S Signal Butte Rd, Mesa"
 Mesa,39 reviews,The Traditions Apartments,4.3,traditionsapts.com, AZ 85206,(866) 847-2391, United States,"4450 E Southern Ave, Mesa"
Mesa,9 reviews,"Apartment Management Services, LLC",1.7,arizonaapartmentservices.com, AZ 85211,(480) 610-6746, United States,"Mesa, AZ 85211"
 Mesa,19 reviews,Key Real Estate Services,2.0,keyreaz.com, AZ 85205,(480) 983-1800, United States,"152 N Power Rd #2, Mesa"
 Scottsdale,21 reviews,Shield Property Management,4.1,shieldpm.com, AZ 85251,(480) 699-7206, United States,"3666 N Miller Rd #105, Scottsdale"
 Phoenix,17 reviews,City Property Management,1.6,cityproperty.com, AZ 85040,(602) 437-4777, United States,"4645 E Cotton Gin Loop, Phoenix"
 Gilbert,7 reviews,Signature Realty Solutions & Property Management,4.1,findazvalleyhomes.com, AZ 85295,(480) 422-5358, United States,"2680 S. Val Vista Drive Suite 190, Gilbert"
 Mesa,7 reviews,Solana,4.8,solanaluxuryrentals.com, AZ 85206,(480) 248-9380, United States,"1941 Pierpont Dr, Mesa"
 Queen Creek,11 reviews,Apartment Hunters,2.2,ah-az.com, AZ 85142,(480) 398-2472, United States,"21408 S Ellsworth Rd, Queen Creek"
 Scottsdale,21 reviews,Associa Arizona,4.2,associaonline.com, AZ 85256,(480) 892-5222, United States,"7500 N Dobson Rd #150, Scottsdale"
 Phoenix,7 reviews,360 Property Management,4.0,360propertymgt.com, AZ 85008,(602) 863-3600, United States,"668 N 44th St #256, Phoenix"
 Tempe,26 reviews,AAM,2.7,associatedasset.com, AZ 85282,(602) 957-9191, United States,"1600 W Broadway Rd #200, Tempe"
Glendale,51 reviews,Arizona Property Management and Investments,4.4,azezrentals.com, AZ,(888) 777-6664, United States,"Glendale, AZ"
 Tempe,19 reviews,"Sentry Management, Inc.",2.0,sentrymgt.com, AZ 85282,(480) 345-0046, United States,"1414 W. Broadway, Suite 205"
 Phoenix,5 reviews,"Associated Property Management, Inc.",2.8,apm-management.com, AZ 85018,(480) 941-1077, United States,"3260 E Indian School Rd, Phoenix"
 Phoenix,17 reviews,Cornerstone Properties Inc,1.6,cpihoa.com, AZ 85040,(602) 433-0331, United States,"4523 E Broadway Rd, Phoenix"
 Phoenix,7 reviews,RentersWarehouse.com Arizona,4.1,rwarizona.com, AZ 85008,(480) 626-2226, United States,"4909 E McDowell Rd, Phoenix"
 Mesa,7 reviews,Transcity Property Management,4.8,rentalhomesaz.com, AZ 85205,(480) 641-8830, United States,"6360 E Brown Rd, Mesa"
 Gilbert,14 reviews,Brewer Caldwell Property Management Inc.,3.2,brewercaldwell.com, AZ 85234,(480) 834-9200, United States,"3303 E Baseline Rd, Gilbert"
 Gilbert,11 reviews,The Golba Group,3.2,azhousing.com, AZ 85234,(480) 503-0700, United States,"1044 N Gilbert Rd #1, Gilbert"
 Tempe,7 reviews,PRS Property Management,4.0,prsrentals.com, AZ 85283,(480) 307-8983, United States,"1212 E Baseline Rd, Tempe"
Tempe,26 reviews,Valley King Properties,2.7,valleyking.com, AZ 85283,(480) 491-4300, United States,"Tempe, AZ 85283"
 Chandler,51 reviews,Pride Community Management,4.4,pridemgmt.com, AZ 85224,(480) 682-3209, United States,"2727 W Frye Rd #230, Chandler"
 Chandler,9 reviews,Golba Group Property Management,2.1,azhousing.com, AZ 85225,(480) 503-0700, United States,"2141 E Pecos Rd, Chandler"
 Phoenix,5 reviews,Service Star Realty,2.8,leaseaz.com, AZ 85016,(480) 426-9696, United States,"2813 E Camelback Rd #400, Phoenix"
Phoenix,17 reviews,Desert Wide Properties Inc,1.6,desertwide.com, AZ 85020,(602) 944-9887, United States,"Phoenix, AZ 85020"
 Phoenix,34 reviews,SGI Property Management,3.9,sgipropertymanagement.com, AZ 85029,(623) 252-6706, United States,"11225 North 28th Drive D120, Phoenix"
 Phoenix,14 reviews,MEB Management Services,2.6,mebapts.com, AZ 85014,(602) 279-5515, United States,"1215 E Missouri Ave, Phoenix"
 Phoenix,14 reviews,Bennett Property Management,3.2,bennett2rentit.com, AZ 85029,(480) 969-1818, United States,"PS Business Parks, 2432 W Peoria Ave #1123"
 Phoenix,5 reviews,"United Metro Properties, Inc.",2.5,unitedmetro.com, AZ 85051,(602) 548-9449, United States,"3320 W Cheryl Dr #200, Phoenix"
 Phoenix,7 reviews,Apartment Hunters Property Management,4.0,ah-az.com, AZ 85051,(602) 863-1900, United States,"3404 W Cheryl Dr A158, Phoenix"
 Phoenix,26 reviews,Nobeus Property Management,2.7,tctproperties.com, AZ 85014,(602) 241-1741, United States,"5045 N 12th St #101, Phoenix"
 Phoenix,51 reviews,MBA Real Estate,4.4,mba-re.com, AZ 85016,(602) 595-9966, United States,"4620 N 16th St #211, Phoenix"
 Scottsdale,9 reviews,"Property Butler, LLC",2.1,propbutler.com, AZ 85260,(602) 466-9700, United States,"Suite F1, 8350 E Evans Rd"
 Phoenix,5 reviews,Apartment Hunters,2.8,ah-az.com, AZ 85051,(602) 863-1900, United States,"3404 W Cheryl Dr A158, Phoenix"
 Scottsdale,17 reviews,Red Hawk Realty & Property Management,1.6,redhawkpm.com, AZ 85255,(480) 941-3881, United States,"17470 N Pacesetter Way, Scottsdale"
 Phoenix,34 reviews,Camroad Properties Ltd,3.9,camroadproperties.com, AZ 85016,(602) 956-2200, United States,"2200 E Camelback Rd # 101, Phoenix"
 Phoenix,14 reviews,Valley King Properties,2.6,valleyking.com, AZ 85029,(602) 375-9959, United States,"Cactus Court Shopping Center, 12416 N 28th Dr"
 Phoenix,14 reviews,Signature Vacation Rentals,3.2,arizonalodgingexperts.com, AZ 85260,(602) 404-2983, United States,"13835 N Tatum Blvd #9, Phoenix"
 Phoenix,6 reviews,Verve Commercial Real Estate,4.7,vervecre.com, AZ 85012,(602) 246-2222, United States,"4001 N 3rd St, Phoenix"
 Phoenix,7 reviews,Valley King Properties,4.0,valleyking.com, AZ 85053,(602) 504-8700, United States,"15610 N 35th Ave, Phoenix"
 Scottsdale,26 reviews,Pem Real Estate Group LLC,2.7,pemreg.com, AZ 85260,(480) 422-6930, United States,"13835 N Northsight Blvd # 100, Scottsdale"
 Scottsdale,61 reviews,Rossmar & Graham,3.4,fsresidential.com, AZ 85260,(480) 551-4300, United States,"9362 E Raintree Dr, Scottsdale"
 Phoenix,9 reviews,Vestar,2.1,vestar.com, AZ 85016,(602) 866-0900, United States,"2425 E. Camelback Road #750, Phoenix"
 Phoenix,5 reviews,Living Well Homes,2.8,livingwellhomes.com, AZ 85021,(602) 995-0577, United States,"1502 W Glendale Ave, Phoenix"
 Phoenix,17 reviews,I Rent 4 You,1.6,, AZ 85014,(480) 332-1367, United States,"1500 Bethany Home Rd #185, Phoenix"
 Chandler,34 reviews,Home Invest : Murdock Dennis,3.9,homeinvest.org, AZ 86286,(480) 786-5339, United States,"2450 S Arizona Ave #1, Chandler"
 Phoenix,14 reviews,Apartment Hunters Property Management,2.6,ah-az.com, AZ 85032,(623) 205-5996, United States,"13648 N Tatum Blvd, Phoenix"
 Phoenix,14 reviews,Valley King Properties,3.2,valleyking.com, AZ 85020,(602) 504-8700, United States,"1311 E Northern Ave, Phoenix"
 Phoenix,6 reviews,United Metro Properties Inc,4.7,unitedmetro.com, AZ 85024,(602) 548-9449, United States,"19820 N 7th St # 280, Phoenix"
 Phoenix,7 reviews,City Property Management,4.0,cityproperty.com, AZ 85016,(602) 954-3996, United States,"2025 E Campbell Ave, Phoenix"
 Phoenix,26 reviews,Camden Property District Office,2.7,camdenliving.com, AZ 85016,(602) 522-2079, United States,"2525 E Arizona Biltmore Cir # 120, Phoenix"
 Phoenix,61 reviews,Associated Management LLC,3.4,apm-management.com, AZ 85014,(602) 393-1333, United States,"5555 N 7th St # 134-135, Phoenix"
 Phoenix,140 reviews,Renters Warehouse Arizona,4.7,renterswarehouse.com, AZ 85016,(480) 626-2226, United States,"4620 North 16th Street, A103"
 Phoenix,,Vestar Properties Inc,,vestar.com, AZ 85050,(480) 513-7586, United States,"21001 N Tatum Blvd, Phoenix"
 Norman,,RJH Investments Realty Inc,,rjh-realty.com, OK 73071,(405) 364-4801, United States,"501 Alameda St, Norman"
 Norman,,"BPM Inc (Bare Property Management, Inc)",,bpmok.com, OK 73069,(405) 366-7368, United States,"213 W Main St, Norman"
 Norman,,A-One Property Management,,, OK 73069,(405) 360-2587, United States,"800 W Rock Creek Rd, Norman"
 Norman,6 reviews,Sterling Property Management,3.3,sterlingproperty1.com, OK 73069,(405) 310-2222, United States,"3560 Macdonnell Dr, Norman"
 Norman,,Action Property Management Co,,, OK 73069,(405) 321-3078, United States,"523 Highland Pkwy, Norman"
 Norman,,Destination Property Management,,, OK 73069,(405) 801-2021, United States,"2215 W Lindsey St, Norman"
 Norman,,Carlsbad Management Group,,carlsbadok.com, OK 73072,(405) 701-1411, United States,"100 48th Ave NW, Norman"
 Norman,19 reviews,"RentKing, LLC",3.6,gorentking.com, OK 73069,(405) 801-2293, United States,"211 E Gray St, Norman"
 Norman,,DMG Real Estate Services,,dmgrealestate.com, OK 73069,(405) 364-4114, United States,"2429 Westport Dr, Norman"
 Norman,10 reviews,Sooner Traditions Realty LLC,1.8,soonertraditionsrentals.com, OK 73069,(405) 329-7143, United States,"2241 W Lindsey St #500, Norman"
 Oklahoma City,15 reviews,D & S Property Management LLC,2.4,dsprops.com, OK 73170,(405) 691-0740, United States,"11317 S Western Ave, Oklahoma City"
 Norman,,Reliance Property Management,,, OK 73071,(405) 579-0256, United States,"429 E Robinson St # B, Norman"
 Norman,10 reviews,Elite Properties,3.1,elite2900.com, OK 73072,(405) 360-6624, United States,"2900 Chautauqua Ave, Norman"
 Norman,6 reviews,Coltrane Property Management,3.3,, OK 73069,(405) 329-6488, United States,"700 Asp Ave # 1, Norman"
 Norman,,Coast To Coast Property Management,,, OK 73071,(405) 364-5146, United States,"605 Smalley Dr, Norman"
 Norman,,SCOTT Property Management,,, OK 73069,(405) 360-0526, United States,"330 W Gray St # 300, Norman"
Norman,,Payton Property Management,,, OK 73070,(405) 366-0074, United States,"Norman, OK 73070"
 Norman,19 reviews,Cervi Properties,3.6,, OK 73069,(405) 364-3225, United States,"770 W Rock Creek Rd # 103, Norman"
 Norman,,bergen Enterprises,,bergenfoods.net, OK 73072,(405) 360-3606, United States,"1529 24th Ave SW, Norman"
 Norman,10 reviews,Avalon Apartments,1.8,npmahome.com, OK 73072,(405) 579-0158, United States,"2920 Chautauqua Ave, Norman"
 Norman,10 reviews,The Stiles Company,5.0,thestilescompany.com, OK 73069,(405) 701-8005, United States,"116 W Main St, Norman"
 Norman,,Dawn Asset Management LLC,,, OK 73072,(405) 701-2500, United States,"100 48th Ave NW, Norman"
 Norman,10 reviews,Real Estate Masters,3.1,remok.com, OK 73069,(405) 329-1922, United States,"303 S Peters Ave, Norman"
 Norman,6 reviews,Norman Rentals Online,3.3,normanrentalsonline.com, OK 73072,(405) 701-5700, United States,"4315 Oxford Way, Norman"
 Norman,,Cecil Woods Management,,, OK 73069,(405) 321-3800, United States,"2301 W Main St, Norman"
 Norman,,Alameda Pointe Apartments,,northstar-ok.com, OK 73071,(405) 701-3622, United States,"2021 Alameda St, Norman"
 Norman,,The Crestmont,,scobro.org, OK 73069,(405) 364-9026, United States,"2313 Crestmont St #100, Norman"
 Norman,19 reviews,"SDF Properties, LLC",3.6,, OK 73071,(405) 600-5099, United States,"375 Triad Village Dr # 27, Norman"
 Norman,,Keller Williams Realty,,kw.com, OK 73069,(405) 329-6976, United States,"905 24th Ave NW, Norman"
 Norman,10 reviews,Riverbend Apartments,3.2,riverbendapartments.info, OK 73071,(405) 321-1601, United States,"1502 E Lindsey St, Norman"
 Norman,10 reviews,Greens At Norman,5.0,lindseymanagement.com, OK 73071,(405) 310-3330, United States,"3701 24th Ave SE, Norman"
 Norman,,Icon at Norman,,iconatnormanapartments.com, OK 73072,(405) 345-5825, United States,"6475 36th Ave NW, Norman"
 Norman,10 reviews,Real Estate Management,3.1,dmgrealestate.com, OK 73069,(405) 360-4545, United States,"123 E Tonhawa St # 105, Norman"
 Norman,14 reviews,Renaissance At Norman Apartments,3.7,therenaissanceatnorman.com, OK 73071,(405) 447-1000, United States,"1600 Ann Branden Blvd, Norman"
 Norman,,The Falls at Brookhaven,,thefallsatbrookhaven.com, OK 73072,(405) 437-3087, United States,"3730 W Rock Creek Rd, Norman"
 Norman,9 reviews,The Avenue at Norman,2.6,avenorman.com, OK 73072,(405) 701-8434, United States,"3301 12th Ave SE, Norman"
 Norman,12 reviews,Forest Pointe Apartments,2.7,forestpointeliving.com, OK 73072,(405) 366-1181, United States,"1100 Oak Tree Ave, Norman"
 Norman,19 reviews,Savannah Square Apartments,3.6,northstar-ok.com, OK 73072,(405) 360-0404, United States,"300 36th Ave SW, Norman"
 Norman,6 reviews,Bishop's Landing,3.1,dowellproperties.com, OK 73069,(405) 360-7744, United States,"333 E Brooks St, Norman"
 Norman,10 reviews,Sooner Crossing,3.2,soonercrossing.com, OK 73071,(405) 321-5947, United States,"1115 Biloxi Dr, Norman"
 Norman,10 reviews,Clarendon Apartments,5.0,dowellproperties.com, OK 73069,(405) 364-8815, United States,"1932 W Lindsey St, Norman"
 Norman,,Beaumont Crossing Apartments,,, OK 73071,(405) 364-9071, United States,"900 23rd St SE, Norman"
 Norman,10 reviews,Brookstone Cottages,3.1,priceedwards.com, OK 73072,(405) 310-2200, United States,"3751 Eagle Cliff Dr, Norman"
 Norman,13 reviews,Cottages of Norman,3.0,thecottagesofnorman.com, OK 73071,(405) 366-1900, United States,"1601 E Imhoff Rd, Norman"
 Norman,,Learia Group,,leariagroup.com, OK 73069,(405) 701-8881, United States,"309 E Main St, Norman"
 Oklahoma City,9 reviews,Metro First Realty,2.6,metrofirstrealty.com, OK 73159,(405) 630-6939, United States,"1624 Greenbriar Pl #300, Oklahoma City"
 Oklahoma City,12 reviews,Integrity Oklahoma LLC,2.7,integrityoklahoma.com, OK 73112,(405) 283-6521, United States,"6051 N Brookline Ave #136, Oklahoma City"
 Oklahoma City,6 reviews,Welcome Home Management Services,3.2,welcomehomeok.com, OK 73102,(405) 231-2119, United States,"501 N Walker Ave #202, Oklahoma City"
 Oklahoma City,6 reviews,Carlsbad Management Group,3.1,carlsbadok.com, OK 73139,(405) 691-0115, United States,"10300 S Western Ave, Oklahoma City"
 Oklahoma City,24 reviews,Real Property Management Enterprises,4.0,enterprisesrpm.com, OK 73112,(405) 463-0040, United States,"2610 Northwest Expy, Oklahoma City"
 Oklahoma City,7 reviews,Property Management Services Inc,2.8,sterlingproperty1.com, OK 73106,(405) 235-4663, United States,"1411 Linwood Blvd, Oklahoma City"
 Edmond,,Oklahoma Property Management Inc,,sterlingproperty1.com, OK 73013,(405) 848-3118, United States,"4235 NE 122nd St, Edmond"
 Oklahoma City,10 reviews,Sterling Management,3.1,sterlingproperty1.com, OK 73112,(405) 720-6014, United States,"3121 NW 62nd St, Oklahoma City"
Oklahoma City,13 reviews,Junction Properties,3.0,, OK 73160,(405) 759-3960, United States,"Oklahoma City, OK 73160"
