City,Zipcode,State,Address
,,,
,,,
Bloomfield,7003,NJ,81 N 13th St
Bloomfield,7003,NJ,136 N 17th St
Bloomfield,7003,NJ,171 N 17th St
Bloomfield,7003,NJ,205 Ampere Pkwy
Bloomfield,7003,NJ,435 Beardsley Ave
Bloomfield,7003,NJ,19 Floyd Ave
Bloomfield,7003,NJ,214 N 17th St
Bloomfield,7003,NJ,230 N 17th St
Bloomfield,7003,NJ,223 N 16th St
Bloomfield,7003,NJ,264 N 16th St
Bloomfield,7003,NJ,206 N 16th St
,,,
Bloomfield,7003,NJ,483 Beardsley Ave
Bloomfield,7003,NJ,68 Floyd Ave
Bloomfield,7003,NJ,81 Floyd Ave
Bloomfield,7003,NJ,18 La France Ave
Bloomfield,7003,NJ,30 La France Ave
Bloomfield,7003,NJ,314 Ampere Pkwy
Bloomfield,7003,NJ,168 Bloomfield Ave
Bloomfield,7003,NJ,67 Watsessing Ave
Bloomfield,7003,NJ,24 Watsessing Ave
Bloomfield,7003,NJ,30 Ella St
Bloomfield,7003,NJ,37 Ella St
Bloomfield,7003,NJ,28 Grace St
,,,
Bloomfield,7003,NJ,89 Ella St
Bloomfield,7003,NJ,9 Delaware Pl
,,,
Bloomfield,7003,NJ,136 Willow St
Bloomfield,7003,NJ,37 Prospect St
Bloomfield,7003,NJ,51 Prospect St
Bloomfield,7003,NJ,27 Fulton St
Bloomfield,7003,NJ,46 Cleveland Terrace
Bloomfield,7003,NJ,111 N Fulton St
Bloomfield,7003,NJ,99 Morse Ave
Bloomfield,7003,NJ,81 Evergreen Ave
Bloomfield,7003,NJ,34 Evergreen Ave
Bloomfield,7003,NJ,46 Evergreen Ave
Bloomfield,7003,NJ,82 Evergreen Ave
Bloomfield,7003,NJ,75 Maolis Ave
Bloomfield,7003,NJ,71 Maolis Ave
Bloomfield,7003,NJ,77 Linden Ave
Bloomfield,7003,NJ,80 Clinton St
Bloomfield,7003,NJ,115 Thomas St
Glen Ridge,7028,NJ,10 Winsor Pl
Bloomfield,7003,NJ,176 Thomas St
,,,
Bloomfield,7003,NJ,49 Park Ave #4
Bloomfield,7003,NJ,55 Park Ave #32
Bloomfield,7003,NJ,45 Park Ave #24
Bloomfield,7003,NJ,18 Church St
Bloomfield,7003,NJ,26 Spruce St
Bloomfield,7003,NJ,100 Walnut St
Bloomfield,7003,NJ,57 Church St E
Bloomfield,7003,NJ,264 Belleville Ave
Bloomfield,7003,NJ,125 Liberty St
Bloomfield,7003,NJ,16 Walnut St
Bloomfield,7003,NJ,226 Montgomery St
Bloomfield,7003,NJ,206 Montgomery St
Bloomfield,7003,NJ,26 Pine St
Bloomfield,7003,NJ,162 Jerome Pl
Bloomfield,7003,NJ,196 Jerome Pl
Bloomfield,7003,NJ,151 Newark Ave
Bloomfield,7003,NJ,123 Newark Ave
Bloomfield,7003,NJ,121 Newark Ave
Bloomfield,7003,NJ,28 Hill St
Bloomfield,7003,NJ,4 Berkeley Heights Park
Bloomfield,7003,NJ,24 Berkeley Heights Park
Bloomfield,7003,NJ,144 Berkeley Ave
Bloomfield,7003,NJ,159 Franklin St #4
Bloomfield,7003,NJ,159 Franklin St #6
Bloomfield,7003,NJ,159 Franklin St #20
Bloomfield,7003,NJ,207 Watsessing Ave
Bloomfield,7003,NJ,91 Berkeley Ave
Bloomfield,7003,NJ,69 Berkeley Ave
Bloomfield,7003,NJ,96 Parkway W
Bloomfield,7003,NJ,37 Florence Ave
Bloomfield,7003,NJ,22 Fontaine Ave
Bloomfield,7003,NJ,15 Parkway E
,,,
,,,
Bloomfield,7003,NJ,42 Edison St
Bloomfield,7003,NJ,35 Bloomfield Ave
Bloomfield,7003,NJ,33 Bloomfield Ave
Bloomfield,7003,NJ,31 Bloomfield Ave
Bloomfield,7003,NJ,29 Bloomfield Ave
Bloomfield,7003,NJ,29 Bloomfield Ave
Bloomfield,7003,NJ,29 Bloomfield Ave
Bloomfield,7003,NJ,7 Belmont Ave
Bloomfield,7003,NJ,100 Newark Ave
Bloomfield,7003,NJ,23 Weaver Ave
Bloomfield,7003,NJ,54 Newark Ave
Bloomfield,7003,NJ,15 Baldwin Pl
,,,
Bloomfield,7003,NJ,51 Lewis St
,,,
Bloomfield,7003,NJ,159 Weaver Ave
,,,
Bloomfield,7003,NJ,6 Lincoln St
Bloomfield,7003,NJ,20 Liberty St
Bloomfield,7003,NJ,78 Williamson Ave
Bloomfield,7003,NJ,98 Hazelwood Rd
Bloomfield,7003,NJ,92 Orchard St
Bloomfield,7003,NJ,190 Belleville Ave
Bloomfield,7003,NJ,152 Belleville Ave #6
,,,
,,,
,,,
,,,
,,,
,,,
,,,
,,,
,,,
,,,
Bloomfield,7003,NJ,25 New St
Bloomfield,7003,NJ,29 New St
,,,
Bloomfield,7003,NJ,227 Spruce St
Bloomfield,7003,NJ,47 E Almira St
Bloomfield,7003,NJ,38 Baldwin St
Bloomfield,7003,NJ,45 Waverly Terrace
Bloomfield,7003,NJ,31 Warren St
Bloomfield,7003,NJ,31 Baldwin St
Bloomfield,7003,NJ,40 Warren St
Bloomfield,7003,NJ,48 Bay Ave
Bloomfield,7003,NJ,20 Chapman St
Bloomfield,7003,NJ,439 Broad St
Bloomfield,7003,NJ,439 Broad St
Bloomfield,7003,NJ,439 Broad St
Bloomfield,7003,NJ,439 Broad St
Bloomfield,7003,NJ,439 Broad St
Bloomfield,7003,NJ,435 Broad St
Bloomfield,7003,NJ,290 Hoover Ave #11
Bloomfield,7003,NJ,296 Hoover Ave #20
Bloomfield,7003,NJ,302 Hoover Ave #30
Bloomfield,7003,NJ,318 Hoover Ave #64
,,,
Bloomfield,7003,NJ,360 Hoover Ave #111
Bloomfield,7003,NJ,366 Hoover Ave #119
Bloomfield,7003,NJ,394 Hoover Ave #181
Bloomfield,7003,NJ,398 Hoover Ave #185
Bloomfield,7003,NJ,21 Beekman St
Bloomfield,7003,NJ,158 Baldwin St
Bloomfield,7003,NJ,156 Baldwin St
Bloomfield,7003,NJ,44 N Spring St
Bloomfield,7003,NJ,38 Ridge Ave
Bloomfield,7003,NJ,69 Gillespie Rd
Bloomfield,7003,NJ,65 E Passaic Ave
,,,
,,,
,,,
,,,
Bloomfield,7003,NJ,50 Gillespie Rd
Bloomfield,7003,NJ,132 Summit Ave
Bloomfield,7003,NJ,44 Valentine Rd
Bloomfield,7003,NJ,147 Hoover Ave
Bloomfield,7003,NJ,15 Lakewood Terrace
Bloomfield,7003,NJ,24 Lakewood Terrace
Verona,7044,NJ,44 Cambridge Rd
Bloomfield,7003,NJ,175 Bay Ave
Bloomfield,7003,NJ,574 Broad St
Bloomfield,7003,NJ,686 Broad St
Bloomfield,7003,NJ,288 Essex Ave
Bloomfield,7003,NJ,47 Bay Ave
Bloomfield,7003,NJ,41 Bay Ave
Bloomfield,7003,NJ,73 Mill St
Bloomfield,7003,NJ,81 Mill St
Bloomfield,7003,NJ,50 Broughton Ave
Bloomfield,7003,NJ,48 Broughton Ave
Bloomfield,7003,NJ,40 Pulaski St
Bloomfield,7003,NJ,84 Martin St
Bloomfield,7003,NJ,34 Martin St
Bloomfield,7003,NJ,21 Martin St
Bloomfield,7003,NJ,78 Elston St
Bloomfield,7003,NJ,33 Elston St
Bloomfield,7003,NJ,47 Pleasant Ave
,,,
,,,
,,,
,,,
,,,
,,,
Bloomfield,7003,NJ,39 Fitzherbert St
Bloomfield,7003,NJ,19 Ackerman St
,,,
,,,
,,,
,,,
,,,
,,,
,,,
,,,
Bloomfield,7003,NJ,68 Bell St
Bloomfield,7003,NJ,274 Watchung Ave
Bloomfield,7003,NJ,80 Mohr Ave
Bloomfield,7003,NJ,84 Mohr Ave
Bloomfield,7003,NJ,53 Mohr Ave
Bloomfield,7003,NJ,6 Skyview Rd
Bloomfield,7003,NJ,41 Huck Rd
Bloomfield,7003,NJ,30 Este Pl
Bloomfield,7003,NJ,128 Bessida St
Bloomfield,7003,NJ,23 Scott Rd
Bloomfield,7003,NJ,9 Doris Pl
Bloomfield,7003,NJ,7 Grace St
Bloomfield,7003,NJ,65 Bessida St
Bloomfield,7003,NJ,12 Pierson St
Bloomfield,7003,NJ,403 E Passaic Ave
Bloomfield,7003,NJ,432 E Passaic Ave
Bloomfield,7003,NJ,424 E Passaic Ave
Bloomfield,7003,NJ,61 Haines Dr
Bloomfield,7003,NJ,15 Poe Ave
Bloomfield,7003,NJ,583 Broughton Ave
Bloomfield,7003,NJ,39 George St
Bloomfield,7003,NJ,5 Morley Ln
Bloomfield,7003,NJ,489 E Passaic Ave
Bloomfield,7003,NJ,521 E Passaic Ave
Bloomfield,7003,NJ,530 E Passaic Ave
Bloomfield,7003,NJ,43 Perry Rd
Bloomfield,7003,NJ,640 E Passaic Ave
Bloomfield,7003,NJ,626 E Passaic Ave
Bloomfield,7003,NJ,9 Byrd Pl
Bloomfield,7003,NJ,15 Gregory Terrace
Bloomfield,7003,NJ,10 Gregory Terrace
Bloomfield,7003,NJ,1288 Broad St
Bloomfield,7003,NJ,1284 Broad St
Bloomfield,7003,NJ,20 Irwin Pl
Bloomfield,7003,NJ,1320 Broad St
Bloomfield,7003,NJ,1316 Broad St
Bloomfield,7003,NJ,21 Mountain Ave
Bloomfield,7003,NJ,39 Claremont Ave
Bloomfield,7003,NJ,23 Newell Dr
Bloomfield,7003,NJ,57 Newell Dr
Bloomfield,7003,NJ,15 Aldon Terrace
Bloomfield,7003,NJ,8 Oakridge Rd
Bloomfield,7003,NJ,11 Bellevue Terrace
Bloomfield,7003,NJ,74 Golf Rd
Bloomfield,7003,NJ,664 E Passaic Ave
Bloomfield,7003,NJ,113 Garner Ave
Bloomfield,7003,NJ,33 Bryant Ave
Bloomfield,7003,NJ,99 Renner Ave
Bloomfield,7003,NJ,51 Darling Ave
Bloomfield,7003,NJ,109 Reigate Rd
Bloomfield,7003,NJ,44 Farmingdale Ave
Bloomfield,7003,NJ,23 Rutgers Pl
Bloomfield,7003,NJ,41 Rossen Pl
Bloomfield,7003,NJ,32 Rossen Pl
Bloomfield,7003,NJ,23 Foster St
Bloomfield,7003,NJ,135 Lindbergh Blvd
Bloomfield,7003,NJ,138 Whittle Ave
Bloomfield,7003,NJ,95 Garrabrant Ave
Bloomfield,7003,NJ,12 Pieretti Ct
Bloomfield,7003,NJ,139 Evans Rd
Bloomfield,7003,NJ,36 Alyson Pl
Bloomfield,7003,NJ,86 Darling Ave
Bloomfield,7003,NJ,116 Darling Ave
Bloomfield,7003,NJ,154 Darling Ave
,,,
Bloomfield,7003,NJ,18 Barnett St
Bloomfield,7003,NJ,22 North End Terrace
Bloomfield,7003,NJ,378 W Passaic Ave
Cedar Grove,7009,NJ,66 Grissing Ct
Cedar Grove,7009,NJ,Old Quarry Rd
Cedar Grove,7009,NJ,908 Pompton Ave
Glen Ridge,7028,NJ,7 Lorraine St
Glen Ridge,7028,NJ,318 Maolis Ave
Glen Ridge,7028,NJ,111 Ridgewood Ave
Glen Ridge,7028,NJ,104 Osborne St
Glen Ridge,7028,NJ,168 Sherman Ave
Glen Ridge,7028,NJ,487 Ridgewood Ave
Livingston,7039,NJ,57 W Lawn Rd
Livingston,7039,NJ,25 Herbert Terrace
Livingston,7039,NJ,46 Brookside Ave
Livingston,7039,NJ,20 Park Dr
Livingston,7039,NJ,112 Eisenhower Pkwy
Livingston,7039,NJ,12 Peach Tree Hill Rd
,,,
,,,
,,,
,,,
,,,
,,,
Maplewood,7040,NJ,42 Crestwood Dr
Maplewood,7040,NJ,4 West Ln
Maplewood,7040,NJ,12 Sunset Terrace
Maplewood,7040,NJ,36 Claremont Ave
Maplewood,7040,NJ,57 Woodland Rd
Maplewood,7040,NJ,28 Highland Pl
Maplewood,7040,NJ,12 Buckingham Garden Pkwy
Maplewood,7040,NJ,19 Buckingham Garden Pkwy
Maplewood,7040,NJ,53 Kendal Ave
Maplewood,7040,NJ,4 Maplewood Ave
Maplewood,7040,NJ,20 S Pierson Rd
Maplewood,7040,NJ,8 Northview Terrace
Maplewood,7040,NJ,35 Marie Pl
Maplewood,7040,NJ,7 Melman Terrace
Maplewood,7040,NJ,23 Girard Pl
Maplewood,7040,NJ,6 Crowell Pl
Maplewood,7040,NJ,15 Crowell Pl
Maplewood,7040,NJ,67 Oakland Rd
Maplewood,7040,NJ,526 Prospect St
Maplewood,7040,NJ,78 Oakview Ave
Maplewood,7040,NJ,610 Prospect St
Maplewood,7040,NJ,38 Ohio St
Maplewood,7040,NJ,198 Lexington Ave
Maplewood,7040,NJ,762 Prospect St
Maplewood,7040,NJ,188 Franklin Ave
Maplewood,7040,NJ,186 Franklin Ave
Maplewood,7040,NJ,60 Concord Ave
Maplewood,7040,NJ,3 Wellesley Rd
Maplewood,7040,NJ,152 Oakview Ave
Maplewood,7040,NJ,147 Oakview Ave
Maplewood,7040,NJ,1597 Springfield Ave
Maplewood,7040,NJ,23 Boyden Pkwy S
,,,
Maplewood,7040,NJ,3 Ball Terrace
Maplewood,7040,NJ,81 Hudson Ave
Maplewood,7040,NJ,20 Burroughs Way
Maplewood,7040,NJ,19 Cherry Pl
,,,
Maplewood,7040,NJ,220 Laurel Ave
Maplewood,7040,NJ,112 Woodside Rd
Maplewood,7040,NJ,44 Meadowbrook Pl
Maplewood,7040,NJ,154 Boyden Ave
Maplewood,7040,NJ,14 Meadowbrook Pl
,,,
,,,
Maplewood,7040,NJ,488 Boyden Ave
Maplewood,7040,NJ,26 Hausmann Ct
Maplewood,7040,NJ,1527 Springfield Ave
Maplewood,7040,NJ,1495 Springfield Ave
Maplewood,7040,NJ,68 Van Ness Terrace
Maplewood,7040,NJ,19 Berkley St
Maplewood,7040,NJ,52 Schaefer Rd
Maplewood,7040,NJ,2 Porter Rd
Maplewood,7040,NJ,84 Hughes St
Maplewood,7040,NJ,170 Jacoby St
Maplewood,7040,NJ,8 Vermont St
Maplewood,7040,NJ,66 Burnett Ave
Maplewood,7040,NJ,192 Burnett Ave
Maplewood,7040,NJ,37 Newark Way
Maplewood,7040,NJ,45 Concord Ave
Maplewood,7040,NJ,16 Florida St
Maplewood,7040,NJ,95 Rutgers St
Maplewood,7040,NJ,54 Rutgers St
Maplewood,7040,NJ,35 Tuscan St
,,,
Montclair,7042,NJ,5 Prospect Ave
,,,
,,,
Montclair,7043,NJ,5 Ingleside Rd
,,,
Montclair,7042,NJ,77 Stonebridge Rd
Montclair,7042,NJ,82 Myrtle Ave
Montclair,7042,NJ,73 Myrtle Ave
Montclair,7042,NJ,153 Union St
Montclair,7042,NJ,9 N Mountain Ave
Montclair,7042,NJ,698 Bloomfield Ave
Montclair,7042,NJ,16 Orange Rd
Montclair,7042,NJ,361 Claremont Ave
Montclair,7042,NJ,361 Claremont Ave
Montclair,7042,NJ,10 Central Ave
,,,
Montclair,7042,NJ,9 Parkway
Montclair,7043,NJ,30 Brookfield Rd
Montclair,7043,NJ,44 Watchung Ave
Montclair,7043,NJ,33 Brookfield Rd
Montclair,7043,NJ,105 Edgemont Rd
,,,
,,,
,,,
,,,
,,,
Montclair,7043,NJ,2 Lansing Pl
Montclair,7043,NJ,2 Laurel Pl
Montclair,7043,NJ,192 Inwood Ave
Montclair,7042,NJ,11 Wilfred St
Montclair,7042,NJ,19 Warman St
Montclair,7042,NJ,35 Howe Ave
Montclair,7042,NJ,39 Howe Ave
Montclair,7042,NJ,182 Harrison Ave
Montclair,7042,NJ,7 Graham Terrace
Montclair,7042,NJ,77 Cedar Ave
Montclair,7042,NJ,31 Tichenor Pl
Montclair,7042,NJ,53 Virginia Ave
Montclair,7042,NJ,54 Nishuane Rd
Montclair,7042,NJ,60 Nishuane Rd
Montclair,7042,NJ,51 High St
Montclair,7042,NJ,35 High St
Montclair,7042,NJ,High St
Montclair,7042,NJ,1 Warren Pl
Montclair,7042,NJ,100 Gates Ave
Montclair,7042,NJ,39 Harrison Ave
Montclair,7042,NJ,15 Cross St
Montclair,7042,NJ,17 Cross St
Montclair,7042,NJ,70 Hawthorne Pl
Montclair,7042,NJ,121 S Fullerton Ave
Montclair,7042,NJ,105 Orange Rd
Montclair,7042,NJ,48 S Park St #509
Montclair,7042,NJ,48 S Park St
Montclair,7042,NJ,64 Montague Pl
Montclair,7042,NJ,51 Portland Pl
Montclair,7042,NJ,73 Valley Rd
Montclair,7042,NJ,276 Claremont Ave
Montclair,7042,NJ,262 Claremont Ave
Montclair,7042,NJ,199 Walnut St
Montclair,7042,NJ,251 Claremont Ave
Montclair,7042,NJ,108 Midland Ave
Montclair,7042,NJ,102 Midland Ave
Montclair,7042,NJ,83 Central Ave
Montclair,7042,NJ,210 Park St
Montclair,7043,NJ,280 Park St
Montclair,7043,NJ,88 Watchung Ave
Montclair,7043,NJ,6 Bruce Rd
Montclair,7043,NJ,340 N Fullerton Ave
Montclair,7043,NJ,20 Glenwood Rd
Montclair,7043,NJ,465 Park St
Montclair,7043,NJ,173 Alexander Ave
Montclair,7042,NJ,17 Hilltop Pl
Montclair,7042,NJ,21 Enfield Ave
Montclair,7042,NJ,201 Orange Rd
Montclair,7042,NJ,149 Lincoln St
,,,
Montclair,7042,NJ,32 New St
Montclair,7042,NJ,43 N Fullerton Ave
,,,
Montclair,7042,NJ,36 Forest St
Montclair,7042,NJ,14 Forest St
Montclair,7042,NJ,74 Forest St
Montclair,7042,NJ,183 Claremont Ave
Montclair,7042,NJ,72 N Willow St
Montclair,7042,NJ,48 N Willow St
Montclair,7042,NJ,36 N Willow St
,,,
,,,
,,,
,,,
,,,
,,,
Montclair,7043,NJ,127 Gordonhurst Ave
Montclair,7043,NJ,54 Carolin Rd
Montclair,7043,NJ,122 Wildwood Ave
Montclair,7043,NJ,29 Norwood Ave
Montclair,7043,NJ,9 Duryea Rd
Montclair,7043,NJ,7 Duryea Rd
Montclair,7043,NJ,528 Grove St
Montclair,7043,NJ,38 Fairview Pl
Montclair,7043,NJ,34 Fairview Pl
Montclair,7043,NJ,660 Grove St
Montclair,7043,NJ,5 Riverview Dr W
Montclair,7042,NJ,413 Orange Rd
Montclair,7042,NJ,419 Orange Rd
Montclair,7042,NJ,43 Madison Ave
Montclair,7042,NJ,30 Grenada Pl
Montclair,7042,NJ,3 Jefferson Pl
Montclair,7042,NJ,112 Lincoln St
Montclair,7042,NJ,78 Willowdale Ave
Montclair,7042,NJ,26 Draper Terrace
Montclair,7042,NJ,100 Lincoln St
Montclair,7042,NJ,55 Franklin Pl
Montclair,7042,NJ,410 Washington Ave
Montclair,7042,NJ,18 Franklin Pl
Montclair,7042,NJ,107 Lincoln St
Montclair,7042,NJ,93 Lincoln St
Montclair,7042,NJ,47 Woodland Ave
Montclair,7042,NJ,43 Woodland Ave
Montclair,7042,NJ,10 Willowdale Ave
Montclair,7042,NJ,30 Mission St
Montclair,7042,NJ,20 Mission St
Montclair,7042,NJ,12 Maple Ave
Montclair,7042,NJ,Maple Ave
Montclair,7042,NJ,6 Cloverhill Pl
Montclair,7042,NJ,70 Pine St
Montclair,7042,NJ,17 Walnut Pkwy
Montclair,7042,NJ,58 Walnut Crescent
Montclair,7042,NJ,31 Oxford St
Montclair,7042,NJ,200 Grove St
Montclair,7043,NJ,210 Watchung Ave
Montclair,7042,NJ,21 Harvard St
Montclair,7042,NJ,2 Dodd St
Montclair,7043,NJ,51 Gordonhurst Ave
Montclair,7043,NJ,8 Carlton Dr
Caldwell,7006,NJ,188 Mountain Ave
Caldwell,7006,NJ,17 Maple Dr
Caldwell,7006,NJ,84 Evergreen Dr
Nutley,7110,NJ,1 Orange St
Nutley,7110,NJ,37 Terrace Ave
Nutley,7110,NJ,42 Cathedral Ave
Nutley,7110,NJ,20 Jackson St
Nutley,7110,NJ,537 Washington Ave
Nutley,7110,NJ,Manchester Dr
Nutley,7110,NJ,137 Stratford Dr
Nutley,7110,NJ,147 Stratford Dr
Nutley,7110,NJ,61 McKinley St
Nutley,7110,NJ,84 McKinley St
Nutley,7110,NJ,145 N Rd
Nutley,7110,NJ,401 Walnut St
Nutley,7110,NJ,590 Passaic Ave
Nutley,7110,NJ,144 Lakeside Dr
Nutley,7110,NJ,78 Yantacaw Pl
Nutley,7110,NJ,223 Kingsland St
,,,
Nutley,7110,NJ,47 Lake St
Nutley,7110,NJ,14 Edison Ave
Nutley,7110,NJ,11 Emily Ave
Nutley,7110,NJ,457 Kingsland St
Nutley,7110,NJ,24 Stanley Ave
Nutley,7110,NJ,87 Hawthorne Ave
Nutley,7110,NJ,187 Hillside Ave
Nutley,7110,NJ,59 Edgar Pl
Nutley,7110,NJ,21 Erie Pl
Nutley,7110,NJ,241 Whitford Ave
Nutley,7110,NJ,245 Satterthwaite Ave
Nutley,7110,NJ,59 N Rd
Nutley,7110,NJ,125 Satterthwaite Ave
Nutley,7110,NJ,50 Hetherington Rd
Nutley,7110,NJ,160 Walnut St
Nutley,7110,NJ,208 Walnut St
Nutley,7110,NJ,125 Nutley Ave
Nutley,7110,NJ,124 Grant Ave
Nutley,7110,NJ,21 Nairn Pl
Nutley,7110,NJ,44 Burnett Pl
Nutley,7110,NJ,181 Highfield Ln
Nutley,7110,NJ,256 Grant Ave
Nutley,7110,NJ,165 Whitford Ave
Nutley,7110,NJ,244 Chestnut St
Nutley,7110,NJ,48 Raymond Ave
Nutley,7110,NJ,78 Raymond Ave
Nutley,7110,NJ,594 Bloomfield Ave
Nutley,7110,NJ,553 Bloomfield Ave
Nutley,7110,NJ,40 Chadwick Dr
Nutley,7110,NJ,30 Chadwick Dr
Nutley,7110,NJ,132 Rhoda Ave
Nutley,7110,NJ,164 Rhoda Ave
Nutley,7110,NJ,139 Watchung Pl
Nutley,7110,NJ,43 Chadwick Dr
Nutley,7110,NJ,217 Ridge Rd
Nutley,7110,NJ,193 Mountainview Ave
Nutley,7110,NJ,150 Ridge Rd
Nutley,7110,NJ,54 Newman Ave
Nutley,7110,NJ,161 Raymond Ave
Nutley,7110,NJ,141 Raymond Ave
Nutley,7110,NJ,94 Ohlson Ave
Nutley,7110,NJ,65 Howard Pl
Nutley,7110,NJ,11 Howard Pl
Nutley,7110,NJ,92 Howard Pl
Nutley,7110,NJ,19 Knox Pl
Nutley,7110,NJ,345 Prospect St
Nutley,7110,NJ,337 Prospect St
Nutley,7110,NJ,20 Carteret Pl
Nutley,7110,NJ,35 Manhattan Ct
Nutley,7110,NJ,99 Church St
Nutley,7110,NJ,293 Prospect St
Nutley,7110,NJ,26 Manhattan Ct
Nutley,7110,NJ,270 Centre St
Nutley,7110,NJ,1 Whitford Ave
Nutley,7110,NJ,3 Spurr Pl
Nutley,7110,NJ,17 Humbert St
Nutley,7110,NJ,48 Myrtle Ave
Nutley,7110,NJ,33 Friedland Rd
Nutley,7110,NJ,63 Oakridge Ave
Nutley,7110,NJ,34 Oakridge Ave
Nutley,7110,NJ,20 Florence St
Nutley,7110,NJ,120 Brookline Ave
Nutley,7110,NJ,116 Harrison St
Nutley,7110,NJ,35 Evergreen Ave
Nutley,7110,NJ,26 Evergreen Ave
Nutley,7110,NJ,46 Evergreen Ave
,,,
Nutley,7110,NJ,25 Race St
Nutley,7110,NJ,29 Chase St
Nutley,7110,NJ,186 Harrison St
Nutley,7110,NJ,198 Harrison St
Nutley,7110,NJ,36 Holmes St
Nutley,7110,NJ,34 Vine St
Nutley,7110,NJ,15 Webster St
Nutley,7110,NJ,12 Mt Vernon St
Nutley,7110,NJ,224 E Passaic Ave
Nutley,7110,NJ,228 E Passaic Ave
Nutley,7110,NJ,41 Hastings Ave
Nutley,7110,NJ,3 Parallel St
Nutley,7110,NJ,406 Harrison St
Nutley,7110,NJ,47 Hopper Ave
Nutley,7110,NJ,23 Corsay Rd
Nutley,7110,NJ,72 Milton Ave
Nutley,7110,NJ,166 Pake St
Nutley,7110,NJ,38 Briar Ln
Nutley,7110,NJ,22 Carrie Ct
Nutley,7110,NJ,49 Carrie Ct
Nutley,7110,NJ,17 Hope St
Nutley,7110,NJ,27 Crestwood Ave
Nutley,7110,NJ,138 Bloomfield Ave
Nutley,7110,NJ,144 Bloomfield Ave
Nutley,7110,NJ,45 Albany Ave
Nutley,7110,NJ,151 Harrison St
Nutley,7110,NJ,48 Entwistle Ave
Nutley,7110,NJ,40 Gless Ave
Nutley,7110,NJ,21 Harrison St
Nutley,7110,NJ,61 Passaic Ave
Nutley,7110,NJ,39 Passaic Ave
,,,
Nutley,7110,NJ,167 Conover Ave
Nutley,7110,NJ,15 Gabriel St
Nutley,7110,NJ,103 Hancox Ave
Nutley,7110,NJ,90 King St
Nutley,7110,NJ,6 Hancox Ave
Nutley,7110,NJ,25 River Rd
Nutley,7110,NJ,25 River Rd
Roseland,7068,NJ,Artho Ln
Roseland,7068,NJ,Harrison Ave
Roseland,7068,NJ,16 Cortland St
Roseland,7068,NJ,25 Lyons Ave
Roseland,7068,NJ,32 Eagle Rock Ave
South Orange,7079,NJ,178 Hill Dr
South Orange,7079,NJ,176 Glenview Rd
South Orange,7079,NJ,82 Blanchard Rd
South Orange,7079,NJ,520 Page Terrace
South Orange,7079,NJ,505 Clark St
South Orange,7079,NJ,335 Turrell Ave
South Orange,7079,NJ,516 Hamilton Rd
South Orange,7079,NJ,619 Hamilton Rd
South Orange,7079,NJ,6 Stanley Rd
South Orange,7079,NJ,9 Holland Rd
South Orange,7079,NJ,10 S Centre St
South Orange,7079,NJ,139 Mercer Pl
South Orange,7079,NJ,132 Milton Pl
South Orange,7079,NJ,331 Scotland Rd
South Orange,7079,NJ,211 Turrell Ave
South Orange,7079,NJ,150 Brentwood Dr
South Orange,7079,NJ,62 Crest Dr
South Orange,7079,NJ,9 Hoskier Rd
South Orange,7079,NJ,23 Wyoming Ave
South Orange,7079,NJ,61 5th St
South Orange,7079,NJ,168 Village Rd
South Orange,7079,NJ,170 Kilburn Pl
South Orange,7079,NJ,101 Ward Pl
South Orange,7079,NJ,400 Irvington Ave
South Orange,7079,NJ,374 Wilden Pl
South Orange,7079,NJ,159 College Pl
South Orange,7079,NJ,30 Eder Terrace
South Orange,7079,NJ,50 Eder Terrace
South Orange,7079,NJ,66 5th St
South Orange,7079,NJ,341 Academy St
South Orange,7079,NJ,77 Roland Ave
South Orange,7079,NJ,320 Valley St
,,,
South Orange,7079,NJ,117 Kenneth Terrace
South Orange,7079,NJ,433 Prospect St
South Orange,7079,NJ,240 Walton Ave
South Orange,7079,NJ,16 Lackawanna Pl
South Orange,7079,NJ,8 Lackawanna Pl
South Orange,7079,NJ,118 Rynda Rd
South Orange,7079,NJ,212 S Ridgewood Rd
South Orange,7079,NJ,124 S Wyoming Ave
South Orange,7079,NJ,365 S Ridgewood Rd
South Orange,7079,NJ,369 S Ridgewood Rd
South Orange,7079,NJ,455 S Ridgewood Rd
South Orange,7079,NJ,609 W South Orange Ave
South Orange,7079,NJ,609 W South Orange Ave
South Orange,7079,NJ,609 W South Orange Ave
South Orange,7079,NJ,55 Stone Hill Rd
South Orange,7079,NJ,95 Harding Dr
South Orange,7079,NJ,616 S Orange Ave
Verona,7044,NJ,167 Pompton Ave
Verona,7044,NJ,22 Witherspoon Rd
Verona,7044,NJ,10 Witherspoon Rd
Verona,7044,NJ,15 Crestmont Rd
Verona,7044,NJ,17 Montclair Ave
Verona,7044,NJ,141 Bloomfield Ave
Verona,7044,NJ,47 Mt Prospect Ave
Verona,7044,NJ,10 Stonewood Pkwy
Verona,7044,NJ,6 Gordon Pl
Verona,7044,NJ,41 Afterglow Way
Verona,7044,NJ,15 Birdseye Glen
Verona,7044,NJ,4 Valhalla Way
Verona,7044,NJ,12 Sylvan Rd
Verona,7044,NJ,27 Mountainview Rd
Verona,7044,NJ,16 Church St
Verona,7044,NJ,13 Malvern Pl
Verona,7044,NJ,22 Elmwood Rd
Verona,7044,NJ,23 Hillcrest Terrace
Verona,7044,NJ,17 Lanning Rd
Verona,7044,NJ,19 Newman Ave
Verona,7044,NJ,18 Floyd Rd
Verona,7044,NJ,31 Brentwood Dr
Verona,7044,NJ,27 Brentwood Dr
Verona,7044,NJ,24 Elk Rd
Verona,7044,NJ,190 Pompton Ave
Verona,7044,NJ,52 Martin Rd
Verona,7044,NJ,216 Pompton Ave
Verona,7044,NJ,16 Woodland Ave
Verona,7044,NJ,76 Woodland Ave
Verona,7044,NJ,121 Linden Ave
Verona,7044,NJ,95 Woodland Ave
Verona,7044,NJ,82 Linden Ave
Verona,7044,NJ,23 Westland Rd
Verona,7044,NJ,138 Linden Ave
Verona,7044,NJ,87 Franklin St
Verona,7044,NJ,212 Linden Ave
Verona,7044,NJ,21 Midwood Ave
Verona,7044,NJ,11 Midwood Ave
Verona,7044,NJ,10 Midwood Ave
Verona,7044,NJ,44 Franklin St
Verona,7044,NJ,235 Grove Ave
Verona,7044,NJ,48 Ann St
Verona,7044,NJ,53 Cypress Ave
Verona,7044,NJ,47 Cypress Ave
Verona,7044,NJ,42 Brookside Terrace
Verona,7044,NJ,260 Grove Ave
Verona,7044,NJ,3 Hemlock Dr
Verona,7044,NJ,2 Old Farm Rd
Verona,7044,NJ,28 Valley View Rd
Verona,7044,NJ,7 Valley View Rd
Verona,7044,NJ,27 Valley View Rd
Verona,7044,NJ,29 Valley View Rd
Verona,7044,NJ,221 Fairview Ave
Verona,7044,NJ,6 Lynwood Rd
Verona,7044,NJ,11 Clover Ln
Verona,7044,NJ,120 Franklin St
Verona,7044,NJ,60 Lynwood Rd
Verona,7044,NJ,53 Kenwood Ave
Verona,7044,NJ,246 Linden Ave
Verona,7044,NJ,281 Linden Ave
Verona,7044,NJ,273 Linden Ave
Verona,7044,NJ,66 Pine St
Verona,7044,NJ,12 Beechwood Rd
Verona,7044,NJ,763 Bloomfield Ave
Verona,7044,NJ,22 W Lincoln St
Verona,7044,NJ,20 E Lincoln St
Verona,7044,NJ,197 Linden Ave
Verona,7044,NJ,12 Hamilton Rd
Verona,7044,NJ,49 Personette Ave
Verona,7044,NJ,87 Reid Pl
Verona,7044,NJ,85 Reid Pl
Verona,7044,NJ,33 S Prospect St
Verona,7044,NJ,36 Montrose Ave
Verona,7044,NJ,6 Balston Dr
Verona,7044,NJ,109 S Prospect St
Verona,7044,NJ,105 S Prospect St
Verona,7044,NJ,20 Whitney Terrace
Verona,7044,NJ,50 Hillside Ave
Verona,7044,NJ,58 Hillside Ave
Verona,7044,NJ,41 Hillside Ave
Verona,7044,NJ,37 Gerdes Ave
Verona,7044,NJ,65 Gerdes Ave
Verona,7044,NJ,60 Fairway Ave
Verona,7044,NJ,107 Fairway Ave
Verona,7044,NJ,13 Maple Terrace
Verona,7044,NJ,14 Marion Rd
Verona,7044,NJ,59 Forest Ave
Verona,7044,NJ,51 Mountain Rd
Verona,7044,NJ,29 Mountain Rd
Verona,7044,NJ,21 Mountain Rd
Verona,7044,NJ,103 Harrison St
Verona,7044,NJ,92 Pease Ave
Verona,7044,NJ,98 Pease Ave
Verona,7044,NJ,10 Halsted St
Verona,7044,NJ,138 Hillside Ave
Verona,7044,NJ,19 Fellswood Dr
Verona,7044,NJ,5 Upland Way
Verona,7044,NJ,31 Fells Rd
Verona,7044,NJ,30 Oakridge Rd
Verona,7044,NJ,94 Fairview Ave
West Orange,7052,NJ,81 Fairway Ave
Verona,7044,NJ,1 Claridge Dr #103
Verona,7044,NJ,1 Claridge Dr #111
Verona,7044,NJ,1 Claridge Dr #124
Verona,7044,NJ,1 Claridge Dr #402
Verona,7044,NJ,1 Claridge Dr #417
Verona,7044,NJ,1 Claridge Dr #621
Verona,7044,NJ,1 Claridge Dr #628
Verona,7044,NJ,1 Claridge Dr #717
Verona,7044,NJ,1 Claridge Dr #802
Verona,7044,NJ,1 Claridge Dr #807
Verona,7044,NJ,1 Claridge Dr #815
Verona,7044,NJ,1 Claridge Dr #822
Verona,7044,NJ,1 Claridge Dr #926
,,,
Verona,7044,NJ,11 Wedgewood Dr
Verona,7044,NJ,61 Wedgewood Dr
Verona,7044,NJ,115 Wedgewood Dr
